EPISODE_ID,EVENT_ID,LONGITUDE,LATITUDE,STATE,LOCATION,ZIPCODE
110383,659793,-110.8002,32.6193,ARIZONA,ORACLE,0485623
1176792,5415715,-110.46667,31.96667,ARIZONA,BENSON,0485602
110383,659793,-110.7559,32.6226,ARIZONA,ORACLE,0485623
1214502,5517116,-112.9667,36.98333,ARIZONA,COLORADO CITY,0486021
1176792,5415715,-110.43333,31.96667,ARIZONA,BENSON,0485602
110384,661217,-110.9849,32.605,ARIZONA,ORACLE,0485739
45074,261137,-111.9061,34.7845,ARIZONA,CORNVILLE,0486325
57958,347633,-110.1939,31.4427,ARIZONA,HEREFORD,0485615
110383,659792,-110.8325,32.1918,ARIZONA,(DMA)DAVIS MONTHAN A,0485730
57958,347633,-110.2918,31.5505,ARIZONA,SIERRA VISTA,0485635
86744,538170,-110.22,31.91,ARIZONA,ST DAVID,0485630
131440,786459,-110.0701,34.9819,ARIZONA,HOLBROOK,0486025
131441,786460,-111.32,33.95,ARIZONA,TONTO BASIN,0485541
131441,786460,-111.2343,33.9279,ARIZONA,PUNKIN CENTER,0485553
57958,347632,-111.0024,31.8373,ARIZONA,CONTINENTAL,0485622
86741,524794,-110.23,31.39,ARIZONA,BLEDSOE,0485615
1162749,5337113,-110.1,31.433329999999998,ARIZONA,HEREFORD,0485615
98203,590603,-110.4002,35.539,ARIZONA,EAST RED LAKE,0486047
1218584,5529476,-110.6167,31.9,ARIZONA,GREEN VLY,0485641
1218582,5530245,-110.75,31.53333,ARIZONA,PATAGONIA,0485624
98203,590603,-110.88,35.12,ARIZONA,LEUPP CORNER,0486047
1214505,5517119,-114.05,35.2,ARIZONA,KINGMAN,0486401
86741,524794,-110.2603,31.4891,ARIZONA,BLEDSOE,0485650
86741,524793,-110.96,32.46,ARIZONA,ORO VLY,0485755
97498,588802,-109.52,31.35,ARIZONA,DOUGLAS ARPT,0485607
97500,590236,-111.0861,31.9668,ARIZONA,SAN XAVIER,0485629
57958,347632,-110.9619,31.9196,ARIZONA,GREEN VLY,0485629
110383,659792,-110.84,32.18,ARIZONA,(DMA)DAVIS MONTHAN A,0485730
131440,786459,-110.09,34.97,ARIZONA,SUN VLY,0486029
131440,786458,-110.7329,35.6702,ARIZONA,EAST RED LAKE,
1214504,5517118,-113.9667,35.26667,ARIZONA,KINGMAN,0486401
1214507,5517121,-114.2,35.9,ARIZONA,DOLAN SPGS,0486444
11043,60805,-111.8868,33.6868,ARIZONA,SCOTTSDALE MUNI,0485255
97500,590236,-110.9815,31.9389,ARIZONA,SAHUARITA,0485614
111100,662825,-109.6159,32.8182,ARIZONA,SOLOMON,0485546
1162750,5337114,-110.93333,32.23333,ARIZONA,TUCSON,0485716
99315,596359,-112.32,34.61,ARIZONA,ENTRO,0486314
99315,596359,-112.4863,34.5225,ARIZONA,MILLER VLY,0486303
98207,590609,-110.72,35.03,ARIZONA,(INW)WINSLOW ARPT,0486047
98203,590606,-110.69,35.29,ARIZONA,WINSLOW,0486047
131440,786456,-109.0508,35.7175,ARIZONA,FT DEFIANCE,0486515
1158450,5378231,-110.78333,33.4,ARIZONA,GLOBE,0485501
1158447,5379580,-110.78333,33.4,ARIZONA,GLOBE,0485501
98203,590604,-111.07,35.03,ARIZONA,TWO GUNS,0486047
131440,786456,-109.09,35.66,ARIZONA,ST MICHAELS,0486511
1176794,5415717,-111.1,32.23333,ARIZONA,TUCSON,0485745
131440,786457,-111.3285,35.8089,ARIZONA,CAMERON,0486020
131440,786458,-110.84,35.55,ARIZONA,EAST RED LAKE,0486035
131440,786457,-111.37,35.76,ARIZONA,GRAY MTN,0486020
45074,262034,-109.08,36.93,ARIZONA,TEEC NOS POS ARPT,0486514
110440,659830,-110.04,34.28,ARIZONA,SHOW LOW,0485901
22593,132755,-112.12,35.98,ARIZONA,TUSAYAN,0486023
485,2025,-111.12,32.42,ARIZONA,MARANA,0485742
495,2034,-110.35,32.86,ARIZONA,KLONDYKE,0485643
22692,133177,-113.12,35.09,ARIZONA,SELIGMAN,0486337
36890,214732,-111.82,33.2266,ARIZONA,CHANDLER ARPT,0485249
36889,214572,-114.6,32.65,ARIZONA,(YUM)YUMA INTL ARPT,0485365
36883,214490,-112.31,33.47,ARIZONA,TOLLESON,0485392
110501,660015,-110.27,31.51,ARIZONA,SIERRA VISTA,0485650
17627,101958,-110.19,31.44,ARIZONA,HEREFORD,0485615
1213987,5518690,-112.0667,32.86667,ARIZONA,STANFIELD,0485139
45236,262427,-114.155,35.2015,ARIZONA,GOLDEN VALLEY,0486413
45236,262425,-113.9737,35.2023,ARIZONA,(IGM)MOJAVE CO ARPT,0486401
45236,262425,-113.9821,35.1859,ARIZONA,GETZ,0486401
45074,265767,-111.8672,35.0205,ARIZONA,KACHINA VILLAGE,
45074,265767,-111.876,34.981,ARIZONA,SEDONA ARPT,
45074,262034,-109.0438,36.9902,ARIZONA,TEEC NOS POS ARPT,
131361,785978,-111.0821,32.3622,ARIZONA,CORTARO,0485742
131361,785979,-109.7909,32.3058,ARIZONA,WILLCOX,0485643
45236,262432,-114.2716,35.5911,ARIZONA,DOLAN SPGS,0486441
131361,785981,-111.07,31.7,ARIZONA,AMADO,0485645
22526,132319,-112.19,35.24,ARIZONA,WILLIAMS,0486046
22513,132176,-111.62,35.19,ARIZONA,SUNNYSIDE,0486004
1188896,5446907,-110.6,34.43333,ARIZONA,HEBER,0485928
1188895,5446906,-111.65,35.2,ARIZONA,FLAGSTAFF,0486001
45641,264923,-109.8412,36.1593,ARIZONA,COTTONWOOD,0486503
45641,264923,-109.85,36.15,ARIZONA,COTTONWOOD,0486503
45641,264929,-112.2734,35.1817,ARIZONA,PINE SPGS,0486046
45641,264929,-112.2453,35.2852,ARIZONA,WILLIAMS MUNI ARPT,0486046
1185298,5442086,-114.48333000000001,32.71667,ARIZONA,YUMA,0485365
1185299,5442088,-111.81667,33.41667,ARIZONA,MESA,0485203
22524,132315,-111.91,34.72,ARIZONA,CORNVILLE,0486325
1185299,5442089,-111.93333,33.9,ARIZONA,CAREFREE,0485331
1162657,5337925,-112.73333000000001,33.96667,ARIZONA,WICKENBURG,0485390
1162657,5337926,-111.93333,33.4,ARIZONA,TEMPE,0485282
66075,402452,-110.89,32.53,ARIZONA,ORACLE,0485739
66075,402453,-110.9193,32.5,ARIZONA,ORACLE,0485739
66076,402868,-112.74,32.27,ARIZONA,WHY,0485321
66076,402876,-110.9097,32.2497,ARIZONA,TUCSON,0485712
66076,402876,-110.9442,32.2722,ARIZONA,TUCSON,0485719
11242,61838,-110.75,33.18,ARIZONA,CHRISTMAS,
130976,783558,-114.0399,35.417,ARIZONA,HUALAPAI,0486409
1123326,5267874,-111.06667,36.6,ARIZONA,KAIBITO,0486053
1188855,5446985,-110.3,31.46667,ARIZONA,SIERRA VISTA,0485615
1188854,5446984,-110.26666999999999,31.46667,ARIZONA,SIERRA VISTA,0485615
1158454,5378235,-111.65,35.2,ARIZONA,FLAGSTAFF,0486001
45074,261974,-111.9271,34.9824,ARIZONA,SEDONA ARPT,0486046
45074,261974,-111.8613,35.2455,ARIZONA,INDIAN VLG,0486015
99330,596433,-109.33,35.67,ARIZONA,CROSS CANYON,0486511
1158451,5378232,-110.1,33.91667,ARIZONA,CEDAR CREEK,0485941
99330,596433,-109.2549,35.7355,ARIZONA,CROSS CANYON,0486511
99330,596429,-111.9751,35.2705,ARIZONA,PARKS,0486046
53223,319805,-110.4347,31.9932,ARIZONA,MESCAL,0485602
1158457,5378238,-110.95,34.1,ARIZONA,YOUNG,0485554
53224,328635,-110.8232,31.4647,ARIZONA,(OLS) NOGALES INTL ARPT,0485621
99330,596429,-111.65,35.4026,ARIZONA,FLAGSTAFF,0486001
45074,261973,-111.7788,35.4866,ARIZONA,BELLEMONT,
45074,261970,-111.7717,35.4738,ARIZONA,BELLEMONT,
45074,261970,-111.8707,34.9863,ARIZONA,SEDONA ARPT,
45074,261946,-111.29,34.483000000000004,ARIZONA,CLINTS WELL,0486024
45074,261946,-111.208,34.675,ARIZONA,BLUE RIDGE,0486024
7321,42041,-109.33,33.63,ARIZONA,HANNAGAN MEADOW,0485533
110440,659830,-110.03,34.3513,ARIZONA,SHOW LOW,0485901
45074,261973,-111.87700000000001,34.9976,ARIZONA,SEDONA ARPT,
1218587,5529479,-110.2167,31.51667,ARIZONA,SIERRA VISTA,0485650
1218588,5529480,-109.2667,33.7,ARIZONA,HANNAGAN MEADOW,0485922
45074,261976,-111.9816,34.2215,ARIZONA,BUMBLE BEE,0486333
99388,596686,-111.5257,35.2732,ARIZONA,SUNSET CRATER,0486004
99388,596686,-111.57,35.23,ARIZONA,SUNNYSIDE,0486004
77723,469331,-111.7076,35.1607,ARIZONA,(FLG)FLAGSTAFF ARPT,0486001
45074,262031,-111.91,34.72,ARIZONA,CORNVILLE,0486325
1152067,5356956,-111.36667,35.53333,ARIZONA,WUPATKI,0486020
45074,262026,-111.6958,35.0949,ARIZONA,KACHINA VILLAGE,0486001
77723,469331,-111.7951,35.0277,ARIZONA,(FLG)FLAGSTAFF ARPT,
45074,262013,-111.64,35.01,ARIZONA,MOUNTAINAIRE,0486001
45074,262009,-111.64,34.94,ARIZONA,MUNDS PARK,0486017
45074,261983,-111.75,34.65,ARIZONA,RIMROCK,0486335
45074,261982,-111.64,34.78,ARIZONA,BEAVER CREEK,0486335
45074,261981,-112.02,34.72,ARIZONA,CLEMENCEAU,0486326
45074,261980,-111.91,35.05,ARIZONA,INDIAN VLG,
45074,261979,-111.95,35.26,ARIZONA,PARKS,0486046
45074,261978,-111.5657,35.1735,ARIZONA,SUNNYSIDE,0486004
45074,261978,-111.6647,34.9404,ARIZONA,MUNDS PARK,0486336
45074,261977,-111.001,35.9342,ARIZONA,MOENKOPI,
1218590,5529482,-110.2833,31.53333,ARIZONA,SIERRA VISTA,0485635
45074,261976,-112.0551,34.1358,ARIZONA,BUMBLE BEE,0485324
45074,261137,-111.9181,34.6945,ARIZONA,CORNVILLE,0486325
644,2835,-111.82,33.42,ARIZONA,MESA,0485203
75967,471791,-110.1899,31.4527,ARIZONA,HEREFORD,0485615
646,2843,-111.23,33.75,ARIZONA,ROOSEVELT,0485553
132017,790003,-110.97,35.1,ARIZONA,METEOR CITY,0486047
132017,790003,-110.94,35.1,ARIZONA,METEOR CITY,0486047
1217476,5527249,-112.2333,34.5,ARIZONA,HUMBOLDT,0486329
82137,494094,-111.95,33.75,ARIZONA,CAVE CREEK,0485331
82137,494354,-111.85,33.74,ARIZONA,CAVE CREEK,0485262
75651,460433,-109.3009,32.8509,ARIZONA,APACHE GROVE,0485534
44546,258460,-112.1313,36.9988,ARIZONA,JACOB LAKE,
44546,258460,-112.0448,36.9993,ARIZONA,JACOB LAKE,0486036
1217475,5527248,-112.45,34.76667,ARIZONA,PRESCOTT VALLEY,0486323
44637,258880,-114.21,33.67,ARIZONA,QUARTZSITE ARPT,0485346
1217472,5527245,-112.1833,35.25,ARIZONA,WILLIAMS,0486046
1119799,5258397,-110.65,32.83333,ARIZONA,MAMMOTH,0485192
1217469,5527242,-111.65,35.2,ARIZONA,FLAGSTAFF,0486001
1217478,5527251,-112.4833,35.21667,ARIZONA,ASHFORK,0486320
110277,658814,-111.29,34.24,ARIZONA,PAYSON,0485541
1139955,5311281,-111.85,34.56667,ARIZONA,CAMP VERDE,0486322
110276,658806,-111.47,35.27,ARIZONA,COSNINO,0486004
1139969,5311295,-109.55,36.15,ARIZONA,CHINLE,0486503
110276,658804,-111.47,35.27,ARIZONA,COSNINO,0486004
1190760,5452485,-110.0,34.26667,ARIZONA,SHOW LOW MUNI ARPT,0485901
82137,494705,-111.846,33.4178,ARIZONA,MESA,0485201
1117096,5252625,-111.83333,35.23333,ARIZONA,BELLEMONT,0486015
82137,494705,-111.8538,33.4176,ARIZONA,MC QUEEN,0485201
58198,349037,-111.64,34.91,ARIZONA,MUNDS PARK,0486017
1190759,5452405,-109.85,34.83333,ARIZONA,PETRIFIED FOREST NAT,0486025
58198,349327,-111.7056,35.3347,ARIZONA,FLAGSTAFF,0486001
1221258,5534672,-112.0667,33.48333,ARIZONA,PHOENIX,0485014
58198,349327,-111.6967,35.3354,ARIZONA,FLAGSTAFF,0486001
1163488,5371996,-110.06667,35.6,ARIZONA,WHITE CONE,0486034
44508,258283,-109.62,36.26,ARIZONA,MANY FARMS,0486503
1139951,5311277,-112.46667,34.88333,ARIZONA,PAULDEN,0486334
1139950,5311276,-112.46667,34.55,ARIZONA,PRESCOTT,0486301
43435,256058,-113.22,32.87,ARIZONA,SENTINEL,0485333
1099197,5163669,-110.71667,33.45,ARIZONA,GLOBE,0485501
20572,122490,-110.7916,32.1058,ARIZONA,LITTLETOWN,0485747
20572,122489,-110.96,32.42,ARIZONA,ORO VLY,0485737
131886,788924,-111.2729,32.0263,ARIZONA,THREE PTS,0485736
131886,788924,-110.9713,31.9688,ARIZONA,SAHUARITA,0485629
131886,788925,-110.6528,31.6761,ARIZONA,SONOITA,0485637
131886,789053,-110.52,31.66,ARIZONA,ELGIN,0485611
131888,788930,-111.27,32.07,ARIZONA,THREE PTS,0485736
43446,253068,-109.9594,34.1429,ARIZONA,LAKESIDE,0485929
43459,253122,-109.96,33.84,ARIZONA,WHITERIVER,0485941
131888,788932,-111.05,31.57,ARIZONA,CARMEN,0485640
64871,388439,-110.78,33.4,ARIZONA,GLOBE,0485501
1213293,5514378,-111.2167,32.45,ARIZONA,MARANA,0485653
43548,253504,-112.49,35.19,ARIZONA,ASHFORK,0486320
1217498,5526518,-110.0833,34.5,ARIZONA,SNOWFLAKE,0485937
1217483,5527312,-112.45,34.76667,ARIZONA,PRESCOTT VALLEY,0486323
43605,253800,-114.14,32.67,ARIZONA,WELLTON,0485356
1213295,5514380,-110.3,31.55,ARIZONA,SIERRA VISTA,0485635
1217482,5527311,-111.3333,34.23333,ARIZONA,PAYSON,0485541
1217481,5527310,-112.4667,34.55,ARIZONA,PRESCOTT,0486301
1217480,5527309,-111.45,34.38333,ARIZONA,PINE,0485544
1217479,5527252,-111.45,34.38333,ARIZONA,PINE,0485544
44018,266215,-111.9188,33.8234,ARIZONA,CAVE CREEK,0485377
44018,266215,-112.304,33.4097,ARIZONA,CASHION,0485353
44018,266216,-112.2288,33.5855,ARIZONA,GLENDALE MUNI ARPT,0485345
44018,266216,-111.9672,33.2692,ARIZONA,WEST CHANDLER,0485226
44018,266217,-111.7722,33.5724,ARIZONA,FOUNTAIN HILLS,0485259
44018,266217,-111.8522,33.532,ARIZONA,SCOTTSDALE,0485256
10598,59000,-111.51,35.27,ARIZONA,COSNINO,0486004
1190758,5452404,-112.1333,35.95,ARIZONA,GRAND CANYON N P ARP,0486023
1190757,5452403,-111.75,34.85,ARIZONA,SEDONA,0486336
1190756,5452402,-111.6667,34.9,ARIZONA,MUNDS PARK,0486017
18331,107184,-110.95,31.96,ARIZONA,SAHUARITA,0485629
18335,109083,-110.06,31.72,ARIZONA,TOMBSTONE,0485638
18534,108492,-110.75,33.38,ARIZONA,PINAL,0485501
94090,565894,-113.8558,35.3791,ARIZONA,WALAPAI,0486401
1217452,5527141,-112.1833,34.9,ARIZONA,PERKINSVILLE,0486324
1168657,5393727,-110.95,35.1,ARIZONA,METEOR CITY,0486047
1168656,5393726,-111.65,35.2,ARIZONA,FLAGSTAFF,0486001
1199995,5476851,-110.85,32.16667,ARIZONA,TUCSON,0485730
1199996,5476852,-110.3,31.55,ARIZONA,SIERRA VISTA,0485635
1200185,5476607,-109.9667,34.15,ARIZONA,LAKESIDE,0485929
1200186,5476608,-111.7333,34.65,ARIZONA,RIMROCK,0486335
1200187,5476609,-111.65,35.2,ARIZONA,FLAGSTAFF,0486001
1200189,5476611,-112.8833,35.31667,ARIZONA,SELIGMAN,0486337
26411,154517,-112.0483,33.6351,ARIZONA,PHOENIX TURF ARPT,0485022
26411,154517,-112.05,33.6351,ARIZONA,PHOENIX TURF ARPT,0485022
1200191,5476613,-110.95,35.1,ARIZONA,METEOR CITY,0486047
1161248,5374514,-110.63333,32.6,ARIZONA,SAN MANUEL,0485631
53549,320574,-112.3,33.599000000000004,ARIZONA,SUN CITY,0485363
1200192,5476614,-111.4167,35.88333,ARIZONA,CAMERON,0486020
1200192,5476615,-110.5,36.76667,ARIZONA,KYKOTSMOVI,0486033
1200192,5476615,-110.6167,35.83333,ARIZONA,KYKOTSMOVI,0486043
1200194,5476617,-111.45,36.3,ARIZONA,THE GAP,0486020
1200195,5476618,-111.2333,36.13333,ARIZONA,TUBA CITY,0486045
1200196,5476619,-112.2333,34.4,ARIZONA,CORDES JUNCTION,0486333
1200196,5476619,-112.6167,34.33333,ARIZONA,CORDES JUNCTION,0486332
1213395,5514419,-110.2,35.81667,ARIZONA,KEAMS CANYON,0486034
90560,543492,-112.45,34.76,ARIZONA,CHINO VLY,0486323
5915,34559,-110.93,31.36,ARIZONA,NOGALES,0485621
19370,114447,-110.9,32.31,ARIZONA,CASAS ADOBES,0485718
1142565,5317782,-111.51666999999999,34.4,ARIZONA,STRAWBERRY,0485544
98853,593852,-109.7089,32.8641,ARIZONA,SAFFORD,0485546
58252,349622,-110.37,35.37,ARIZONA,DILKON,0486047
97501,591013,-110.97,31.49,ARIZONA,RIO RICO,0485648
1163489,5371997,-110.06667,35.6,ARIZONA,WHITE CONE,0486034
1217468,5527241,-110.15,34.28333,ARIZONA,LINDEN,0485901
1217464,5527237,-110.6,34.43333,ARIZONA,HEBER,0485928
1217463,5527236,-111.4667,34.91667,ARIZONA,MORMON LAKE,0486038
1217461,5527234,-112.15,34.2,ARIZONA,BUMBLE BEE,0486333
3106,16778,-112.45,34.73,ARIZONA,CHINO VLY,0486323
1217458,5527147,-112.2333,34.53333,ARIZONA,DEWEY,0486327
1217457,5527146,-111.65,35.2,ARIZONA,FLAGSTAFF,0486001
1096771,5148978,-112.06667,33.48333,ARIZONA,PHOENIX,0485014
1096769,5148975,-111.13333,33.66667,ARIZONA,ROOSEVELT,0485545
97500,590297,-111.3445,32.2947,ARIZONA,SILVER BELL,0485653
97500,590297,-111.3514,32.2852,ARIZONA,SILVER BELL,0485653
97501,590947,-110.77,32.45,ARIZONA,SUMMERHAVEN,0485619
97501,590976,-111.1296,32.1771,ARIZONA,OLD TUSCON,0485735
97501,590976,-110.8927,32.3086,ARIZONA,SABINO,0485718
97501,590985,-110.3016,31.5388,ARIZONA,SIERRA VISTA,
1120080,5259993,-110.98333000000001,32.41667,ARIZONA,ORO VLY,0485737
1120068,5259905,-110.3,31.48333,ARIZONA,SIERRA VISTA,
1120066,5259903,-110.98333000000001,31.566670000000002,ARIZONA,RIO RICO,0485648
44698,259303,-111.7533,33.4226,ARIZONA,BUCKHORN,0485213
97501,590985,-110.27,31.55,ARIZONA,SIERRA VISTA,0485635
10665,60283,-114.62,32.6766,ARIZONA,YUMA,0485364
10665,60283,-114.62,32.6911,ARIZONA,YUMA,0485364
97501,590992,-110.7667,31.9616,ARIZONA,VAIL JCT,0485641
97501,590992,-110.6933,31.9709,ARIZONA,VAIL JCT,0485641
1142562,5317779,-111.13333,33.66667,ARIZONA,ROOSEVELT,0485545
97501,591007,-110.3302,31.6281,ARIZONA,HUACHCA VLG,0485616
97501,591007,-110.3361,31.6283,ARIZONA,HUACHCA VLG,0485616
97501,591011,-110.27,31.51,ARIZONA,SIERRA VISTA,0485650
1142564,5317781,-109.13333,33.85,ARIZONA,ALPINE,0485920
98853,593852,-109.7186,32.8662,ARIZONA,THATCHER,0485546
87130,525880,-110.47,33.35,ARIZONA,SAN CARLOS,0485550
1141866,5312812,-110.35,31.58333,ARIZONA,(FHU)FT HUACHUCA AFB,0485613
88094,531708,-114.4,32.85,ARIZONA,DOME,0485365
45064,261115,-112.88,35.33,ARIZONA,SELIGMAN ARPT,0486337
20754,123242,-112.0166,33.4956,ARIZONA,PHOENIX,0485016
20754,123242,-112.06,33.3,ARIZONA,WEST CHANDLER,0485048
45064,261115,-112.868,35.2954,ARIZONA,SELIGMAN,0486337
45057,261095,-112.8955,35.3101,ARIZONA,SELIGMAN,0486337
45057,261095,-112.8678,35.3439,ARIZONA,SELIGMAN ARPT,0486320
10915,60279,-112.37,33.98,ARIZONA,CASTLE HOT SPGS,0485342
23134,134996,-111.7419,32.7041,ARIZONA,FREEMAN,
23134,134996,-112.2,33.58,ARIZONA,GLENDALE MUNI ARPT,0485302
23319,136177,-109.38,33.85,ARIZONA,THREE FORKS,
23320,136180,-109.7932,34.8804,ARIZONA,ADAMANA,0486028
23320,136180,-109.7891,35.1211,ARIZONA,RICE,0486028
23321,136181,-111.7663,34.7634,ARIZONA,OAK CREEK CANYON ARP,0486351
23321,136181,-111.7632,34.792,ARIZONA,OAK CREEK CANYON ARP,0486351
23321,136182,-111.7636,34.7924,ARIZONA,SEDONA,0486351
23321,136182,-111.762,34.8789,ARIZONA,SEDONA,0486336
1162851,5337049,-109.5,35.41667,ARIZONA,WIDE RUIN,0486502
1162853,5337051,-111.65,35.2,ARIZONA,FLAGSTAFF,0486001
1162854,5337132,-112.23333000000001,34.4,ARIZONA,MAYER,0486333
23572,137447,-110.3405,31.8893,ARIZONA,WHETSTONE,0485630
10914,60277,-111.45,34.2499,ARIZONA,PINE,0485541
10909,60273,-109.09,33.85,ARIZONA,ALPINE,0485920
1162855,5337133,-111.65,35.2,ARIZONA,FLAGSTAFF,0486001
1162856,5337134,-112.46667,34.55,ARIZONA,PRESCOTT,0486301
1162857,5337135,-112.46667,34.55,ARIZONA,PRESCOTT,0486301
1162858,5337136,-112.61667,34.33333,ARIZONA,CORDES JUNCTION,0486332
1187989,5447505,-112.73333000000001,33.96667,ARIZONA,WICKENBURG,0485390
1134118,5291356,-109.6,34.46667,ARIZONA,CONCHO,0485924
1162844,5337042,-111.83333,35.23333,ARIZONA,BELLEMONT,0486015
76342,460412,-110.29,31.55,ARIZONA,SIERRA VISTA,0485635
1162844,5337042,-111.65,35.2,ARIZONA,BELLEMONT,0486001
45064,261118,-111.9428,35.2543,ARIZONA,PARKS,0486018
111100,662825,-109.7277,32.8045,ARIZONA,SAFFORD,0485546
45066,261134,-112.6696,35.2423,ARIZONA,PINEVETA,0486320
45066,261134,-112.7699,35.2748,ARIZONA,CROOKTON,0486337
57976,347636,-110.79,32.61,ARIZONA,ORACLE,0485623
57976,347639,-110.94,32.24,ARIZONA,TUCSON,0485719
57977,347645,-110.3,31.96,ARIZONA,BENSON,0485602
57977,347647,-111.17,32.41,ARIZONA,RILLITO,0485653
57977,347648,-111.2156,32.446,ARIZONA,MARANA,0485653
57977,347649,-110.9097,32.1341,ARIZONA,LITTLETOWN,0485756
57980,347655,-110.87,32.18,ARIZONA,(DMA)DAVIS MONTHAN A,0485708
45066,261132,-111.31,34.25,ARIZONA,PAYSON,0485541
1095990,5149997,-109.81667,31.91667,ARIZONA,PEARCE,0485625
1095991,5149998,-110.3,31.55,ARIZONA,SIERRA VISTA,0485635
1095992,5150000,-111.15,32.4,ARIZONA,MARANA,0485743
1095995,5150003,-109.83333,32.25,ARIZONA,WILLCOX,0485643
1095998,5150006,-111.0,32.4,ARIZONA,ORO VLY,0485737
1123325,5267873,-110.08333,34.5,ARIZONA,SNOWFLAKE,0485937
1123324,5267872,-110.08333,34.5,ARIZONA,SNOWFLAKE,0485937
1123321,5267796,-110.86667,33.71667,ARIZONA,CENTRAL PORTION,0485554
1123320,5268491,-110.7,35.03333,ARIZONA,WINSLOW,0486047
1206444,5497872,-110.9667,35.28333,ARIZONA,LEUPP,0486035
1162840,5372054,-111.5,35.16667,ARIZONA,DONEY PARK,0486001
1162841,5372055,-111.65,35.2,ARIZONA,FLAGSTAFF,0486001
1162842,5337040,-111.75,34.85,ARIZONA,SEDONA,0486336
1162843,5337041,-110.08333,34.5,ARIZONA,SNOWFLAKE,0485937
45066,261127,-113.18,34.57,ARIZONA,BAGDAD,0486321
1099664,5175711,-110.93333,32.23333,ARIZONA,TUCSON,0485716
45066,261126,-113.18,34.57,ARIZONA,BAGDAD,0486321
45064,261118,-111.9155,35.2542,ARIZONA,PARKS,0486001
1099651,5176087,-110.66667,32.36667,ARIZONA,TUCSON INTL ARPT,0485619
646,2843,-110.4,33.35,ARIZONA,SAN CARLOS,0485542
84901,512692,-109.52,31.35,ARIZONA,DOUGLAS ARPT,0485607
1160966,5377139,-110.65,31.683329999999998,ARIZONA,SONOITA,0485637
58111,348524,-110.34,34.49,ARIZONA,ZENIFF,
58111,348524,-110.3824,34.4721,ARIZONA,ARIPINE,
1193047,5458416,-114.05,35.2,ARIZONA,KINGMAN,0486401
58118,348543,-111.4963,35.067,ARIZONA,WALNUT CANYON,0486001
58123,348556,-112.45,34.76,ARIZONA,CHINO VLY,0486323
58126,348560,-111.64,34.9,ARIZONA,MUNDS PARK,0486017
34278,198361,-109.6219,31.4114,ARIZONA,DOUGLAS,0485607
58127,348563,-111.64,35.19,ARIZONA,FLAGSTAFF,0486001
58127,348564,-111.63,35.2,ARIZONA,SUNNYSIDE,0486004
58127,348565,-111.65,35.17,ARIZONA,FLAGSTAFF,0486001
58127,348566,-111.62,35.19,ARIZONA,SUNNYSIDE,0486004
58127,348567,-111.58,35.19,ARIZONA,SUNNYSIDE,0486004
1176738,5414759,-112.23333000000001,34.5,ARIZONA,HUMBOLDT,0486329
1176737,5414758,-109.95,34.11667,ARIZONA,PINETOP,0485935
1176735,5414756,-111.33333,34.23333,ARIZONA,PAYSON,0485541
1176728,5414695,-109.85,34.83333,ARIZONA,PETRIFIED FOREST NAT,0486025
1176726,5414693,-112.45,34.76667,ARIZONA,PRESCOTT VALLEY,0486323
1176725,5414692,-112.23333000000001,34.53333,ARIZONA,DEWEY,0486327
58127,348568,-111.62,35.16,ARIZONA,SUNNYSIDE,0486001
1110420,5227956,-111.81667,33.41667,ARIZONA,MESA,0485203
32404,189781,-110.538,34.3788,ARIZONA,HEBER,0485933
58131,348574,-110.08,34.52,ARIZONA,SNOWFLAKE,0485937
33167,193237,-112.68,34.5,ARIZONA,SKULL VLY,0486338
1141872,5312820,-110.93333,32.23333,ARIZONA,TUCSON,0485716
98981,594572,-111.95,33.48,ARIZONA,PAPAGO AAF ARPT,0485257
32404,189781,-110.6,34.43,ARIZONA,HEBER,0485928
32920,192024,-114.2715,35.2324,ARIZONA,GOLDEN VALLEY,0486413
1176723,5414690,-112.06667,34.76667,ARIZONA,CLARKDALE,0486324
1176722,5414689,-111.65,35.2,ARIZONA,FLAGSTAFF,0486001
58103,348479,-110.12,34.87,ARIZONA,HOLBROOK,0486025
1160961,5377505,-110.93333,32.23333,ARIZONA,TUCSON,0485716
10498,58381,-112.4645,34.7587,ARIZONA,CHINO VLY,0486323
1123270,5268079,-114.63333,35.1,ARIZONA,BULLHEAD CITY,0486442
111876,667219,-110.7185,32.0338,ARIZONA,VAIL JCT,0485641
111881,667273,-109.79700000000001,32.8689,ARIZONA,CENTRAL,0485543
111881,667273,-109.814,32.8953,ARIZONA,PIMA,0485543
77544,467845,-114.62,32.68,ARIZONA,EL PUEBLECITO,0485364
1221376,5533561,-110.9333,31.35,ARIZONA,NOGALES,0485621
1147623,5342541,-111.9,33.48333,ARIZONA,SCOTTSDALE,0485251
1147623,5342541,-111.93333,33.9,ARIZONA,SCOTTSDALE,0485331
1147626,5342636,-111.93333,33.9,ARIZONA,CAREFREE,0485331
43002,250673,-113.6113,34.7037,ARIZONA,WIKIEUP,0485360
110338,659125,-111.5188,34.8989,ARIZONA,MORMON LAKE,0486024
110338,659125,-111.45,34.91,ARIZONA,MORMON LAKE,0486038
110338,659123,-112.3586,34.592,ARIZONA,ENTRO,0486314
110338,659123,-112.45,34.58,ARIZONA,FORBING PARK,0486301
76197,459571,-110.77,32.45,ARIZONA,SUMMERHAVEN,0485619
76196,459555,-111.10600000000001,32.3467,ARIZONA,CORTARO,0485743
43002,250807,-114.5956,35.0824,ARIZONA,RIVIERA,0486442
43039,250959,-114.65,32.69,ARIZONA,EL PUEBLECITO,0485364
1195459,5468166,-109.55,35.11667,ARIZONA,NAVAJO,0486502
1195458,5468165,-111.3333,34.23333,ARIZONA,PAYSON,0485541
43039,250960,-114.65,32.72,ARIZONA,CRANE,0485364
1195457,5468164,-109.6,34.46667,ARIZONA,CONCHO,0485924
1195456,5468163,-109.3667,34.5,ARIZONA,ST JOHNS,0485936
1195299,5467939,-111.8167,33.41667,ARIZONA,MESA,0485203
1142016,5312731,-110.76666999999999,32.61667,ARIZONA,ORACLE,0485623
34066,197199,-110.538,34.3788,ARIZONA,HEBER,0485933
1142015,5312730,-111.1,33.28333,ARIZONA,SUPERIOR,0485173
1142015,5312647,-111.81667,33.41667,ARIZONA,MESA,0485203
34066,197199,-110.6,34.43,ARIZONA,HEBER,0485928
1123270,5268079,-114.61667,35.11667,ARIZONA,BULLHEAD CITY,0486442
10495,58368,-111.67,35.4191,ARIZONA,FLAGSTAFF ARPT,0486001
47921,285317,-114.4027,35.2095,ARIZONA,BULLHEAD CITY ARPT,0486429
90560,543492,-112.3932,34.8178,ARIZONA,PURO,0486323
243,1031,-111.83,35.07,ARIZONA,BELLEMONT,
29178,171250,-110.63,32.6,ARIZONA,SAN MANUEL,0485631
1220054,5532264,-111.4833,33.46667,ARIZONA,APACHE JCT,0485215
1220055,5532266,-112.5333,33.78333,ARIZONA,WITTMANN,0485361
106848,644161,-111.0764,32.2934,ARIZONA,JAYNES,0485745
106848,644167,-110.8055,32.1156,ARIZONA,LITTLETOWN,0485747
1180765,5424060,-110.95,34.1,ARIZONA,YOUNG,0485554
106852,645898,-111.13,32.17,ARIZONA,OLD TUSCON,0485735
1220056,5532268,-114.5,33.05,ARIZONA,MARTINEZ LAKE,
1100431,5156057,-110.6,34.43333,ARIZONA,HEBER,0485928
1100430,5156056,-112.46667,34.55,ARIZONA,PRESCOTT,0486301
1100428,5156054,-111.85,34.56667,ARIZONA,CAMP VERDE,0486322
100420,602377,-110.1755,31.9499,ARIZONA,SIBYL,0485602
1100427,5156053,-112.46667,34.55,ARIZONA,PRESCOTT,0486301
1100426,5156051,-112.46667,34.55,ARIZONA,PRESCOTT,0486301
1162025,5374254,-110.8,34.33333,ARIZONA,FOREST LAKES,0485931
89066,536754,-114.07,35.2081,ARIZONA,KINGMAN,0486409
78922,473876,-110.9098,32.2596,ARIZONA,TUCSON,0485716
78924,473879,-112.23,34.2842,ARIZONA,MAYER,0486333
89066,536754,-114.0244,35.2505,ARIZONA,NEW KINGMAN-BUTLER,0486409
21260,125739,-112.23,34.4,ARIZONA,MAYER,0486333
1162028,5374257,-112.28333,33.75,ARIZONA,BLACK CANYON CITY,0485383
21254,125713,-111.52,34.4,ARIZONA,STRAWBERRY,0485544
89092,536861,-113.0831,34.9189,ARIZONA,SELIGMAN,0486305
89092,536861,-113.2556,35.013000000000005,ARIZONA,SELIGMAN,0486305
1100427,5156052,-112.46667,34.55,ARIZONA,PRESCOTT,0486301
100420,602377,-110.1839,31.9444,ARIZONA,SIBYL,0485602
1122553,5266975,-110.16667,34.9,ARIZONA,HOLBROOK,0486025
9705,54303,-110.941,32.2393,ARIZONA,TUCSON,0485719
78580,472649,-110.87,33.4,ARIZONA,MIAMI,0485539
16916,97654,-110.77,32.13,ARIZONA,LITTLETOWN,0485747
99600,600054,-110.22,31.9,ARIZONA,ST DAVID,0485630
16916,97653,-110.2,31.96,ARIZONA,FENNER,0485602
1162017,5374245,-111.78333,34.85,ARIZONA,OAK CREEK CANYON ARP,0486336
1162019,5374247,-109.38333,34.36667,ARIZONA,LYMAN LAKE,0485936
96723,582346,-112.8916,36.9476,ARIZONA,CANE BEDS,0486022
96731,582461,-114.3952,35.2162,ARIZONA,BULLHEAD CITY ARPT,0486429
21272,125851,-111.95,35.25,ARIZONA,PARKS,0486018
1162023,5374252,-110.6,34.43333,ARIZONA,HEBER,0485928
99604,599896,-110.78,32.0726,ARIZONA,VAIL,0485747
1203901,5491382,-109.9167,31.433329999999998,ARIZONA,DOUGLAS,0485603
1203901,5491382,-109.55,31.35,ARIZONA,DOUGLAS,0485607
100420,601395,-110.8035,32.1636,ARIZONA,(DMA)DAVIS MONTHAN A,0485730
1122542,5266896,-111.96667,35.71667,ARIZONA,OAK CREEK CANYON,0486046
1122545,5266964,-112.46667,34.55,ARIZONA,PRESCOTT,0486301
1122546,5266965,-112.46667,34.55,ARIZONA,PRESCOTT,0486301
99604,599896,-110.7752,32.0679,ARIZONA,VAIL,0485747
1122547,5266967,-112.46667,34.55,ARIZONA,PRESCOTT,0486301
1122548,5266968,-111.4,34.75,ARIZONA,HAPPY JACK,0486024
1122549,5266969,-112.18333,35.25,ARIZONA,WILLIAMS,0486046
1122550,5266972,-111.73333000000001,34.65,ARIZONA,RIMROCK,0486335
1122551,5266973,-112.2,35.65,ARIZONA,VALLE,0486046
1122552,5266974,-109.95,34.11667,ARIZONA,PINETOP,0485935
9705,54302,-110.7099,32.05,ARIZONA,VAIL,0485641
78924,473879,-112.23,34.1829,ARIZONA,MAYER,0486343
1162015,5374243,-110.2,35.81667,ARIZONA,KEAMS CANYON,0486034
55711,334083,-113.6103,34.703,ARIZONA,WIKIEUP,0485360
1220846,5534684,-112.8833,35.73333,ARIZONA,ROSE WELL,0486337
1189558,5448825,-111.55,32.75,ARIZONA,ELOY,0485131
1162030,5374308,-111.5,35.16667,ARIZONA,DONEY PARK,0486001
1162032,5374310,-112.46667,34.55,ARIZONA,PRESCOTT,0486301
1162033,5374311,-112.46667,34.55,ARIZONA,PRESCOTT,0486301
1180874,5425118,-111.03333,32.31667,ARIZONA,TUCSON,0485741
1162035,5374313,-111.36667,35.53333,ARIZONA,WUPATKI,0486020
1142690,5316971,-111.88333,31.9,ARIZONA,SELLS,0485634
1142689,5316970,-111.21667,32.45,ARIZONA,MARANA,0485653
1142689,5316889,-110.93333,32.23333,ARIZONA,TUCSON,0485716
1142683,5316879,-109.55,31.35,ARIZONA,DOUGLAS,0485607
1197716,5473557,-112.0667,33.48333,ARIZONA,PHOENIX,0485014
6653,38703,-113.9999,35.2409,ARIZONA,KINGMAN,0486409
1121175,5264213,-111.51666999999999,32.96667,ARIZONA,COOLIDGE,0485128
89567,540447,-109.9993,32.2659,ARIZONA,COCHISE CO ARPT,0485643
243,1031,-111.84,35.2,ARIZONA,BELLEMONT,
1162036,5374314,-112.2,35.65,ARIZONA,VALLE,0486046
1197715,5473556,-111.8167,33.41667,ARIZONA,MESA,0485203
89560,539367,-109.66,31.37,ARIZONA,PAUL SPUR,0485607
1162037,5374315,-113.16667,34.56667,ARIZONA,BAGDAD,0486321
100618,602824,-114.6097,35.1097,ARIZONA,RIVIERA,0486442
100618,602825,-114.2554,35.22,ARIZONA,GOLDEN VALLEY,0486413
107936,646644,-113.96,35.29,ARIZONA,BERRY,0486401
22038,129967,-114.05,35.3158,ARIZONA,KINGMAN,0486409
22043,129989,-112.52,35.19,ARIZONA,ASHFORK,0486320
89567,540447,-109.9918,32.2564,ARIZONA,COCHISE CO ARPT,0485643
72644,438193,-112.0,33.32,ARIZONA,WEST CHANDLER,0485044
108105,649667,-113.43,35.53,ARIZONA,PEACH SPGS,0486434
1143717,5320867,-111.65,35.2,ARIZONA,COSNINO,0486001
1220838,5534628,-112.45,34.76667,ARIZONA,PRESCOTT VALLEY,0486323
1143756,5319770,-112.06667,32.86667,ARIZONA,STANFIELD,0485139
1143756,5319769,-112.16667,33.36667,ARIZONA,LAVEEN,0485339
1143756,5319768,-112.06667,32.86667,ARIZONA,STANFIELD,0485139
1143755,5319767,-113.5,33.68333,ARIZONA,SALOME,
1143754,5319764,-112.06667,33.48333,ARIZONA,GOODYEAR,0485014
1143754,5319764,-112.35,33.43333,ARIZONA,GOODYEAR,0485323
1143737,5321061,-110.01666999999999,35.68333,ARIZONA,COW SPGS,0486034
1143733,5320962,-109.36667,34.5,ARIZONA,ST JOHNS,0485936
1220837,5534627,-112.4833,35.21667,ARIZONA,ASHFORK,0486320
89280,538214,-109.54,31.42,ARIZONA,DOUGLAS,0485607
1220836,5534626,-112.4667,34.55,ARIZONA,PRESCOTT,0486301
1220835,5534625,-112.5833,34.41667,ARIZONA,WILHOLT,0486332
1220834,5534624,-111.4,34.75,ARIZONA,HAPPY JACK,0486024
1143727,5320956,-111.45,34.38333,ARIZONA,PINE,0485544
1220057,5532269,-111.8667,33.95,ARIZONA,CAREFREE,0485331
1220071,5532356,-114.2333,32.91667,ARIZONA,YUMA PROVING GROUND,0485365
1220833,5534623,-112.4667,34.55,ARIZONA,PRESCOTT,0486301
1143726,5320955,-111.45,34.38333,ARIZONA,PINE,0485544
1220832,5534622,-111.6667,35.13333,ARIZONA,FLAGSTAFF ARPT,0486001
85836,521495,-111.2455,32.3455,ARIZONA,TUSCON MARANA NW AIRPORT,0485743
67641,405635,-109.85,34.099000000000004,ARIZONA,MC NARY,0485930
1143721,5320871,-112.45,34.73333,ARIZONA,CHINO VLY,0486323
1143718,5320868,-111.46667,34.91667,ARIZONA,MORMON LAKE,0486038
1143717,5320867,-111.48333000000001,35.2,ARIZONA,COSNINO,0486004
1180774,5424292,-110.43333,34.96667,ARIZONA,JACK RABBIT,0486032
16916,97655,-111.17,32.41,ARIZONA,RILLITO,0485653
41214,239808,-110.21,31.35,ARIZONA,PALOMINAS,0485615
105449,632477,-112.75,34.22,ARIZONA,GLEN ILAH,0485362
76811,463646,-110.77,32.99,ARIZONA,HAYDEN,0485192
1158998,5330167,-109.83333,32.25,ARIZONA,WILLCOX,0485643
1158994,5330162,-111.05,31.616670000000003,ARIZONA,TUBAC,0485646
1158990,5330157,-110.3,31.96667,ARIZONA,BENSON,0485602
1158990,5330156,-110.3,31.96667,ARIZONA,BENSON,0485602
1178926,5418696,-109.3,33.05,ARIZONA,CLIFTON,0485533
1178925,5418695,-109.71667,32.81667,ARIZONA,SAFFORD,0485546
1178925,5418694,-111.01666999999999,32.5,ARIZONA,ORO VLY,0485755
1178924,5418627,-110.96667,31.9,ARIZONA,GREEN VLY,0485629
99592,597609,-110.9635,32.1666,ARIZONA,SOUTH TUCSON,0485714
99598,599903,-110.9722,31.4682,ARIZONA,CALABASAS,0485648
109327,654680,-112.12299999999999,34.3647,ARIZONA,CORDES,0486333
1158989,5330155,-110.75,31.53333,ARIZONA,PATAGONIA,0485624
1158976,5329899,-111.31667,32.0,ARIZONA,THREE PTS,0485736
1158975,5329898,-110.93333,32.23333,ARIZONA,TUCSON,0485716
99599,597801,-109.9127,31.3807,ARIZONA,HUACHUCA TERRACE,0485603
9316,52335,-111.62,35.19,ARIZONA,SUNNYSIDE,0486004
99599,597801,-109.89,31.43,ARIZONA,BAKERVILLE,0485603
99600,599939,-110.9545,32.1628,ARIZONA,SOUTH TUCSON,0485706
9314,52332,-110.95,34.1,ARIZONA,YOUNG,0485554
9308,52320,-111.86,34.57,ARIZONA,CAMP VERDE,0486322
1167852,5391153,-111.96667,32.06667,ARIZONA,MARICOPA,0485634
1197045,5469249,-109.3333,33.63333,ARIZONA,HANNAGAN MEADOW,0485533
21555,127421,-114.6166,34.8882,ARIZONA,MOHAVE VALLEY,0486440
1158979,5329902,-110.93333,32.23333,ARIZONA,TUCSON,0485716
1159001,5330173,-109.75,32.85,ARIZONA,THATCHER,0485552
1217155,5522504,-110.3,31.71667,ARIZONA,SIERRA VISTA,0485616
9388,52741,-111.5,35.35,ARIZONA,SUNSET CRATER,0486004
88718,535014,-111.6022,35.2637,ARIZONA,(FLG)FLAGSTAFF ARPT,0486004
88718,535014,-111.6497,35.1701,ARIZONA,(FLG)FLAGSTAFF ARPT,0486001
21607,127730,-114.0229,35.2535,ARIZONA,KINGMAN,0486409
88715,535009,-110.6526,34.43,ARIZONA,HEBER,0485928
88715,535009,-110.5474,34.43,ARIZONA,HEBER,0485933
16588,95730,-112.7089,34.0497,ARIZONA,CONGRESS,0485390
16588,95730,-112.7064,34.0477,ARIZONA,CONGRESS,0485390
9339,52485,-112.49,35.29,ARIZONA,DOUBLEA,0486320
9340,52487,-109.53,34.13,ARIZONA,SPRINGERVILLE ARPT,0485927
9334,52466,-111.27,34.42,ARIZONA,WASHINGTON PARK,0485541
9332,52464,-111.85,34.57,ARIZONA,CAMP VERDE,0486322
1100635,5155392,-110.9,32.26667,ARIZONA,TUCSON,0485712
1100635,5155391,-110.98333000000001,32.23333,ARIZONA,TUCSON,0485745
1194306,5461587,-113.9,35.08333,ARIZONA,KINGMAN,0486401
1103325,5158340,-111.46667,35.75,ARIZONA,GRAY MTN,0486020
1194135,5461374,-110.8,32.06667,ARIZONA,SAHUARITA,0485747
74905,459567,-109.661,31.3621,ARIZONA,PAUL SPUR,0485607
1159005,5330177,-110.96667,31.9,ARIZONA,GREEN VLY,0485629
78382,471705,-110.57,34.41,ARIZONA,HEBER,0485933
74905,459560,-109.89,32.06,ARIZONA,COCHISE,0485606
109327,654680,-112.15,34.34,ARIZONA,CORDES,0486333
1217158,5522507,-110.9667,31.9,ARIZONA,GREEN VLY,0485629
1217156,5522505,-109.8333,31.98333,ARIZONA,WILLCOX,0485606
9377,52706,-111.7679,34.6711,ARIZONA,MONTEZUMA CASTLE,0486335
9386,52739,-112.49,34.66,ARIZONA,(PRC)PRESCOTT ARPT,0486305
55609,333607,-114.53,32.67,ARIZONA,ARABY,0485365
55608,333602,-112.87,33.39,ARIZONA,WINTERSBURG,0485354
1197046,5469250,-110.3,31.98333,ARIZONA,BENSON,0485602
1197049,5469253,-110.9333,32.23333,ARIZONA,TUCSON,0485716
21471,126915,-110.12899999999999,34.1681,ARIZONA,SHOW LOW,0485911
21481,126925,-111.31,34.25,ARIZONA,PAYSON,0485541
109323,654671,-112.37,34.47,ARIZONA,WALKER,0486303
109319,654657,-109.96,33.84,ARIZONA,WHITERIVER,0485941
1162012,5374183,-112.46667,34.88333,ARIZONA,PAULDEN,0486334
1162014,5374242,-110.95,34.1,ARIZONA,YOUNG,0485554
18171,106435,-113.76,35.07,ARIZONA,KINGMAN ARPT,0486401
66295,397540,-113.85799999999999,35.3978,ARIZONA,WALAPAI,0486401
1198773,5475949,-111.6833,31.73333,ARIZONA,SELLS,0485634
100288,600748,-112.11,33.8,ARIZONA,NEW RIVER,0485086
105644,633787,-111.74,32.92,ARIZONA,CASA GRANDE ARPT,0485122
100288,600762,-112.14,33.58,ARIZONA,SUNNYSLOPE,0485051
100288,600772,-112.12,33.51,ARIZONA,PHOENIX,0485017
100288,600773,-112.15,33.72,ARIZONA,PHOENIX DEER VLY ARP,0485083
105569,633375,-110.61200000000001,31.405,ARIZONA,LOCHIEL,0485624
1198774,5475950,-110.7,32.03333,ARIZONA,TUCSON,0485641
18171,106437,-113.9,35.07,ARIZONA,HARRIS,0486401
55551,333252,-111.6,33.42,ARIZONA,TWIN KNOLLS,0485120
1198775,5475951,-111.0667,32.38333,ARIZONA,ORO VLY,0485742
99600,599939,-110.9697,32.1632,ARIZONA,SOUTH TUCSON,0485706
1198775,5475951,-110.9833,32.41667,ARIZONA,ORO VLY,0485737
21342,126140,-112.6,33.7,ARIZONA,WITTMANN,0485361
21340,126128,-112.11,33.6238,ARIZONA,PHOENIX TURF ARPT,0485023
21340,126128,-112.25,33.44,ARIZONA,TOLLESON,0485353
90801,544553,-111.0659,31.6098,ARIZONA,TUBAC,0485646
1124376,5270800,-111.33333,34.23333,ARIZONA,PAYSON,0485541
41426,241514,-109.92,31.45,ARIZONA,BISBEE,0485603
118163,711989,-112.07,33.41,ARIZONA,(PHX)SKY HARBOR ARPT,0485040
68583,411307,-114.4959,34.7928,ARIZONA,GOLDEN SHORES,0486440
1197053,5469257,-109.3333,33.63333,ARIZONA,HANNAGAN MEADOW,0485533
1197057,5469261,-110.9667,31.95,ARIZONA,GREEN VLY,0485614
89701,540013,-110.77,32.61,ARIZONA,ORACLE,0485623
1197059,5469296,-109.9167,31.433329999999998,ARIZONA,BISBEE,0485603
1144406,5319463,-111.65,35.2,ARIZONA,FLAGSTAFF,0486001
1144406,5319463,-111.96667,35.71667,ARIZONA,FLAGSTAFF,0486046
1197060,5469297,-109.5333,31.366670000000003,ARIZONA,DOUGLAS,0485607
67546,404904,-109.97,34.12,ARIZONA,PINETOP,0485929
1175677,5412930,-112.03333,32.08333,ARIZONA,MARICOPA,0485634
40903,238201,-112.8084,33.4423,ARIZONA,WINTERSBURG,0485354
40903,238201,-112.8273,33.4033,ARIZONA,WINTERSBURG,0485354
40903,252438,-112.81,33.43,ARIZONA,WINTERSBURG,0485354
40942,238342,-113.8971,35.0949,ARIZONA,HARRIS,0486401
67548,404907,-111.43,35.85,ARIZONA,CAMERON,0486020
21678,128144,-111.6903,35.0899,ARIZONA,(FLG)FLAGSTAFF ARPT,0486001
68839,412963,-111.5448,35.2323,ARIZONA,(FLG)FLAGSTAFF ARPT,0486004
68839,412963,-111.4696,35.2938,ARIZONA,(FLG)FLAGSTAFF ARPT,0486004
1124299,5271224,-110.78333,33.4,ARIZONA,GLOBE,0485501
1219133,5529838,-109.1333,33.85,ARIZONA,ALPINE,0485920
1219129,5529834,-112.2833,33.75,ARIZONA,BLACK CANYON CITY,0485383
1219124,5529561,-111.95,35.25,ARIZONA,PARKS,0486018
1162006,5374177,-110.78333,33.4,ARIZONA,GLOBE,0485501
1162009,5374180,-109.06667,36.15,ARIZONA,CANYON DE CHELLY,0486504
1162011,5374182,-111.85,34.56667,ARIZONA,CAMP VERDE,0486322
90801,544553,-111.05,31.61,ARIZONA,TUBAC,0485646
118163,711989,-112.0682,33.411,ARIZONA,(PHX)SKY HARBOR ARPT,0485040
41426,242543,-110.5251,31.6602,ARIZONA,ELGIN,0485611
74926,453064,-110.6903,35.0269,ARIZONA,WINSLOW,0486047
89900,542871,-111.04,31.81,ARIZONA,CONTINENTAL,0485622
52140,310902,-114.59,34.93,ARIZONA,MOHAVE VALLEY,0486440
100032,600063,-112.45299999999999,33.3156,ARIZONA,LIBERTY,0485338
28964,170072,-111.51,35.28,ARIZONA,SUNSET CRATER,0486004
28962,170068,-109.78,35.07,ARIZONA,RICE,0486028
1199476,5474136,-113.6667,35.2,ARIZONA,KINGMAN,0486411
1194127,5461366,-110.7833,32.11667,ARIZONA,TUCSON,0485747
1179192,5419982,-111.65,35.2,ARIZONA,FLAGSTAFF,0486001
1179196,5419986,-111.83333,35.23333,ARIZONA,BELLEMONT,0486015
1194134,5461373,-110.6167,31.9,ARIZONA,GREEN VLY,0485641
1198176,5471221,-111.3667,35.53333,ARIZONA,WUPATKI,0486020
100032,600063,-112.46,33.31,ARIZONA,LIBERTY,0485338
1198175,5471220,-111.4167,35.88333,ARIZONA,CAMERON,0486020
1198171,5471166,-111.4167,35.88333,ARIZONA,CAMERON,0486020
1198170,5471165,-111.85,34.56667,ARIZONA,CAMP VERDE,0486322
1194132,5461371,-110.85,32.23333,ARIZONA,TUCSON,0485710
1194128,5461367,-109.3333,33.63333,ARIZONA,HANNAGAN MEADOW,0485533
28868,169712,-114.05,35.2,ARIZONA,KINGMAN,0486401
100032,599456,-111.57,32.87,ARIZONA,ELEVEN MILE CORNER,0485194
17300,100148,-111.13,33.67,ARIZONA,ROOSEVELT,0485545
1117311,5253684,-110.58333,34.28333,ARIZONA,OVERGAARD,0485911
1117310,5253683,-111.85,34.56667,ARIZONA,CAMP VERDE,0486322
100032,599454,-111.62,32.91,ARIZONA,ELEVEN MILE CORNER,0485194
1198172,5471167,-111.85,34.56667,ARIZONA,CAMP VERDE,0486322
1102522,5172104,-112.06667,34.76667,ARIZONA,CLARKDALE,0486324
1102521,5172099,-111.73333000000001,34.65,ARIZONA,RIMROCK,0486335
1102519,5172097,-111.66667,34.9,ARIZONA,MUNDS PARK,0486017
100860,603435,-110.73,35.24,ARIZONA,WEST WINSLOW,0486047
1198180,5471225,-112.45,34.76667,ARIZONA,PRESCOTT VALLEY,0486323
1198177,5471222,-110.6,34.43333,ARIZONA,HEBER,0485928
100860,603435,-110.6735,35.3545,ARIZONA,CEDAR SPGS,0486047
79048,474467,-111.14,35.12,ARIZONA,TWO GUNS,0486047
79052,474472,-111.7032,35.0809,ARIZONA,KACHINA VILLAGE,0486001
6368,37090,-111.06,31.73,ARIZONA,CONTINENTAL,0485645
6368,37089,-110.98,31.47,ARIZONA,CALABASAS,0485648
6368,37085,-110.75,31.54,ARIZONA,PATAGONIA,0485624
100866,603452,-109.76,35.65,ARIZONA,SUNRISE SPGS,0486505
100866,603452,-109.6813,35.7811,ARIZONA,GANADO,0486505
100867,603453,-112.2638,34.5074,ARIZONA,HUMBOLDT,0486329
100867,603453,-112.215,34.5807,ARIZONA,AGUA FRIA,0486314
100877,604356,-109.52,31.35,ARIZONA,DOUGLAS ARPT,0485607
100877,604357,-110.946,32.3351,ARIZONA,CASAS ADOBES,0485718
130098,779124,-114.2861,35.1422,ARIZONA,GOLDEN VALLEY,0486413
100879,605423,-111.04,32.3787,ARIZONA,CORTARO,0485742
100879,605423,-111.0508,32.355,ARIZONA,CORTARO,0485741
100880,605424,-109.7162,32.7756,ARIZONA,CACTUS FLAT,0485546
100880,605425,-109.66,31.88,ARIZONA,PEARCE,0485625
130656,782010,-109.66,31.37,ARIZONA,PAUL SPUR,0485607
130659,782024,-110.99,32.43,ARIZONA,ORO VLY,0485755
79052,474472,-111.69,35.1,ARIZONA,KACHINA VILLAGE,0486001
1117308,5253679,-112.01666999999999,34.75,ARIZONA,COTTONWOOD,0486326
1117307,5253677,-112.46667,34.55,ARIZONA,PRESCOTT,0486301
129149,774087,-113.7908,35.1768,ARIZONA,(IGM)MOJAVE CO ARPT,0486401
74728,458180,-110.704,32.3946,ARIZONA,WILLOW CANYON,0485619
29936,175342,-112.45,34.59,ARIZONA,FORBING PARK,0486301
29921,175314,-112.02,34.6776,ARIZONA,COTTONWOOD,0486326
1181589,5427341,-109.71667,32.81667,ARIZONA,SAFFORD,0485546
1179212,5420084,-111.65,35.2,ARIZONA,FLAGSTAFF,0486001
1117306,5253676,-111.33333,34.23333,ARIZONA,PAYSON,0485541
1117305,5253675,-111.4,34.75,ARIZONA,HAPPY JACK,0486024
29921,175314,-111.9728,34.6564,ARIZONA,COTTONWOOD,0486326
90560,543495,-111.35,34.25,ARIZONA,(0E4)PAYSON ARPT,0485541
77887,469482,-112.16,32.93,ARIZONA,STANFIELD,0485139
90421,542937,-112.9766,36.9861,ARIZONA,COLORADO CITY,0486021
1179204,5420076,-111.5,35.16667,ARIZONA,DONEY PARK,0486001
1179206,5420078,-109.13333,33.85,ARIZONA,ALPINE,0485920
1176887,5415575,-111.46667,33.41667,ARIZONA,APACHE JCT,0485119
1176883,5415571,-112.73333000000001,33.96667,ARIZONA,WICKENBURG,0485390
62651,374733,-110.9403,31.4142,ARIZONA,NOGALES,0485621
1179211,5420083,-112.18333,35.25,ARIZONA,WILLIAMS,0486046
90560,543495,-111.35,34.2355,ARIZONA,(0E4)PAYSON ARPT,0485541
90560,543494,-112.4326,34.9107,ARIZONA,PAULDEN,0486334
90560,543494,-112.47,34.88,ARIZONA,PAULDEN,0486334
118954,714572,-110.79,33.4,ARIZONA,GLOBE,0485501
62651,374735,-109.55,31.35,ARIZONA,DOUGLAS,0485607
62651,374733,-110.9386,31.41,ARIZONA,NOGALES,0485621
62651,374734,-110.98,31.5,ARIZONA,RIO RICO,0485648
29936,175343,-112.45,34.59,ARIZONA,FORBING PARK,0486301
1198181,5471226,-112.4833,35.21667,ARIZONA,ASHFORK,0486320
29936,175344,-112.02,34.73,ARIZONA,CLEMENCEAU,0486326
1176889,5415577,-111.75,32.88333,ARIZONA,CASA GRANDE,0485122
120274,720665,-109.89,34.08,ARIZONA,INDIAN PINE,0485935
74734,459047,-110.90100000000001,31.3508,ARIZONA,NOGALES,0485621
74734,459047,-110.81,31.36,ARIZONA,(OLS) NOGALES INTL ARPT,0485621
74734,459055,-110.12,31.38,ARIZONA,PALOMINAS,0485615
74734,459057,-110.1753,31.3965,ARIZONA,PALOMINAS,0485615
1179203,5420075,-111.65,35.2,ARIZONA,FLAGSTAFF,0486001
90299,542327,-112.4107,34.465,ARIZONA,GROOM CREEK,0486303
13748,77080,-114.1377,35.2207,ARIZONA,KINGMAN,0486413
90299,542327,-112.4025,34.4947,ARIZONA,GROOM CREEK,0486303
1198159,5471154,-112.6167,34.33333,ARIZONA,CORDES JUNCTION,0486332
1198158,5472418,-111.3333,34.23333,ARIZONA,PAYSON,0485541
30034,175847,-114.1981,35.4129,ARIZONA,CHLORIDE,0486431
120274,720665,-109.8523,34.1176,ARIZONA,INDIAN PINE,0485930
90362,542856,-114.22,35.64,ARIZONA,DOLAN SPGS,0486441
74737,459520,-110.65,32.72,ARIZONA,MAMMOTH,0485623
74737,459523,-110.7693,32.9898,ARIZONA,DUDLEYVILLE,0485192
74737,459538,-109.69,31.68,ARIZONA,ELFRIDA,0485610
90364,542865,-112.7389,36.8617,ARIZONA,PIPE SPRING,0486022
129149,774087,-113.765,35.1564,ARIZONA,KINGMAN ARPT,0486401
1176894,5415582,-112.06667,33.48333,ARIZONA,PHOENIX,0485014
1176891,5415579,-112.06667,33.48333,ARIZONA,PHOENIX,0485014
1176890,5415578,-110.96667,33.28333,ARIZONA,SUPERIOR,0485137
1179213,5420085,-111.65,35.2,ARIZONA,FLAGSTAFF,0486001
107186,643028,-113.8878,35.0955,ARIZONA,(IGM)MOJAVE CO ARPT,0486401
79048,474467,-111.1748,35.1312,ARIZONA,CANYON DIABLO,0486047
100877,604359,-110.7897,32.2354,ARIZONA,SABINO,0485748
100210,600225,-111.97,32.88,ARIZONA,STANFIELD,0485172
80016,479368,-109.91,33.84,ARIZONA,EAST FORK,0485941
78949,474064,-111.5988,35.2153,ARIZONA,SUNNYSIDE,0486004
78949,474064,-111.5868,35.2311,ARIZONA,SUNNYSIDE,0486004
1194120,5465219,-109.9333,33.28333,ARIZONA,BYLAS,
1101495,5173136,-110.78333,33.28333,ARIZONA,GLOBE,0485501
1101491,5173934,-110.26666999999999,33.5,ARIZONA,SAN CARLOS,0485550
1101483,5172776,-111.81667,33.41667,ARIZONA,MESA,0485203
100618,602825,-114.1314,35.22,ARIZONA,GOLDEN VALLEY,0486413
1194122,5465221,-111.55,31.883329999999997,ARIZONA,THREE PTS,0485736
129273,776874,-110.2924,31.5564,ARIZONA,SIERRA VISTA,0485635
1155688,5365884,-110.7,35.03333,ARIZONA,WINSLOW,0486047
129273,774603,-110.2463,31.4315,ARIZONA,PALOMINAS,0485615
22051,130018,-112.33,35.81,ARIZONA,WILLAHA,
129273,774603,-110.2035,31.3455,ARIZONA,PALOMINAS,0485615
119808,719953,-110.97,31.98,ARIZONA,SAHUARITA,0485629
129273,774602,-109.9387,32.0392,ARIZONA,DRAGOON,0485606
1199157,5474274,-111.8167,33.41667,ARIZONA,MESA,0485203
129273,774601,-110.7813,31.9613,ARIZONA,VAIL JCT,0485641
1194124,5465223,-111.2167,32.31667,ARIZONA,MARANA,0485743
80016,479368,-109.8935,33.9503,ARIZONA,EAST FORK,0485941
107831,646177,-110.64,32.61,ARIZONA,SAN MANUEL,0485631
67994,409059,-111.1302,32.2182,ARIZONA,OLD TUSCON,0485713
1217133,5523311,-110.75,31.53333,ARIZONA,PATAGONIA,0485624
1199159,5474351,-111.8333,33.3,ARIZONA,CHANDLER,0485225
130330,780714,-110.8963,32.4247,ARIZONA,ORO VLY,0485737
130330,780714,-110.92,32.48,ARIZONA,ORO VLY,0485739
1167472,5389743,-112.06667,33.48333,ARIZONA,PHOENIX,0485014
1217145,5522430,-111.0333,32.45,ARIZONA,ORO VLY,0485658
100210,600235,-112.19,33.54,ARIZONA,GLENDALE,0485301
100210,600231,-112.16,33.72,ARIZONA,PHOENIX DEER VLY ARP,0485083
1103832,5157812,-110.96667,31.9,ARIZONA,GREEN VLY,0485629
1217147,5522496,-111.05,32.55,ARIZONA,ORO VLY,0485658
41809,244280,-109.89,31.43,ARIZONA,BAKERVILLE,0485603
54709,328741,-110.92,32.31,ARIZONA,CASAS ADOBES,0485718
1217134,5523312,-111.15,31.35,ARIZONA,NOGALES,
1122536,5266889,-111.31667,34.01667,ARIZONA,JAKES CORNER,0485541
129273,776874,-110.26,31.49,ARIZONA,SIERRA VISTA,0485650
1122540,5266893,-112.28333,33.75,ARIZONA,BLACK CANYON CITY,0485383
1194112,5465140,-110.3,31.55,ARIZONA,SIERRA VISTA,0485635
1194119,5465218,-110.4833,31.96667,ARIZONA,VAIL,0485602
100210,600230,-112.18,33.56,ARIZONA,GLENDALE,0485302
100210,600226,-112.16,33.6,ARIZONA,GLENDALE MUNI ARPT,0485304
107839,651537,-110.7,32.08,ARIZONA,VAIL,0485641
1217141,5522426,-110.2833,31.73333,ARIZONA,HUACHUCA CITY ARPT,0485638
22051,130017,-112.37,35.84,ARIZONA,WILLAHA,
129273,774601,-110.7628,31.9464,ARIZONA,VAIL JCT,0485641
28964,170077,-111.52,35.27,ARIZONA,COSNINO,0486004
129158,774143,-114.0551,35.2395,ARIZONA,NEW KINGMAN-BUTLER,0486409
89494,542664,-113.3665,35.2948,ARIZONA,KINGMAN ARPT,0486401
4055,22718,-110.46,33.35,ARIZONA,SAN CARLOS,0485550
89494,542661,-113.9482,35.1367,ARIZONA,HARRIS,0486401
4055,22717,-111.11,33.29,ARIZONA,SUPERIOR,
1159015,5330437,-110.65,31.683329999999998,ARIZONA,SONOITA,0485637
100860,603399,-109.7054,35.7354,ARIZONA,CORNFIELD,0486505
4055,22716,-110.87,33.39,ARIZONA,MIAMI,0485539
54763,329094,-109.83,32.25,ARIZONA,WILLCOX,0485643
22046,129994,-112.56,35.22,ARIZONA,PINEVETA,0486320
8980,51111,-111.0042,32.3905,ARIZONA,CASAS ADOBES,0485737
8980,51112,-110.98,32.37,ARIZONA,CASAS ADOBES,0485704
22045,129992,-111.9576,35.2613,ARIZONA,PARKS,0486046
1122533,5266886,-110.95,35.1,ARIZONA,METEOR CITY,0486047
22045,129992,-111.95,35.26,ARIZONA,PARKS,0486046
56009,335794,-110.08,34.52,ARIZONA,SNOWFLAKE,0485937
56009,335794,-110.08,34.5345,ARIZONA,SNOWFLAKE,0485937
8982,51122,-110.97,32.45,ARIZONA,ORO VLY,0485755
100860,603399,-109.77,35.65,ARIZONA,SUNRISE SPGS,0486505
1199346,5474130,-110.6,34.43333,ARIZONA,HEBER,0485928
130295,780070,-114.6315,35.0344,ARIZONA,RIVIERA,0486426
1199342,5474126,-112.2333,34.5,ARIZONA,HUMBOLDT,0486329
1217151,5522500,-110.75,31.53333,ARIZONA,PATAGONIA,0485624
1194125,5461364,-110.2667,31.48333,ARIZONA,SIERRA VISTA,0485650
1217152,5522501,-111.0667,31.66667,ARIZONA,RIO RICO,0485646
1217154,5522503,-111.8,31.933329999999998,ARIZONA,SELLS,0485634
129158,774143,-114.0336,35.2055,ARIZONA,KINGMAN,0486401
4055,22718,-110.46,33.45,ARIZONA,SAN CARLOS,
1199341,5474125,-112.45,34.76667,ARIZONA,PRESCOTT VALLEY,0486323
22049,130009,-111.91,34.79,ARIZONA,CORNVILLE,0486325
1122535,5266888,-111.65,35.2,ARIZONA,FLAGSTAFF,0486001
54709,328742,-110.97,32.42,ARIZONA,ORO VLY,0485737
1199345,5474129,-110.7,35.03333,ARIZONA,WINSLOW,0486047
