EPISODE_ID,EVENT_ID,LONGITUDE,LATITUDE,STATE,LOCATION,ZIPCODE
1092919,5137480,-121.43333,41.0,CALIFORNIA,FALL RIVER MILLS,0696028
134455,805594,-121.88,37.33,CALIFORNIA,SAN JOSE,0695112
134455,805596,-121.88,37.33,CALIFORNIA,SAN JOSE,0695112
89829,541069,-121.52,40.85,CALIFORNIA,CASSEL,0696040
1112179,5236434,-123.48333000000001,40.81667,CALIFORNIA,BURNT RANCH,0695527
1144622,5322835,-116.75,32.83333,CALIFORNIA,ALPINE,0691901
134455,805593,-121.9015,37.3448,CALIFORNIA,BURBANK,0695110
89829,541071,-121.57,40.84,CALIFORNIA,(BNY)BURNEY,
1175120,5411332,-116.6,33.55,CALIFORNIA,ANZA,0692539
105560,633223,-119.0739,35.3992,CALIFORNIA,GREEN ACRES,0693308
36103,209222,-118.7893,34.1411,CALIFORNIA,GREENWICH VLG,0691301
1199539,5478753,-122.3,40.45,CALIFORNIA,ANDERSON,0696007
1092920,5137481,-121.08333,38.01667,CALIFORNIA,LINDEN,0695236
72822,439462,-120.57,38.43,CALIFORNIA,PIONEER,0695666
89557,539357,-116.85,34.4437,CALIFORNIA,BIG BEAR CITY,0692356
1134418,5290960,-119.56667,36.7,CALIFORNIA,SANGER,0693657
1199537,5478751,-121.3667,38.63333,CALIFORNIA,SACRAMENTO,0695821
1188751,5446563,-120.7,37.45,CALIFORNIA,BALLICO,0695303
120738,723121,-121.5,40.8,CALIFORNIA,HAT CREEK,0696040
105560,633226,-119.3225,36.1873,CALIFORNIA,EAST TULARE VILLA,0693274
1200990,5481130,-118.0833,34.18333,CALIFORNIA,PASADENA,0691107
62569,430360,-120.32,36.63,CALIFORNIA,TRANQUILITY,
1200991,5481131,-118.0333,34.05,CALIFORNIA,EL MONTE,0691733
1199533,5478747,-120.8,37.53333,CALIFORNIA,DENAIR,0695316
1134416,5290956,-119.65,36.88333,CALIFORNIA,(FAT) AIR TERMINAL,0693619
1208434,5504786,-117.5833,33.86667,CALIFORNIA,CORONA,0692882
134635,806816,-124.12,40.93,CALIFORNIA,MC KINLEYVILLE,0695519
1134418,5290959,-119.51666999999999,36.73333,CALIFORNIA,CENTERVILLE,0693657
1134416,5290956,-119.66667,36.86667,CALIFORNIA,(FAT) AIR TERMINAL,0693619
1217895,5525063,-122.5333,41.73333,CALIFORNIA,MONTAGUE,0696064
1134418,5290959,-119.5,36.73333,CALIFORNIA,CENTERVILLE,0693657
72822,439470,-121.5366,37.842,CALIFORNIA,JANNEY,0695206
1208467,5503749,-121.0,37.65,CALIFORNIA,MODESTO,0695354
1134418,5290961,-119.5,36.75,CALIFORNIA,SANGER,0693657
84199,508194,-121.9744,39.8435,CALIFORNIA,ANITA,0695973
1199532,5478746,-121.6667,39.1,CALIFORNIA,YUBA CITY,0695993
55712,334072,-116.4,34.27,CALIFORNIA,LANDERS,0692285
1113653,5242660,-120.4,37.23333,CALIFORNIA,MERCED,0695341
1113653,5242660,-120.41667,37.25,CALIFORNIA,MERCED,0695341
70963,426458,-122.2564,39.2448,CALIFORNIA,MAXWELL,0695955
123196,738641,-121.92,37.72,CALIFORNIA,DUBLIN,0694568
1143256,5316463,-116.56667,32.6,CALIFORNIA,POTRERO,0691963
1206149,5494310,-116.8667,33.1,CALIFORNIA,RAMONA,0692065
1156685,5369991,-121.15,41.11667,CALIFORNIA,BIEBER,0696068
1156689,5369995,-120.08333,39.38333,CALIFORNIA,BOCA,0696161
1206149,5494308,-117.0667,33.13333,CALIFORNIA,ESCONDIDO,0692027
89665,539797,-118.48,37.84,CALIFORNIA,BENTON,0693512
55712,334076,-116.0667,35.2715,CALIFORNIA,BAKER,0692309
1158955,5378415,-118.08333,34.7,CALIFORNIA,LANCASTER,0693535
6655,38709,-114.6,34.83,CALIFORNIA,NEEDLES,0692363
1206149,5494310,-116.9333,33.1,CALIFORNIA,RAMONA,0692027
36103,209222,-118.7663,34.1508,CALIFORNIA,THOUSAND OAKS,0691301
36103,209223,-119.1754,34.2664,CALIFORNIA,WEST SATICOY,0693004
36103,209223,-119.1949,34.2518,CALIFORNIA,MONTALVO,0693003
36103,209224,-119.8773,34.4268,CALIFORNIA,ELLWOOD,0693117
36103,209224,-119.87700000000001,34.4248,CALIFORNIA,ELLWOOD,0693117
84199,508194,-121.9742,39.8435,CALIFORNIA,ANITA,0695973
19433,130000,-116.5759,34.3638,CALIFORNIA,LCRNE VLY SOGGY DRY,0692285
1158955,5378415,-118.13333,34.7,CALIFORNIA,LANCASTER,0693534
37637,218977,-122.55,39.73,CALIFORNIA,CHROME,0695963
1188751,5446563,-120.71667,37.45,CALIFORNIA,BALLICO,0695303
134587,806448,-124.08,40.89,CALIFORNIA,ALLIANCE,0695521
19433,130000,-116.5859,34.3505,CALIFORNIA,LCRNE VLY SOGGY DRY,0692285
1199528,5478741,-121.25,37.83333,CALIFORNIA,LATHROP,0695336
123196,738644,-122.0102,37.0599,CALIFORNIA,SCOTTS VLY,0695066
123196,738643,-122.00399999999999,37.3908,CALIFORNIA,SUNNYVALE,0694085
123196,738642,-121.8553,37.6688,CALIFORNIA,DUBLIN,0694566
134635,806815,-124.17,40.84,CALIFORNIA,MANILA,0695521
89558,539664,-117.15,33.73,CALIFORNIA,MENIFEE,0692585
89558,539667,-117.15,33.8,CALIFORNIA,NUEVO,0692567
89558,539671,-116.42,32.88,CALIFORNIA,MT LAGUNA AFS,0691948
134622,806626,-124.11,40.93,CALIFORNIA,MC KINLEYVILLE,0695519
70963,426458,-122.2521,39.243,CALIFORNIA,MAXWELL,0695955
134587,806475,-124.12,40.87,CALIFORNIA,NORTH SAMOA,0695521
1090791,5131512,-117.88333,34.08333,CALIFORNIA,COVINA,0691723
1206151,5494312,-117.3,33.05,CALIFORNIA,ENCINITAS,0692024
61578,374196,-121.3328,37.8778,CALIFORNIA,ORTEGA,0695206
1206150,5494311,-117.0667,33.13333,CALIFORNIA,ESCONDIDO,0692027
70798,425184,-121.83,36.88,CALIFORNIA,ELLICOTT,0695076
70798,425184,-121.82,36.9,CALIFORNIA,ELLICOTT,0695076
70963,426457,-122.1431,40.0531,CALIFORNIA,GERBER,0696035
70963,426457,-122.1467,40.0464,CALIFORNIA,GERBER,0696035
1185853,5440573,-117.43333,34.1,CALIFORNIA,FONTANA,0692335
134587,806458,-124.21,40.72,CALIFORNIA,FIELDS LNDG,0695503
134587,806461,-124.0,41.42,CALIFORNIA,ORICK,
1199532,5478746,-121.65,39.1,CALIFORNIA,YUBA CITY,0695993
1199512,5478641,-121.1667,38.68333,CALIFORNIA,FOLSOM,0695630
1199541,5478755,-121.4667,38.7,CALIFORNIA,SACRAMENTO,0695673
43000,250668,-117.0992,34.8077,CALIFORNIA,LENWOOD,
93361,560640,-119.79,35.48,CALIFORNIA,BLACKWELLS CORNER,0693251
14201,79780,-119.3308,36.3388,CALIFORNIA,CINOWTHS CORNER,0693291
124111,744769,-122.17,37.88,CALIFORNIA,ORINDA,0694563
1134419,5290964,-119.38333,36.68333,CALIFORNIA,NAVELENCIA,0693654
1134418,5290963,-119.31667,36.65,CALIFORNIA,ORANGE COVE,0693646
100133,599805,-118.1236,34.6021,CALIFORNIA,PALMDALE,0693550
35125,208489,-114.5654,33.6524,CALIFORNIA,EAST BLYTHE,0692225
100133,599805,-118.1322,34.6031,CALIFORNIA,DESERT VIEW HIGHLAND,0693551
100133,599804,-118.1283,34.5841,CALIFORNIA,PALMDALE,0693550
124111,744770,-121.8824,37.3354,CALIFORNIA,SAN JOSE,0695112
1178023,5418494,-117.56667,34.41667,CALIFORNIA,PHELAN,0692371
1178023,5418493,-116.45,34.11667,CALIFORNIA,YUCCA VLY,0692284
124111,744771,-121.93,36.63,CALIFORNIA,PACIFIC GROVE,0693950
1178023,5418492,-116.55,34.3,CALIFORNIA,YUCCA VLY,0692285
124111,744772,-121.8558,36.5928,CALIFORNIA,MONTEREY PNSLA ARPT,0693940
124111,744773,-122.22,37.78,CALIFORNIA,OAKLAND,0694601
124111,744774,-121.83,36.6,CALIFORNIA,DEL REY OAKS,0693955
124111,744775,-122.55,37.92,CALIFORNIA,MILL VLY,0694941
84195,508191,-121.344,38.775999999999996,CALIFORNIA,ROSEVILLE,0695747
84195,508192,-121.5339,38.8051,CALIFORNIA,PLEASANT GROVE,0695668
84195,508192,-121.5222,38.8063,CALIFORNIA,PLEASANT GROVE,0695668
100133,599804,-118.0996,34.5717,CALIFORNIA,PALMDALE,0693550
114975,689824,-124.22,40.64,CALIFORNIA,LOLETA,0695551
100133,599803,-118.3011,34.6177,CALIFORNIA,LEONA VLY,0693551
100133,599803,-118.2966,34.6172,CALIFORNIA,LEONA VLY,0693551
1178023,5418491,-117.56667,34.41667,CALIFORNIA,PHELAN,0692371
124111,744768,-121.92,36.55,CALIFORNIA,CARMEL,0693921
21556,127424,-115.6558,35.0114,CALIFORNIA,KELSO,
14201,79780,-119.3617,36.3301,CALIFORNIA,GOSHEN JCT,0693291
124111,744762,-122.27,37.87,CALIFORNIA,BERKELEY,0694704
1153099,5360240,-123.16667,40.51667,CALIFORNIA,PEANUT,0696041
135995,816027,-121.32,38.68,CALIFORNIA,FOOTHILL FARMS,0695621
135996,816038,-121.8766,39.7795,CALIFORNIA,(CIC)CHICO MUNI ARPT,0695973
1096817,5151291,-116.95,33.28333,CALIFORNIA,RINCON,0692082
1162831,5336866,-123.16667,40.38333,CALIFORNIA,FOREST GLEN,
1162956,5337821,-118.45,35.6,CALIFORNIA,LAKE ISABELLA,0693240
1193056,5458425,-116.6833,34.88333,CALIFORNIA,BARSTOW,0692365
84195,508185,-121.6654,39.7107,CALIFORNIA,PARADISE SKYPARK ARP,0695969
40787,237453,-122.9,41.55,CALIFORNIA,GREENVIEW,0696032
8210,47293,-118.1205,34.6482,CALIFORNIA,(WJF)WM FOX FLD LANC,0693535
1220745,5530855,-116.5167,32.63333,CALIFORNIA,CAMPO,0691906
84195,508185,-121.6702,39.71,CALIFORNIA,PARADISE SKYPARK ARP,0695969
84195,508187,-122.0894,39.5905,CALIFORNIA,BAYLISS,0695943
84195,508187,-122.0801,39.5833,CALIFORNIA,BAYLISS,0695943
84195,508189,-122.0826,39.5771,CALIFORNIA,BAYLISS,0695988
84195,508189,-122.0993,39.5722,CALIFORNIA,BAYLISS,0695988
84195,508190,-122.1446,39.5845,CALIFORNIA,ARTOIS,0695988
26814,157050,-120.6,37.21,CALIFORNIA,MERCED ARPT,0695341
135817,814908,-117.7473,33.7859,CALIFORNIA,ROSSMOOR,0692869
135817,814899,-117.8018,33.8886,CALIFORNIA,YORBA LINDA,0692886
124108,744749,-121.5171,36.8033,CALIFORNIA,MORSE,0695045
49497,290104,-122.7082,38.4525,CALIFORNIA,SANTA ROSA,0695404
124111,744755,-122.22,37.78,CALIFORNIA,OAKLAND,0694601
124111,744756,-122.1834,37.78,CALIFORNIA,OAKLAND,0694613
84195,508190,-122.1526,39.5788,CALIFORNIA,ARTOIS,0695988
84195,508191,-121.4164,38.7624,CALIFORNIA,RIEGO,0695626
35125,208489,-114.7453,33.5105,CALIFORNIA,RIPLEY,
55178,336380,-116.27,32.67,CALIFORNIA,BOULEVARD,0691905
124035,747023,-121.99,39.9,CALIFORNIA,VINA,0695973
21573,127724,-116.6904,33.7572,CALIFORNIA,IDYLLWILD,0692549
40576,237458,-122.8671,41.6869,CALIFORNIA,FT JONES,0696032
1189352,5449085,-119.68333,36.63333,CALIFORNIA,FOWLER,0693625
106281,639608,-119.447,34.961999999999996,CALIFORNIA,MARICOPA,
83509,504158,-117.8741,34.0263,CALIFORNIA,WALNUT,0691789
1134418,5290962,-119.7,36.81667,CALIFORNIA,CLOVIS,0693612
1134418,5290961,-119.51666999999999,36.73333,CALIFORNIA,SANGER,0693657
83509,504158,-117.8795,34.0146,CALIFORNIA,WALNUT,0691789
120738,723122,-120.12,38.68,CALIFORNIA,KIRKWOOD,0696155
123388,739885,-118.395,37.402,CALIFORNIA,BISHOP,
123316,739253,-124.21,40.64,CALIFORNIA,LOLETA,0695551
90617,543734,-122.3,38.3,CALIFORNIA,NAPA,0694559
123316,739247,-124.16,41.82,CALIFORNIA,NORTHCREST,0695531
99702,598033,-119.83,38.34,CALIFORNIA,DARDANELLE,0695314
1199552,5478846,-120.2333,37.83333,CALIFORNIA,GROVELAND,0695321
1204030,5492041,-120.2833,37.53333,CALIFORNIA,HORNITOS,0695369
1204030,5492040,-120.2833,37.53333,CALIFORNIA,HORNITOS,0695369
1204029,5492039,-119.5167,37.03333,CALIFORNIA,PRATHER,0693651
1204029,5492038,-119.5333,36.88333,CALIFORNIA,ACADEMY,0693619
99702,598032,-119.75,38.28,CALIFORNIA,DARDANELLE,0695364
1186439,5444647,-118.15,35.48333,CALIFORNIA,RIDGECREST,
1186439,5444647,-117.98333000000001,35.38333,CALIFORNIA,RIDGECREST,
1199545,5478759,-121.1667,38.68333,CALIFORNIA,FOLSOM,0695630
1199543,5478757,-120.6833,38.2,CALIFORNIA,SAN ANDREAS,0695249
1186437,5444637,-119.53333,35.61667,CALIFORNIA,(BFL)MEADOWS FIELD AP,0693280
56800,340271,-116.6824,33.3856,CALIFORNIA,WARNER SPGS,0692086
1186437,5444637,-119.05,35.38333,CALIFORNIA,(BFL)MEADOWS FIELD AP,0693308
89829,541083,-121.56,40.75,CALIFORNIA,HAT CREEK,
1199542,5478756,-121.3167,38.66667,CALIFORNIA,SACRAMENTO,0695608
1141530,5314702,-120.23333000000001,39.81667,CALIFORNIA,BECKWOURTH,0696135
1141532,5314704,-120.0,39.78333,CALIFORNIA,SCOTTS,
1141533,5314707,-120.3,39.33333,CALIFORNIA,TRUCKEE,
28684,168752,-120.68,39.87,CALIFORNIA,CROMBERG,0696103
40576,237061,-122.8382,41.6052,CALIFORNIA,FT JONES,0696032
40576,236094,-122.9,41.55,CALIFORNIA,GREENVIEW,0696032
21573,127724,-116.694,33.7742,CALIFORNIA,IDYLLWILD,
40576,236094,-122.9082,41.5292,CALIFORNIA,GREENVIEW,0696027
124035,747000,-121.99,39.9,CALIFORNIA,VINA,0695973
74939,453145,-121.1626,39.8645,CALIFORNIA,BUCKS LAKE,0695956
124035,746999,-122.18,39.93,CALIFORNIA,CORNING,0696021
124111,744776,-121.9905,37.9465,CALIFORNIA,COWELL,0694521
114975,689823,-124.2,40.74,CALIFORNIA,FIELDS LNDG,0695503
124111,744777,-121.9023,37.1612,CALIFORNIA,HOLY CITY,0695120
124111,744778,-122.0563,37.2149,CALIFORNIA,RIVERSIDE GROVE,0695033
74646,451416,-120.77,40.65,CALIFORNIA,EAGLE LAKE RESORT,0696130
1135544,5299747,-121.15,41.11667,CALIFORNIA,BIEBER,0696068
1199540,5478754,-120.85,37.5,CALIFORNIA,TURLOCK,0695380
21995,129824,-116.3776,33.6072,CALIFORNIA,INDIO,
77798,469471,-116.85,34.27,CALIFORNIA,BIG BEAR CITY,0692314
70012,420139,-119.2842,36.1087,CALIFORNIA,OCTOL,0693274
70012,420139,-119.2886,36.1104,CALIFORNIA,OCTOL,0693274
69892,419270,-121.57,37.02,CALIFORNIA,GILROY,0695020
69892,419269,-121.58,37.03,CALIFORNIA,GILROY,0695020
69775,418500,-118.2,36.9447,CALIFORNIA,INDEPENDENCE,0693513
69775,418500,-118.2294,36.9478,CALIFORNIA,ABERDEEN,0693526
43335,252395,-115.56,32.79,CALIFORNIA,EL CENTRO,0692243
43335,253781,-115.53,32.98,CALIFORNIA,BRAWLEY,0692227
28684,168753,-120.38,39.5711,CALIFORNIA,SIERRAVILLE,0696126
1134418,5290963,-119.33333,36.65,CALIFORNIA,ORANGE COVE,0693646
90363,542863,-116.32,34.1,CALIFORNIA,JOSHUA TREE,0692252
21995,129824,-116.3016,33.6618,CALIFORNIA,LA QUINTA,0692253
28807,169370,-120.19,35.38,CALIFORNIA,SIMMLER,0693453
1113653,5242661,-119.76666999999999,36.78333,CALIFORNIA,FRESNO,0693726
120984,724177,-122.52600000000001,37.9595,CALIFORNIA,SAN RAFAEL,0694901
1113654,5240955,-119.7,36.81667,CALIFORNIA,CLOVIS,0693612
1188763,5446675,-119.8,36.78333,CALIFORNIA,FRESNO,0693704
1188763,5446675,-119.78333,36.78333,CALIFORNIA,FRESNO,0693726
1094268,5142471,-120.01666999999999,36.8,CALIFORNIA,BIOLA,0693630
1101481,5172774,-115.06667,33.0,CALIFORNIA,GLAMIS,0692227
98697,593396,-120.0374,39.7307,CALIFORNIA,PLUMAS,0696105
13592,75918,-121.375,36.75,CALIFORNIA,TRES PINOS,0695023
1102175,5172350,-118.96667,37.65,CALIFORNIA,MAMMOTH LAKES,0693546
123196,738640,-122.53,37.95,CALIFORNIA,CORTE MADERA,0694904
123196,738639,-122.28,37.5,CALIFORNIA,SAN CARLOS,0694070
123194,738636,-122.63,38.23,CALIFORNIA,PETALUMA,0694952
123194,738634,-121.8941,37.6995,CALIFORNIA,DUBLIN,0694588
1102173,5172275,-120.01666999999999,38.85,CALIFORNIA,MEYERS,0696150
1102170,5171979,-120.01666999999999,38.85,CALIFORNIA,MEYERS,0696150
44338,257601,-116.69,33.33,CALIFORNIA,WARNER SPGS,0692086
1188762,5446672,-119.53333,36.61667,CALIFORNIA,PARLIER,0693648
36788,270002,-119.8406,36.7315,CALIFORNIA,(FCH) CHANDLER AF,0693706
36774,213799,-121.7658,37.9132,CALIFORNIA,BRENTWOOD,0694513
36774,213799,-121.7405,37.9003,CALIFORNIA,BRENTWOOD,0694513
122999,738540,-122.0648,37.8812,CALIFORNIA,DANVILLE,0694595
122999,738498,-122.2031,37.7745,CALIFORNIA,OAKLAND,0694601
122999,738500,-122.7,37.9,CALIFORNIA,BOLINAS,0694924
36727,213763,-121.8,37.0234,CALIFORNIA,CORRALITOS,0695076
36727,213761,-121.8304,36.5876,CALIFORNIA,DEL REY OAKS,0693940
122999,738501,-122.2361,37.8811,CALIFORNIA,BERKELEY,0694705
122999,738502,-121.8967,37.333,CALIFORNIA,SAN JOSE,0695113
114798,688567,-121.3902,36.84,CALIFORNIA,HOLLISTER,0695023
1134415,5290868,-120.05,36.93333,CALIFORNIA,MADERA MUNI ARPT,0693637
1134415,5290868,-120.11667,36.93333,CALIFORNIA,MADERA MUNI ARPT,0693637
1134413,5290861,-119.88333,36.33333,CALIFORNIA,(NLC)NAS LEMOORE,0693245
15715,93563,-117.9496,34.1269,CALIFORNIA,DUARTE,0691706
36788,270002,-119.86,36.73,CALIFORNIA,(FCH) CHANDLER AF,0693706
15715,93563,-117.9353,34.1201,CALIFORNIA,AZUSA,0691702
77687,471242,-120.1626,39.086,CALIFORNIA,HOMEWOOD,0696141
63513,380289,-119.87,36.43,CALIFORNIA,RIVERDALE,0693656
98697,593398,-119.9539,38.9384,CALIFORNIA,SOUTH LAKE TAHOE,0696150
13869,77843,-119.12,34.12,CALIFORNIA,PT MUGU NAS,0693041
1188761,5446671,-119.18333,36.48333,CALIFORNIA,WOODLAKE,0693292
1188762,5446672,-119.48333000000001,36.63333,CALIFORNIA,PARLIER,0693648
56285,337457,-118.5,34.8,CALIFORNIA,FAIRMONT,0693536
82996,500374,-121.7056,38.6297,CALIFORNIA,MERRITT,0695776
63513,380290,-119.65,36.33,CALIFORNIA,HANFORD,0693230
1124698,5272386,-120.43333,34.95,CALIFORNIA,SANTA MARIA,0693454
122016,730505,-122.6508,38.2401,CALIFORNIA,PETALUMA,0694952
122016,730506,-122.0438,37.2987,CALIFORNIA,RANCHO RINCONADO,0695014
122016,730606,-122.6298,38.2397,CALIFORNIA,PETALUMA,0694952
122016,730607,-122.7,38.45,CALIFORNIA,SANTA ROSA,0695404
1134416,5290954,-119.71667,36.83333,CALIFORNIA,CLOVIS,0693612
1134416,5290953,-119.71667,36.83333,CALIFORNIA,CLOVIS,0693612
8517,48696,-119.02,38.22,CALIFORNIA,BODIE,0693517
1134415,5290950,-120.03333,37.05,CALIFORNIA,MADERA MUNI ARPT,0693638
122042,730634,-124.1631,40.8081,CALIFORNIA,EUREKA,0695501
122052,731023,-121.58,37.01,CALIFORNIA,GILROY,0695020
122052,731024,-122.9841,38.4089,CALIFORNIA,OCCIDENTAL,0695465
122052,731025,-122.7151,38.2577,CALIFORNIA,PETALUMA,0694952
122052,731026,-121.65,37.159,CALIFORNIA,MORGAN HILL,0695037
1208898,5502011,-119.8,36.66667,CALIFORNIA,EASTON,0693706
122052,731027,-122.6116,38.23,CALIFORNIA,PETALUMA,0694954
122052,731028,-121.88,37.2721,CALIFORNIA,SAN JOSE,0695118
122052,731029,-122.4904,37.8503,CALIFORNIA,SAUSALITO,0694965
122052,731030,-121.5803,37.01,CALIFORNIA,GILROY,0695020
122052,731031,-121.8553,37.6688,CALIFORNIA,DUBLIN,0694566
63513,380290,-119.65,36.4168,CALIFORNIA,HANFORD,0693230
1134415,5290949,-120.08333,37.01667,CALIFORNIA,MADERA MUNI ARPT,0693638
1134415,5290949,-120.06667,37.01667,CALIFORNIA,MADERA MUNI ARPT,0693638
122041,730621,-124.1932,40.7507,CALIFORNIA,ROSEWOOD,0695503
95120,571513,-120.1341,37.0212,CALIFORNIA,MADERA,0693637
114796,688562,-122.7797,38.5198,CALIFORNIA,MARK WEST,0695403
122999,738503,-122.08,37.05,CALIFORNIA,FELTON,0695018
100747,602870,-116.98,33.8866,CALIFORNIA,BEAUMONT,
100747,602868,-116.6127,33.0809,CALIFORNIA,WHISPERING PINES,0692036
122999,738509,-122.3,37.92,CALIFORNIA,EL CERRITO,0694530
122999,738512,-121.83,36.6,CALIFORNIA,DEL REY OAKS,0693955
122999,738523,-122.5551,37.98,CALIFORNIA,SAN RAFAEL,0694960
122999,738527,-122.55,37.92,CALIFORNIA,MILL VLY,0694941
122999,738532,-122.13,38.0,CALIFORNIA,MARTINEZ,0694553
122999,738533,-122.03,37.97,CALIFORNIA,CONCORD,0694518
36450,211222,-118.0464,33.7298,CALIFORNIA,SUNSET BEACH,0692649
1199499,5478529,-121.5667,39.45,CALIFORNIA,OROVILLE,0695965
1199500,5478530,-121.9833,38.36667,CALIFORNIA,VACAVILLE,0695688
1199503,5478630,-121.4667,38.61667,CALIFORNIA,SACRAMENTO,0695815
1199504,5478631,-121.45,38.56667,CALIFORNIA,SACRAMENTO,0695819
36450,211222,-118.125,33.716,CALIFORNIA,SEAL BEACH,
1199518,5478647,-122.1833,39.75,CALIFORNIA,ORLAND,0695963
36621,212352,-121.97,38.36,CALIFORNIA,VACAVILLE NUT TREE,0695687
14955,84982,-118.83,35.2,CALIFORNIA,ARVIN,0693203
14954,84945,-118.55,35.54,CALIFORNIA,HAVILAH,0693518
122999,738539,-122.13,37.88,CALIFORNIA,LAFAYETTE,0694549
1199518,5478647,-122.1667,39.75,CALIFORNIA,ORLAND,0695963
1199516,5478645,-121.6167,39.13333,CALIFORNIA,YUBA CITY,0695991
1199515,5478644,-121.0,37.65,CALIFORNIA,MODESTO,0695354
1164512,5331118,-118.21667,33.88333,CALIFORNIA,COMPTON,0690221
1199510,5478639,-122.0333,38.88333,CALIFORNIA,DUNNIGAN,0695937
99404,596738,-121.56,40.34,CALIFORNIA,MINERAL,0696061
1199510,5478639,-122.0167,38.88333,CALIFORNIA,DUNNIGAN,0695937
99404,596737,-121.23,40.31,CALIFORNIA,CHESTER,0696020
80783,483558,-117.27,33.0,CALIFORNIA,SOLANA BEACH,0692075
92368,553278,-118.2913,33.9823,CALIFORNIA,VIEW PARK,0690044
92368,553278,-118.2829,33.9904,CALIFORNIA,HYDE PARK,0690037
1199505,5478632,-121.5333,38.58333,CALIFORNIA,WEST SACRAMENTO,0695691
1123268,5268077,-114.61667,34.9,CALIFORNIA,(EED)NEEDLES ARPT,
122999,738508,-122.27,37.9,CALIFORNIA,KENSINGTON,0694707
122999,738506,-122.03,37.05,CALIFORNIA,SCOTTS VLY,0695066
1123268,5268077,-114.61667,34.91667,CALIFORNIA,(EED)NEEDLES ARPT,
114796,688560,-121.96,37.2303,CALIFORNIA,LOS GATOS,0695032
130300,780112,-116.32,34.13,CALIFORNIA,JOSHUA TREE,0692252
114796,688559,-122.4201,37.7696,CALIFORNIA,SAN FRANCISCO,0694103
1162330,5337774,-120.11667,39.03333,CALIFORNIA,MEEKS BAY,0696142
1162331,5337775,-120.38333,39.81667,CALIFORNIA,BECKWOURTH,0696129
77596,468195,-115.48,33.85,CALIFORNIA,EAGLE MTN,0692239
1121123,5261887,-118.96667,37.65,CALIFORNIA,MAMMOTH LAKES,0693546
1199528,5478741,-121.3,37.81667,CALIFORNIA,LATHROP,0695330
1172976,5406281,-117.9,35.96667,CALIFORNIA,JOHNSONDALE,
1199527,5478740,-121.8,39.61667,CALIFORNIA,DURHAM,0695938
1199527,5478740,-121.8,39.63333,CALIFORNIA,DURHAM,0695938
1199526,5478739,-121.4667,38.66667,CALIFORNIA,SACRAMENTO,0695838
1162364,5337803,-116.58333,33.08333,CALIFORNIA,JULIAN,0692036
122999,738507,-122.27,37.87,CALIFORNIA,BERKELEY,0694704
1172976,5406281,-118.11667,35.96667,CALIFORNIA,JOHNSONDALE,0693527
1185678,5440775,-122.41667,37.65,CALIFORNIA,SOUTH SAN FRANCISCO,0694080
1199525,5478659,-121.3,38.5,CALIFORNIA,SACRAMENTO METRO ARPT,0695829
1162364,5337803,-116.68333,33.11667,CALIFORNIA,JULIAN,0692070
1199521,5478650,-122.1833,39.91667,CALIFORNIA,CORNING,0696021
1162361,5337799,-116.46667,32.6,CALIFORNIA,CAMPO,0691906
1162361,5337799,-116.58333,33.08333,CALIFORNIA,CAMPO,0692036
1199520,5478649,-122.1833,39.91667,CALIFORNIA,CORNING,0696021
99403,596732,-120.07,38.44,CALIFORNIA,TAMARACK,0695223
99403,596733,-120.03,38.51,CALIFORNIA,LAKE ALPINE,0695223
99403,596734,-120.04,38.5,CALIFORNIA,LAKE ALPINE,0695223
99404,596736,-121.57,40.53,CALIFORNIA,MANZANITA LAKE,
1101929,5171399,-122.3,39.68333,CALIFORNIA,ARTOIS,0695963
1101929,5171399,-122.28333,39.68333,CALIFORNIA,ARTOIS,0695963
1164677,5327382,-123.0,38.5,CALIFORNIA,GUERNEVILLE,0695446
1162354,5337478,-116.61667,32.85,CALIFORNIA,DESCANSO,0691916
82996,500374,-121.6979,38.6386,CALIFORNIA,HEBRON,0695776
98697,593399,-119.97,38.93,CALIFORNIA,SOUTH LAKE TAHOE,0696150
63513,380291,-119.48,36.45,CALIFORNIA,TRAVER,0693673
1185325,5442285,-118.5,35.08333,CALIFORNIA,TEHACHAPI,0693561
1208881,5504109,-120.1333,36.76667,CALIFORNIA,REEDLEY,0693630
1208881,5504109,-119.4333,36.61667,CALIFORNIA,REEDLEY,0693654
114115,683358,-120.507,35.5267,CALIFORNIA,CRESTON,0693432
114115,683358,-120.5447,35.5525,CALIFORNIA,CRESTON,0693446
1208889,5501929,-119.45,36.6,CALIFORNIA,REEDLEY,0693654
1208890,5501930,-119.5667,36.7,CALIFORNIA,SANGER,0693657
1112040,5236406,-120.61667,35.38333,CALIFORNIA,SANTA MARGARITA,0693453
124503,747045,-121.52,39.03,CALIFORNIA,ARBOGA,0695961
1199987,5476759,-116.5167,33.21667,CALIFORNIA,RANCHITA,0692066
1199985,5476757,-117.8167,33.88333,CALIFORNIA,YORBA LINDA,0692886
1208891,5501931,-119.4167,36.35,CALIFORNIA,GOSHEN,0693291
1188760,5446667,-119.73333000000001,36.35,CALIFORNIA,HANFORD,0693230
1188760,5446668,-119.78333,36.3,CALIFORNIA,LEMOORE,0693245
1185323,5442283,-119.81667,36.0,CALIFORNIA,KETTLEMAN CITY,
1208895,5501936,-118.9667,36.05,CALIFORNIA,PORTERVILLE,0693257
1111273,5233138,-119.7,37.11667,CALIFORNIA,COARSEGOLD,0693626
1111273,5233139,-119.61667,36.81667,CALIFORNIA,CLOVIS,0693619
1188760,5446669,-119.73333000000001,36.36667,CALIFORNIA,HANFORD,0693230
1111273,5233140,-119.56667,36.78333,CALIFORNIA,FRESNO,0693657
114199,683986,-122.91,41.52,CALIFORNIA,GREENVIEW,0696027
1185421,5441495,-118.0,33.66667,CALIFORNIA,HUNTINGTON BEACH,0692648
1185428,5441570,-117.91667,33.65,CALIFORNIA,COSTA MESA,0692627
1185432,5441574,-117.25,33.38333,CALIFORNIA,FALLBROOK,0692028
1185432,5441574,-117.28333,33.35,CALIFORNIA,FALLBROOK,
1185432,5441575,-117.15,33.41667,CALIFORNIA,RAINBOW,0692028
1185432,5441576,-117.15,33.5,CALIFORNIA,TEMECULA,0692592
1185432,5441576,-117.16667,33.48333,CALIFORNIA,TEMECULA,0692590
1185433,5441577,-117.08333,32.63333,CALIFORNIA,CHULA VISTA,0691910
1185436,5441691,-117.3,33.7,CALIFORNIA,LAKE ELSINORE,0692532
1111273,5233137,-119.8,36.96667,CALIFORNIA,MADERA,0693636
1185449,5441765,-117.91667,33.83333,CALIFORNIA,ANAHEIM,0692805
11718,64457,-119.79,36.78,CALIFORNIA,HAMMOND,0693726
11718,64455,-119.61,36.57,CALIFORNIA,SELMA,0693662
134879,808421,-122.0,39.35,CALIFORNIA,STEGEMAN,0695932
134879,808421,-121.9981,39.3514,CALIFORNIA,STEGEMAN,0695932
134879,808422,-121.65,39.05,CALIFORNIA,YUBA CITY SOUTH,0695993
134879,808422,-121.6508,39.0526,CALIFORNIA,YUBA CITY SOUTH,0695993
134879,808428,-121.99,39.24,CALIFORNIA,COLUSA,0695932
101147,605186,-117.135,33.6971,CALIFORNIA,HOMELAND,0692584
105560,633219,-119.8238,36.1886,CALIFORNIA,STRATFORD,0693266
36359,212353,-121.97,38.36,CALIFORNIA,VACAVILLE NUT TREE,0695687
1203163,5488497,-121.4333,37.75,CALIFORNIA,TRACY,0695376
1121127,5261891,-120.18333,39.33333,CALIFORNIA,TRUCKEE,0696161
1121126,5261890,-120.18333,39.33333,CALIFORNIA,TRUCKEE,0696161
1121125,5261889,-120.46667,39.8,CALIFORNIA,PORTOLA,0696122
105530,633013,-120.756,37.6233,CALIFORNIA,WATERFORD,0695323
1199514,5478643,-121.4667,38.55,CALIFORNIA,SACRAMENTO,0695817
11718,64456,-119.86,36.83,CALIFORNIA,FIGARDEN,0693711
105530,633011,-120.87100000000001,37.8101,CALIFORNIA,OAKDALE,0695361
1185322,5442278,-119.7,36.81667,CALIFORNIA,PINEDALE,0693612
1185322,5442278,-119.76666999999999,36.85,CALIFORNIA,PINEDALE,0693720
1185322,5442279,-120.06667,36.76667,CALIFORNIA,KERMAN,0693630
1185322,5442280,-120.13333,36.91667,CALIFORNIA,MADERA,0693637
1092964,5140018,-118.13333,33.91667,CALIFORNIA,DOWNEY,0690242
1185322,5442281,-119.86667,37.11667,CALIFORNIA,MADERA,0693636
11718,64446,-119.46,35.14,CALIFORNIA,FORD CITY,0693268
11718,64448,-119.03,35.34,CALIFORNIA,KERN CITY,0693304
11718,64449,-120.45,36.85,CALIFORNIA,FIREBAUGH,0693622
11718,64450,-120.45,36.85,CALIFORNIA,FIREBAUGH,0693622
11718,64451,-119.79,36.3,CALIFORNIA,CIMARRON,0693245
11718,64452,-120.06,36.72,CALIFORNIA,KERMAN,0693630
11718,64453,-119.79,36.3,CALIFORNIA,CIMARRON,0693245
11718,64454,-119.79,36.78,CALIFORNIA,HAMMOND,0693726
1185300,5442091,-115.51666999999999,33.23333,CALIFORNIA,NILAND,0692257
15931,91519,-120.4,36.78,CALIFORNIA,ARBIOS,0693622
57731,346462,-117.1967,34.1267,CALIFORNIA,HIGHLAND,0692346
57731,346462,-116.85,34.27,CALIFORNIA,BIG BEAR CITY,0692314
1091679,5135439,-120.2,36.86667,CALIFORNIA,MADERA,0693637
63513,380297,-120.57,37.37,CALIFORNIA,(MER)CASTLE AFB,0695301
98697,593507,-120.0274,38.9541,CALIFORNIA,CAMP RICHARDSON,
1111273,5233141,-119.45,36.68333,CALIFORNIA,REEDLEY,0693657
89228,537629,-122.97,40.2,CALIFORNIA,RED FLAT AIRSTRIP,
71762,433535,-117.1077,32.7522,CALIFORNIA,SAN DIEGO,0692105
1166727,5387132,-120.63333,35.1,CALIFORNIA,OCEANO,
37516,218436,-119.27,35.3,CALIFORNIA,TUPMAN,
63513,380297,-120.6,37.35,CALIFORNIA,ATWATER,0695301
1208898,5502005,-120.6,36.61667,CALIFORNIA,SAN JOAQUIN,0693622
1208898,5502005,-120.6667,36.78333,CALIFORNIA,SAN JOAQUIN,0693622
1119943,5259013,-123.43333,40.8,CALIFORNIA,BURNT RANCH,0695563
1119943,5259014,-123.46667,40.96667,CALIFORNIA,SALYER,
1188711,5446649,-122.63333,41.73333,CALIFORNIA,YREKA,0696097
1091679,5135439,-120.18333,36.86667,CALIFORNIA,MADERA,0693637
1208898,5502011,-119.8,36.65,CALIFORNIA,EASTON,0693706
63513,380293,-119.3541,36.45,CALIFORNIA,TRAVER,0693291
1134416,5290955,-119.78333,36.81667,CALIFORNIA,FIG GARDEN,0693710
63513,380293,-119.3181,36.45,CALIFORNIA,TRAVER,0693291
98697,593507,-120.071,38.9728,CALIFORNIA,FALLEN LEAF,
1134416,5290954,-119.63333,36.86667,CALIFORNIA,CLOVIS,0693619
95120,571517,-120.2214,37.0264,CALIFORNIA,CHOWCHILLA,0693637
95120,571516,-120.1341,37.0212,CALIFORNIA,MADERA,0693637
1102369,5156846,-119.38333,37.9,CALIFORNIA,YOSEMITE VLG,
98697,593400,-120.42,39.6,CALIFORNIA,SATTLEY,0696126
1102364,5156508,-118.35,35.13333,CALIFORNIA,TEHACHAPI,0693561
77438,467331,-120.42,39.6,CALIFORNIA,SATTLEY,0696126
63513,380291,-119.38,36.53,CALIFORNIA,DINUBA,0693618
77438,467277,-120.72,39.87,CALIFORNIA,SLOAT,0696103
77438,467276,-120.65,39.79,CALIFORNIA,MOHAWK,0696103
1215067,5521211,-123.3833,41.8,CALIFORNIA,HAPPY CAMP,0696039
1091680,5135440,-120.11667,36.7,CALIFORNIA,KERMAN,0693630
1091681,5135441,-119.86667,36.6,CALIFORNIA,CARUTHERS,0693706
32921,192032,-115.1954,35.1274,CALIFORNIA,BARNWELL,0692332
57731,346456,-117.8998,33.7817,CALIFORNIA,GARDEN GROVE,0692840
1173153,5405921,-118.35,36.63333,CALIFORNIA,MINERAL KING,
1173153,5405920,-118.35,36.63333,CALIFORNIA,MINERAL KING,
57731,346456,-117.7007,33.4728,CALIFORNIA,DANA PT,0692629
78136,470528,-121.44,41.0,CALIFORNIA,FALL RIVER MILLS,0696028
78070,475440,-123.25,40.73,CALIFORNIA,BIG BAR,0696010
1093064,5138977,-117.73333000000001,33.58333,CALIFORNIA,LAGUNA HILLS,0692656
1093064,5138977,-117.68333,33.63333,CALIFORNIA,LAGUNA HILLS,0692630
116598,701203,-122.58,38.58,CALIFORNIA,CALISTOGA,0694515
1208898,5502004,-120.3833,36.46667,CALIFORNIA,SAN JOAQUIN,0693608
1098469,5153319,-120.18333,39.4,CALIFORNIA,HOBART MILLS,
116598,701204,-122.6997,38.3498,CALIFORNIA,COTATI,0694928
1098470,5153320,-120.61667,39.76667,CALIFORNIA,GRAEAGLE,0696103
3541,19352,-121.5988,36.997,CALIFORNIA,GILROY,0695020
1175699,5413219,-122.83333,41.61667,CALIFORNIA,FT JONES,0696032
3541,19352,-121.5956,36.9996,CALIFORNIA,GILROY,0695020
1091692,5134988,-118.91667,35.26667,CALIFORNIA,LAMONT,0693241
63513,380298,-120.6,37.35,CALIFORNIA,ATWATER,0695301
1188761,5446671,-119.1,36.53333,CALIFORNIA,WOODLAKE,0693286
41455,241668,-120.2095,39.3991,CALIFORNIA,HOBART MILLS,
1188760,5446670,-119.68333,36.33333,CALIFORNIA,HANFORD,0693230
1091682,5135442,-119.76666999999999,36.65,CALIFORNIA,CALWA,0693725
1162087,5374766,-116.05,34.13333,CALIFORNIA,TWENTY NINE PALMS,0692277
1092922,5137484,-122.13333,38.21667,CALIFORNIA,CORDELIA,0694534
1091683,5135443,-120.03333,36.95,CALIFORNIA,MADERA,0693638
1091684,5135444,-119.91667,36.76667,CALIFORNIA,(FCH) CHANDLER AF,0693723
1091685,5135445,-119.7,36.7,CALIFORNIA,SANGER,0693725
1091685,5135445,-119.68333,36.7,CALIFORNIA,SANGER,0693725
116598,701205,-122.6931,38.4821,CALIFORNIA,SANTA ROSA,0695404
41515,241943,-120.01,38.93,CALIFORNIA,AL TAHOE,0696150
41515,241943,-120.0,38.9,CALIFORNIA,LAKE TAHOE ARPT,0696150
1091683,5135443,-120.06667,36.93333,CALIFORNIA,MADERA,0693637
77438,467329,-119.22,38.26,CALIFORNIA,BRIDGEPORT,0693517
101147,605186,-117.1343,33.6969,CALIFORNIA,HOMELAND,0692584
30483,178584,-117.2409,32.9067,CALIFORNIA,SORRENTO,0692121
20185,120440,-116.5819,33.22,CALIFORNIA,RANCHITA,0692066
1206560,5496347,-120.4667,37.28333,CALIFORNIA,MERCED,0695341
1214584,5517554,-119.0167,37.26667,CALIFORNIA,MONO HOT SPGS,0693634
30483,178584,-117.2315,32.961999999999996,CALIFORNIA,DEL MAR,0692130
103285,617334,-122.18,39.97,CALIFORNIA,RICHFIELD,0696021
1092632,5136120,-116.53333,33.08333,CALIFORNIA,WHISPERING PINES,0692036
16088,92622,-119.2017,38.2986,CALIFORNIA,BRIDGEPORT BRYANT AR,0693517
1206560,5496347,-120.4667,37.3,CALIFORNIA,MERCED,0695340
78812,473542,-117.3058,34.7569,CALIFORNIA,HELENDALE,0692342
131882,788867,-122.45,37.75,CALIFORNIA,SAN FRANCISCO,0694131
131882,788866,-121.88,36.6,CALIFORNIA,(MRY)MONTEREY ARPT,0693940
1173364,5405589,-122.36667,38.55,CALIFORNIA,YOUNTVILLE,0694574
45237,262439,-116.9811,34.8966,CALIFORNIA,BARSTOW,0692311
103285,617335,-122.17,39.93,CALIFORNIA,CORNING,0696021
103285,617410,-122.2057,40.0,CALIFORNIA,RICHFIELD,0696035
45237,262434,-117.1171,34.874,CALIFORNIA,LENWOOD,0692311
133307,798027,-119.81,37.16,CALIFORNIA,KNOWLES,0693614
1194290,5464767,-116.45,34.11667,CALIFORNIA,YUCCA VLY,0692284
45233,262416,-118.3962,37.3616,CALIFORNIA,BISHOP,0693514
20185,120440,-116.573,33.2176,CALIFORNIA,SAN FELIPE,0692066
17731,102643,-117.3478,33.8011,CALIFORNIA,ALESSANDRO,0692570
119795,718334,-123.55,41.3,CALIFORNIA,ORLEANS,0695556
1110742,5229876,-117.11667,32.88333,CALIFORNIA,MIRAMAR,0692126
1197210,5469552,-118.0167,35.15,CALIFORNIA,CALIF CITY AIRPORT,0693505
101342,606288,-124.08,40.9424,CALIFORNIA,ARCATA,0695519
111305,664162,-121.81,39.75,CALIFORNIA,CHICO,0695926
1197210,5469551,-117.9667,35.1,CALIFORNIA,CALIF CITY CIVIC CTR,0693505
111305,664161,-121.27,38.77,CALIFORNIA,ROSEVILLE,0695678
57900,347306,-118.149,34.5979,CALIFORNIA,DESERT VIEW HIGHLAND,0693551
1197210,5469550,-117.9667,35.05,CALIFORNIA,CALIF CITY CIVIC CTR,
1197210,5469549,-118.0,35.1,CALIFORNIA,CALIF CITY CIVIC CTR,0693505
96268,578704,-122.9068,41.5379,CALIFORNIA,GREENVIEW,0696027
1194302,5461583,-114.6,34.83333,CALIFORNIA,NEEDLES,0692363
96267,578703,-122.55,41.73,CALIFORNIA,(1O5)MONTAGUE/YREKA,0696064
133307,798027,-119.8025,37.1655,CALIFORNIA,KNOWLES,0693614
101547,607384,-121.95,38.33,CALIFORNIA,VACAVILLE JCT,0695687
17731,102642,-117.2708,33.8744,CALIFORNIA,VAL VERDE,0692518
17731,102642,-117.2848,33.8668,CALIFORNIA,ALESSANDRO,0692518
1125304,5273933,-117.86667,34.01667,CALIFORNIA,WALNUT,0691789
1160044,5334952,-120.53333,41.48333,CALIFORNIA,ALTURAS,0696101
57900,347306,-118.1264,34.6011,CALIFORNIA,PALMDALE,0693550
1110733,5229860,-117.83333,33.78333,CALIFORNIA,ORANGE,0692866
1125368,5273773,-121.75,36.96667,CALIFORNIA,WATSONVILLE MUNI ARP,0695076
119903,718708,-122.7,41.04,CALIFORNIA,STRINGTOWN,0696091
1194317,5464846,-117.1167,34.86667,CALIFORNIA,LENWOOD,0692311
66662,399980,-117.1978,33.7689,CALIFORNIA,PERRIS,0692585
1217095,5523074,-116.2667,32.66667,CALIFORNIA,BOULEVARD,0691905
1217097,5523077,-116.55,33.05,CALIFORNIA,JULIAN,0692036
1217099,5523165,-117.15,33.73333,CALIFORNIA,MENIFEE,0692585
50772,299698,-120.9438,38.5905,CALIFORNIA,LATROBE,0695682
50790,299796,-122.12100000000001,38.246,CALIFORNIA,ROCKVILLE,0694534
96728,582397,-118.5582,37.1858,CALIFORNIA,ASPENDELL,0693514
50790,299796,-122.1215,38.2445,CALIFORNIA,ROCKVILLE,0694534
133801,802027,-122.8331,38.5602,CALIFORNIA,WINDSOR,0695492
96728,582396,-118.2307,36.5888,CALIFORNIA,LONE PINE,
17731,102643,-117.3419,33.8028,CALIFORNIA,ALESSANDRO,0692570
75750,510101,-119.0427,35.38,CALIFORNIA,OIL JCT,0693301
1214584,5517554,-119.1167,37.26667,CALIFORNIA,MONO HOT SPGS,0693634
96732,582518,-116.3996,34.3028,CALIFORNIA,YUCCA VLY GNT RCK AR,0692285
50791,299798,-121.2961,38.5647,CALIFORNIA,(MHR)MATHER AFB,0695655
119738,718131,-118.2017,34.4746,CALIFORNIA,ACTON,0693510
96728,582395,-118.4,37.37,CALIFORNIA,BISHOP,0693514
68625,411603,-117.23,33.78,CALIFORNIA,PERRIS,0692570
1989,9854,-119.38,36.2533,CALIFORNIA,CORCORAN,0693274
96553,580653,-120.72,37.38,CALIFORNIA,LIVINGSTON,0695334
133725,801141,-120.3926,36.7574,CALIFORNIA,MENDOTA,0693640
97541,586934,-119.47,35.15,CALIFORNIA,FORD CITY,0693268
1118819,5256791,-116.31667,34.13333,CALIFORNIA,JOSHUA TREE,0692252
97061,583622,-120.0044,39.9129,CALIFORNIA,CONSTANTIA,0696109
17731,103540,-117.2339,33.8745,CALIFORNIA,MARCH AFB,0692551
50772,299698,-120.979,38.582,CALIFORNIA,LATROBE,0695682
1217095,5523075,-116.2667,32.66667,CALIFORNIA,BOULEVARD,0691905
78812,473542,-117.323,34.7524,CALIFORNIA,HELENDALE,0692342
1206558,5496343,-120.4833,36.56667,CALIFORNIA,TRANQUILITY,0693640
1193690,5461282,-116.45,32.76667,CALIFORNIA,PINE VLY,0691962
1194318,5464847,-117.2,34.93333,CALIFORNIA,HINKLEY,0692347
1206547,5498781,-119.05,35.43333,CALIFORNIA,(BFL)MEADOWS FIELD AP,0693308
1206546,5498780,-119.9333,36.33333,CALIFORNIA,MADERA,0693245
102865,614764,-121.3705,36.9402,CALIFORNIA,DUNNEVILLE CORNERS,0695023
67510,404750,-116.3154,35.0896,CALIFORNIA,MT AFTON,
75750,510101,-119.0456,35.3773,CALIFORNIA,JASTRO,0693309
103285,617410,-122.1996,39.9566,CALIFORNIA,CORNING MUNI ARPT,0696021
1251,5490,-118.43,34.15,CALIFORNIA,SHERMAN OAKS,0691423
133801,802028,-122.95,38.42,CALIFORNIA,OCCIDENTAL,0695472
103285,617415,-122.2057,40.0,CALIFORNIA,RICHFIELD,0696035
96732,582518,-116.4015,34.2997,CALIFORNIA,LANDERS,0692285
1989,9854,-119.57,36.2446,CALIFORNIA,CORCORAN,0693230
1092631,5136119,-117.81667,33.73333,CALIFORNIA,TUSTIN,0692780
116460,700418,-117.375,34.6167,CALIFORNIA,(VCV)GEORGE AFB VICT,
103285,617415,-122.21600000000001,40.0832,CALIFORNIA,PROBERTA,0696080
102865,614764,-121.3821,36.9373,CALIFORNIA,DUNNEVILLE CORNERS,0695023
1160162,5369430,-116.51666999999999,32.81667,CALIFORNIA,PINE VLY,0691962
1989,9851,-119.4141,36.2344,CALIFORNIA,TAGUS,0693274
97061,583622,-120.0153,39.9445,CALIFORNIA,CONSTANTIA,0696109
97061,594775,-120.51,39.91,CALIFORNIA,DELLEKER,
120664,722788,-119.98,38.94,CALIFORNIA,SOUTH LAKE TAHOE,0696150
119101,715328,-119.6043,37.8497,CALIFORNIA,YOSEMITE LODGE,
120664,722785,-120.1,38.98,CALIFORNIA,MEEKS BAY,0696142
88115,531807,-119.22,38.26,CALIFORNIA,BRIDGEPORT,0693517
133725,801141,-120.3917,36.7591,CALIFORNIA,MENDOTA,0693640
1197765,5472603,-117.4,34.21667,CALIFORNIA,DEVORE,0692407
1197304,5469500,-117.9833,34.71667,CALIFORNIA,(PMD)PALMDALE ARPT,0693535
17731,103540,-117.1024,34.0,CALIFORNIA,CALIMESA,0692320
1180427,5423862,-116.38333,33.23333,CALIFORNIA,BORREGO SPGS,0692004
88148,531990,-120.49,40.29,CALIFORNIA,BUNTINGVILLE,0696114
1180431,5422706,-116.73333000000001,33.75,CALIFORNIA,PINE COVE,0692549
1193690,5461510,-116.2167,32.66667,CALIFORNIA,BOULEVARD,
1181464,5427069,-117.38333,33.2,CALIFORNIA,OCEANSIDE,0692054
88148,531993,-120.24,39.68,CALIFORNIA,LOYALTON,0696118
1100052,5162494,-122.28333,40.38333,CALIFORNIA,COTTONWOOD,0696022
1193690,5461507,-116.5333,33.21667,CALIFORNIA,RANCHITA,0692066
132944,795410,-119.9665,37.3702,CALIFORNIA,BEN HUR,0693653
1197303,5469499,-118.2333,34.23333,CALIFORNIA,LA CRESCENTA,0691214
1100052,5162495,-122.23333000000001,40.18333,CALIFORNIA,RED BLUFF,0696080
31549,185341,-120.06,36.58,CALIFORNIA,KERMAN BLAND ARPT,0693627
30140,195505,-119.73,37.19,CALIFORNIA,ONEALS,0693614
30140,185391,-119.6,37.74,CALIFORNIA,YOSEMITE VLG,0695389
30140,176501,-119.32,36.33,CALIFORNIA,CINOWTHS CORNER,0693291
1158052,5376030,-120.03333,39.23333,CALIFORNIA,KINGS BEACH,
133801,802030,-121.8115,37.0573,CALIFORNIA,CORRALITOS,0695076
1206672,5496266,-121.9667,36.98333,CALIFORNIA,LIVE OAK,0695073
119903,718710,-123.51,40.81,CALIFORNIA,BURNT RANCH,0695527
78908,473810,-121.57,40.53,CALIFORNIA,MANZANITA LAKE,
1193691,5461519,-116.85,34.26667,CALIFORNIA,BIG BEAR CITY,0692314
132944,795410,-119.97,37.37,CALIFORNIA,BEN HUR,0695338
1197743,5473699,-116.45,32.66667,CALIFORNIA,BOULEVARD,0691906
30140,176498,-119.7,37.26,CALIFORNIA,COARSEGOLD,0693614
132951,795462,-119.9062,37.2202,CALIFORNIA,RAYMOND,0693653
133801,802031,-121.88,37.3734,CALIFORNIA,SAN JOSE,0695131
88088,531685,-115.56,32.79,CALIFORNIA,EL CENTRO,0692243
119919,718747,-121.75,36.9924,CALIFORNIA,WATSONVILLE,0695076
115314,692384,-122.431,37.4256,CALIFORNIA,HALF MOON BAY,0694019
119795,718336,-123.07,40.75,CALIFORNIA,JUNCTION CITY,0696048
1197764,5472602,-117.3,34.53333,CALIFORNIA,VICTORVILLE,0692395
119919,718969,-122.4363,37.7103,CALIFORNIA,DALY CITY,0694112
1193691,5461512,-116.9167,34.08333,CALIFORNIA,FOREST FALLS,0692339
119903,718709,-123.4,40.28,CALIFORNIA,RUTH,0695552
30140,176500,-119.21,36.62,CALIFORNIA,LINNELL,0693647
30140,176499,-119.7,37.26,CALIFORNIA,COARSEGOLD,0693614
17731,102640,-117.23,33.8399,CALIFORNIA,MARCH AFB,0692571
132951,795462,-119.9029,37.2195,CALIFORNIA,RAYMOND,0693653
18711,109873,-117.1929,33.5699,CALIFORNIA,MURRIETA,0692562
1197211,5469554,-117.9667,35.13333,CALIFORNIA,CALIF CITY CIVIC CTR,0693505
1197211,5469553,-117.7667,34.96667,CALIFORNIA,BORON,
1197211,5469553,-117.85,35.06667,CALIFORNIA,BORON,
94146,566125,-115.4,33.8,CALIFORNIA,DESERT CENTER,0692239
133297,797541,-121.8434,37.67,CALIFORNIA,PLEASANTON,0694566
1198466,5475523,-120.1167,35.96667,CALIFORNIA,AVENAL,0693204
17731,102641,-117.2924,33.857,CALIFORNIA,ALESSANDRO,0692570
17731,102641,-117.2549,33.8829,CALIFORNIA,MARCH AFB,0692518
78347,471535,-115.53,32.98,CALIFORNIA,BRAWLEY,0692227
1197217,5469631,-117.6833,35.63333,CALIFORNIA,RIDGECREST,0693555
1181099,5427656,-122.2,37.18333,CALIFORNIA,BOULDER CREEK,0695006
1133043,5289619,-120.46667,39.8,CALIFORNIA,PORTOLA,0696122
1198464,5475517,-120.3333,36.2,CALIFORNIA,COALINGA,0693210
120267,720630,-121.47,40.64,CALIFORNIA,OLD STATION,0696071
1198464,5475517,-120.3167,36.25,CALIFORNIA,COALINGA,0693210
1104258,5160219,-117.01666999999999,32.95,CALIFORNIA,POWAY,0692064
1104258,5160219,-117.0,32.95,CALIFORNIA,POWAY,0692064
133297,797542,-122.27,37.4655,CALIFORNIA,REDWOOD CITY,0694062
1181098,5427655,-122.16667,38.25,CALIFORNIA,YOUNTVILLE,0694534
97061,594776,-120.25,39.34,CALIFORNIA,TRUCKEE,0696161
103285,617296,-122.27,40.08,CALIFORNIA,RAWSON,0696080
133307,798026,-119.47,35.4,CALIFORNIA,BUTTONWILLOW,0693206
1213246,5513883,-119.5667,37.86667,CALIFORNIA,YOSEMITE LODGE,
1193690,5461283,-116.85,34.26667,CALIFORNIA,BIG BEAR CITY,0692314
1158049,5379621,-120.38333,39.81667,CALIFORNIA,VINTON,0696129
78945,473980,-119.95,38.94,CALIFORNIA,SOUTH LAKE TAHOE,0696150
78945,473980,-119.96,38.94,CALIFORNIA,SOUTH LAKE TAHOE,0696150
133020,795947,-122.04,36.96,CALIFORNIA,SANTA CRUZ,0695060
133020,796257,-122.0181,36.9569,CALIFORNIA,SANTA CRUZ,0695060
26484,158187,-122.13,39.57,CALIFORNIA,BAYLISS,0695988
26484,158191,-122.27,39.65,CALIFORNIA,ARTOIS,0695963
1100762,5155044,-116.85,34.26667,CALIFORNIA,BIG BEAR CITY,0692314
1100762,5155044,-116.91667,34.08333,CALIFORNIA,BIG BEAR CITY,0692339
26484,160101,-122.2923,40.3649,CALIFORNIA,HOOKER,0696022
1158049,5379621,-120.16667,39.8,CALIFORNIA,VINTON,0696135
1197218,5469633,-118.3833,35.6,CALIFORNIA,LAKE ISABELLA,0693240
26484,158192,-122.32,39.64,CALIFORNIA,ARTOIS,
1206546,5496338,-119.8,36.88333,CALIFORNIA,(NLC)NAS LEMOORE,0693636
1197218,5469632,-118.45,35.6,CALIFORNIA,LAKE ISABELLA,0693240
26484,160091,-122.31299999999999,39.6477,CALIFORNIA,ORLAND,
26484,160092,-122.28,40.38,CALIFORNIA,COTTONWOOD,0696022
17731,102640,-117.2446,33.8358,CALIFORNIA,ALESSANDRO,0692571
1158048,5379620,-120.16667,39.08333,CALIFORNIA,HOMEWOOD,0696141
1193690,5461507,-116.5,33.23333,CALIFORNIA,RANCHITA,0692066
1100777,5155349,-117.36667,34.58333,CALIFORNIA,ADELANTO,0692394
107930,646617,-117.0476,34.8773,CALIFORNIA,BARSTOW,0692311
68601,411526,-121.045,39.091,CALIFORNIA,GRASS VLY ALT SRA AR,0695949
1989,9851,-119.3066,36.2189,CALIFORNIA,TAGUS,0693274
68584,411346,-115.8987,35.9615,CALIFORNIA,TECOPA,0689061
1157303,5373026,-122.31667,41.4,CALIFORNIA,BLACK BUTTE,
134091,802838,-122.0601,37.9308,CALIFORNIA,PLEASANT HILL,0694597
134091,802839,-121.73,36.48,CALIFORNIA,CARMEL VLY,0693924
72899,439895,-122.2043,40.158,CALIFORNIA,RED BLUFF,0696080
72899,439895,-122.219,40.1541,CALIFORNIA,(RBL)RED BLUFF MUNI,0696080
1149799,5349685,-119.86667,36.78333,CALIFORNIA,MADERA MUNI ARPT,0693722
1149799,5349685,-120.15,37.01667,CALIFORNIA,MADERA MUNI ARPT,0693637
120215,720267,-120.83,39.92,CALIFORNIA,MASSACK,0695971
68601,411507,-121.63,39.0621,CALIFORNIA,YUBA CITY SOUTH,0695991
1210647,5509831,-119.2833,37.15,CALIFORNIA,SHAVER LAKE,0693664
79725,478308,-116.73,33.75,CALIFORNIA,PINE COVE,0692549
1975,9808,-121.37,38.4055,CALIFORNIA,ELK GROVE,0695624
132587,793391,-119.56,36.84,CALIFORNIA,ACADEMY,0693619
132587,793391,-119.544,36.8403,CALIFORNIA,ACADEMY,0693619
1184595,5438509,-123.11667,38.61667,CALIFORNIA,JENNER,0695421
1184694,5437648,-119.16667,34.23333,CALIFORNIA,EL RIO,0693036
1184746,5438116,-116.96667,33.71667,CALIFORNIA,HEMET,0692543
45902,266323,-119.17,34.85,CALIFORNIA,FRAZIER PARK,0693222
1100520,5154798,-121.33333,41.05,CALIFORNIA,PITTVILLE,0696056
45895,266313,-119.84,37.39,CALIFORNIA,USONA,0695338
1110850,5231247,-121.21667,39.46667,CALIFORNIA,PARADISE,0695925
11027,60719,-117.93,33.62,CALIFORNIA,NEWPORT BEACH,0692663
11027,60718,-117.286,33.025999999999996,CALIFORNIA,CARDIFF BY THE SEA,0692007
94512,573701,-121.1,39.37,CALIFORNIA,NORTH SAN JUAN,0695960
1110849,5231246,-121.56667,39.51667,CALIFORNIA,OROVILLE,0695965
68601,411519,-121.45100000000001,39.239000000000004,CALIFORNIA,BROWNS VLY,0695901
68601,411518,-121.5268,39.0791,CALIFORNIA,(MYV)MARYSVILLE ARPT,0695901
66399,398067,-116.13,33.15,CALIFORNIA,OCOTILLO WELLS,0692004
118559,712221,-122.7,41.04,CALIFORNIA,STRINGTOWN,0696091
68601,411518,-121.5236,39.0824,CALIFORNIA,(MYV)MARYSVILLE ARPT,0695901
31797,186734,-121.23,40.3,CALIFORNIA,CHESTER ARPT,0696020
68601,411507,-121.62299999999999,39.0906,CALIFORNIA,YUBA CITY SOUTH,0695991
11027,60718,-117.287,33.024,CALIFORNIA,CARDIFF BY THE SEA,0692007
1182734,5430713,-118.16667,33.78333,CALIFORNIA,LONG BEACH,0690804
1182734,5430715,-118.03333,33.95,CALIFORNIA,WHITTIER,0690605
1182775,5430397,-122.7,38.45,CALIFORNIA,SANTA ROSA,0695404
107669,645207,-122.82,41.86,CALIFORNIA,KLAMATH RIVER,0696050
62902,376257,-120.53,40.3,CALIFORNIA,JANESVILLE,0696114
1204425,5489824,-121.0667,39.21667,CALIFORNIA,GRASS VLY,0695945
1204374,5492277,-120.45,34.63333,CALIFORNIA,LOMPOC,0693436
76670,465560,-122.0952,41.97,CALIFORNIA,DORRIS,0696023
1157304,5373028,-121.91667,41.58333,CALIFORNIA,TENNANT,0696058
1157304,5373027,-121.36667,41.88333,CALIFORNIA,NEWELL,0696134
1182734,5430714,-118.3,33.96667,CALIFORNIA,INGLEWOOD,0690044
68601,411519,-121.456,39.235,CALIFORNIA,BROWNS VLY,0695901
31403,184491,-122.18,39.9634,CALIFORNIA,CORNING,0696021
94338,567764,-118.0018,33.6546,CALIFORNIA,HUNTINGTON BEACH,0692648
1206546,5498779,-119.9667,36.26667,CALIFORNIA,ALPAUGH,
1206539,5496223,-119.2333,36.06667,CALIFORNIA,TIPTON,0693272
1206540,5496227,-119.0167,36.06667,CALIFORNIA,PORTERVILLE,0693257
1206546,5496338,-119.85,36.96667,CALIFORNIA,(NLC)NAS LEMOORE,0693636
1206546,5496337,-119.45,35.91667,CALIFORNIA,WESTHAVEN,0693201
11192,61502,-118.2074,34.8393,CALIFORNIA,ROSAMOND,0693560
11192,61502,-118.1565,35.0233,CALIFORNIA,MOJAVE,0693501
11194,61513,-119.5,36.32,CALIFORNIA,HANFORD MUNI ARPT,0693230
11194,61514,-119.28,36.7,CALIFORNIA,SQUAW VLY,0693646
1206536,5496210,-120.6333,37.35,CALIFORNIA,ATWATER,0695301
9103,51633,-119.6,37.74,CALIFORNIA,YOSEMITE VLG,0695389
1184976,5437238,-120.28333,35.31667,CALIFORNIA,CENTRAL PORTION,0693453
1184977,5437239,-120.88333,35.43333,CALIFORNIA,CAYUCOS,0693430
1184978,5437240,-118.45,34.18333,CALIFORNIA,VAN NUYS,0691411
1184979,5437241,-118.53333,34.38333,CALIFORNIA,NEWHALL,0691321
1185024,5436749,-120.5,35.95,CALIFORNIA,PARKFIELD,0693451
1160162,5369430,-116.76666999999999,33.23333,CALIFORNIA,PINE VLY,0692070
1099859,5163878,-117.98333000000001,34.55,CALIFORNIA,LITTLE ROCK,0693552
31549,185337,-120.1,36.49,CALIFORNIA,HELM,0693660
113268,677754,-120.22,37.69,CALIFORNIA,COULTERVILLE,0695311
1184975,5437237,-120.03333,34.48333,CALIFORNIA,GAVIOTA,0693117
94338,567764,-117.9789,33.6754,CALIFORNIA,BOULEVARD GARDENS,0692646
1160167,5369436,-116.83333,34.26667,CALIFORNIA,BIG BEAR CITY,0692314
96882,582870,-115.52,32.73,CALIFORNIA,HEBER,0692249
1146368,5324664,-120.43333,37.35,CALIFORNIA,MERCED ARPT,0695340
1146368,5324664,-120.41667,37.36667,CALIFORNIA,MERCED ARPT,
31549,185340,-120.06,36.61,CALIFORNIA,KERMAN BLAND ARPT,0693630
31549,185339,-120.07,36.57,CALIFORNIA,KERMAN BLAND ARPT,0693627
1177618,5416886,-116.31667,34.13333,CALIFORNIA,JOSHUA TREE,0692252
130797,782665,-116.6897,33.5622,CALIFORNIA,ANZA,0692539
130797,782665,-116.6855,33.5624,CALIFORNIA,ANZA,0692539
1196556,5470611,-121.8,39.56667,CALIFORNIA,DURHAM,0695938
1196555,5470610,-122.2,39.61667,CALIFORNIA,ARTOIS,0695963
1146369,5324665,-119.05,35.88333,CALIFORNIA,DUCOR,0693218
87607,528793,-123.54,41.43,CALIFORNIA,SOMES BAR,0695568
1206535,5496208,-120.5333,37.31667,CALIFORNIA,MERCED ARPT,0695341
1206536,5496210,-120.6333,37.33333,CALIFORNIA,ATWATER,0695301
79725,478683,-116.4935,32.6661,CALIFORNIA,CLOVER FLAT,0691906
39136,227230,-119.79,36.82,CALIFORNIA,FIG GARDEN VLG,0693710
39136,227230,-119.8739,36.9274,CALIFORNIA,HERNDON,0693636
50191,299795,-122.161,39.16,CALIFORNIA,WILLIAMS,0695987
50191,299795,-122.167,39.145,CALIFORNIA,WILLIAMS,0695987
50190,299794,-122.2327,39.28,CALIFORNIA,MAXWELL,0695955
50190,299794,-122.2374,39.28,CALIFORNIA,MAXWELL,0695955
87607,528793,-123.34,41.27,CALIFORNIA,FORKS OF SALMON,0696031
31349,184483,-121.8229,40.5,CALIFORNIA,SHINGLETOWN,0696088
1110848,5231245,-121.61667,39.91667,CALIFORNIA,PARADISE,0695954
31797,186733,-121.4331,40.5093,CALIFORNIA,WONDERLAND,
1149800,5349687,-119.45,36.6,CALIFORNIA,REEDLEY,0693654
45439,263754,-118.71,34.29,CALIFORNIA,SANTA SUSANA,0693063
1125368,5273776,-121.88333,36.6,CALIFORNIA,(MRY)MONTEREY ARPT,0693940
20746,123209,-115.3187,32.9015,CALIFORNIA,SANDIA,0692227
1092625,5136020,-117.2,34.13333,CALIFORNIA,RUNNING SPGS,0692346
1103705,5162319,-120.03333,36.08333,CALIFORNIA,AVENAL,0693239
1103705,5162319,-120.13333,36.11667,CALIFORNIA,AVENAL,0693210
101296,611403,-120.9531,37.6175,CALIFORNIA,(MOD)MODESTO ARPT,0695351
1103705,5162318,-120.21667,36.1,CALIFORNIA,COALINGA,0693210
1103705,5162318,-120.21667,36.26667,CALIFORNIA,COALINGA,0693210
101296,611403,-120.9569,37.619,CALIFORNIA,(MOD)MODESTO ARPT,0695351
101296,605920,-121.0018,38.6919,CALIFORNIA,SHINGLE SPGS ARPT,0695682
101296,605920,-121.1157,38.705,CALIFORNIA,CLARKSVILLE,0695630
101272,609699,-120.89,38.8,CALIFORNIA,COLOMA,0695667
1103700,5161828,-120.4,37.11667,CALIFORNIA,CHOWCHILLA,0693610
1158053,5376031,-120.18333,39.33333,CALIFORNIA,TRUCKEE,0696161
119738,718131,-118.2077,34.4803,CALIFORNIA,ACTON,0693510
1103700,5161827,-120.36667,37.16667,CALIFORNIA,MERCED ARPT,0693610
126316,757185,-121.91,41.58,CALIFORNIA,TENNANT,0696058
1125368,5273775,-121.71667,36.93333,CALIFORNIA,WATSONVILLE,0695076
10027,55832,-116.05,34.13,CALIFORNIA,TWENTY NINE PALMS,0692277
1125368,5273774,-121.78333,36.96667,CALIFORNIA,WATSONVILLE MUNI ARP,0695076
1975,9808,-121.37,38.3911,CALIFORNIA,ELK GROVE,0695624
126607,758974,-122.03,41.81,CALIFORNIA,MACDOEL,0696058
68601,411526,-121.09100000000001,39.045,CALIFORNIA,WOLF,0695949
133800,800703,-121.95,36.57,CALIFORNIA,PEBBLE BEACH,0693953
50791,299798,-121.2903,38.5671,CALIFORNIA,(MHR)MATHER AFB,0695655
50792,299806,-121.7752,39.7168,CALIFORNIA,HAMILTON CITY,0695928
107930,646617,-117.0435,34.8533,CALIFORNIA,BARSTOW,
1149800,5349688,-120.45,36.85,CALIFORNIA,FIREBAUGH,0693622
126559,758557,-122.43,41.37,CALIFORNIA,WEED,0696094
50792,299806,-122.1624,39.62,CALIFORNIA,ARTOIS,0695963
127022,761276,-119.96,38.2,CALIFORNIA,PINECREST,0695364
68601,411522,-121.34100000000001,38.4,CALIFORNIA,ELK GROVE ARPT,0695624
50792,299818,-121.73200000000001,39.6446,CALIFORNIA,ORBEND,0695938
116460,700418,-117.3743,34.6207,CALIFORNIA,ADELANTO,
50792,299818,-122.2,39.52,CALIFORNIA,WILLOWS,0695988
1092625,5136020,-117.1,34.2,CALIFORNIA,RUNNING SPGS,0692382
50792,299822,-121.6169,39.5986,CALIFORNIA,THERMALITO,0695965
50792,299822,-121.6208,39.598,CALIFORNIA,THERMALITO,0695965
50794,299833,-121.6251,39.248000000000005,CALIFORNIA,SUNSET,0695901
50794,299833,-121.6719,39.1832,CALIFORNIA,BERG,0695993
1125368,5273773,-121.78333,36.96667,CALIFORNIA,WATSONVILLE MUNI ARP,0695076
1092631,5136119,-117.73333000000001,33.58333,CALIFORNIA,TUSTIN,0692656
127022,761278,-120.35,38.73,CALIFORNIA,RANDALL,
1103700,5161827,-120.4,37.18333,CALIFORNIA,MERCED ARPT,0693610
101272,609698,-121.13,38.88,CALIFORNIA,OPHIR,0695658
1161487,5374593,-123.7,40.88333,CALIFORNIA,WILLOW CREEK,0695573
98004,589229,-120.3,38.77,CALIFORNIA,KYBURZ,0695720
1212320,5511865,-119.6,34.95,CALIFORNIA,CUYAMA,0693254
1146368,5324662,-120.51666999999999,37.33333,CALIFORNIA,MERCED ARPT,0695348
1146368,5324662,-120.48333000000001,37.35,CALIFORNIA,MERCED ARPT,0695348
103249,617074,-119.0293,36.0702,CALIFORNIA,PORTERVILLE,0693257
1149800,5349686,-119.7,36.71667,CALIFORNIA,(FAT) AIR TERMINAL,0693727
1161488,5374594,-123.85,40.98333,CALIFORNIA,BLUE LAKE,0695525
1193684,5460705,-116.95,33.78333,CALIFORNIA,SAN JACINTO,0692583
120221,720308,-120.65,40.41,CALIFORNIA,SUSANVILLE,0696130
1193684,5460704,-116.9667,33.73333,CALIFORNIA,HEMET,0692543
10899,60237,-115.93,32.74,CALIFORNIA,COYOTE WELLS,0692259
1193684,5460702,-117.0,33.71667,CALIFORNIA,HEMET,0692545
1110844,5231241,-122.23333000000001,40.18333,CALIFORNIA,RED BLUFF,0696080
10631,59491,-116.85,34.27,CALIFORNIA,BIG BEAR CITY,0692314
1110845,5231242,-121.56667,39.51667,CALIFORNIA,OROVILLE,0695965
1110846,5231243,-122.23333000000001,40.03333,CALIFORNIA,RED BLUFF,0696035
1110847,5231244,-121.83333,39.73333,CALIFORNIA,CHICO,0695928
116419,700061,-120.83,38.9,CALIFORNIA,GEORGETOWN,0695634
68601,411522,-121.35,38.387,CALIFORNIA,MC CONNELL,0695624
1193684,5460702,-116.95,33.73333,CALIFORNIA,HEMET,0692544
120243,720622,-118.6295,36.128,CALIFORNIA,CAMP NELSON,0693208
1193684,5460710,-117.0167,33.7,CALIFORNIA,HEMET,0692545
1158057,5376035,-120.41667,40.36667,CALIFORNIA,LITCHFIELD,0696128
101272,605791,-120.7564,37.528,CALIFORNIA,DENAIR,0695316
25072,146881,-122.0406,39.3602,CALIFORNIA,CODORA,0695970
1158054,5376032,-120.65,40.41667,CALIFORNIA,SUSANVILLE,0696130
23259,135788,-116.53,33.22,CALIFORNIA,RANCHITA,0692066
1158057,5376035,-120.38333,40.38333,CALIFORNIA,LITCHFIELD,0696117
1149800,5349686,-119.7,36.75,CALIFORNIA,(FAT) AIR TERMINAL,0693727
1181613,5426007,-119.31667,36.48333,CALIFORNIA,DINUBA,0693291
67848,406991,-120.1,39.36,CALIFORNIA,BOCA,0696161
31549,185342,-119.96,36.54,CALIFORNIA,BURREL,0693656
120244,720649,-120.1028,38.9783,CALIFORNIA,MEEKS BAY,0696142
101272,605791,-120.8118,37.5306,CALIFORNIA,DENAIR,0695316
1212319,5511864,-119.6,34.95,CALIFORNIA,CUYAMA,0693254
120243,720647,-119.5542,36.1112,CALIFORNIA,CORCORAN,0693212
