EPISODE_ID,EVENT_ID,LONGITUDE,LATITUDE,STATE,LOCATION,ZIPCODE
55315,349059,-75.76,39.71,DELAWARE,MILFORD XRDS,1019711
66246,412200,-75.5648,39.0979,DELAWARE,WYOMING,1019934
66246,412200,-75.5644,39.101,DELAWARE,WYOMING,1019934
1208194,5503503,-75.53333,39.16667,DELAWARE,DOVER,1019904
1208193,5503390,-75.56667,39.11667,DELAWARE,WYOMING,1019934
1208193,5503390,-75.61667,39.11667,DELAWARE,WYOMING,1019934
104064,622542,-75.62,38.96,DELAWARE,MASTEN,1019952
104064,622543,-75.37,38.73,DELAWARE,REDDEN,1019947
1208187,5503384,-75.3,38.58333,DELAWARE,MILLSBORO,1019966
1137316,5300588,-75.53333,39.16667,DELAWARE,DOVER,1019904
1208187,5503384,-75.06667,38.53333,DELAWARE,MILLSBORO,1019930
43537,261614,-75.75,39.68,DELAWARE,NEWARK,1019717
1181375,5427469,-75.58333,39.73333,DELAWARE,(ILG)WILMINGTON ARPT,1019804
1117667,5253827,-75.68333,39.81667,DELAWARE,WILMINGTON,
19207,132994,-75.58,39.68,DELAWARE,WILMINGTON MANOR,1019720
19207,133267,-75.08,38.72,DELAWARE,REHOBOTH BEACH,1019971
19207,133845,-75.57,39.67,DELAWARE,NEW CASTLE,1019720
19207,133845,-75.67,39.63,DELAWARE,BEAR,1019701
1117667,5253827,-75.53333,39.75,DELAWARE,WILMINGTON,1019802
1181375,5427469,-75.6,39.68333,DELAWARE,(ILG)WILMINGTON ARPT,1019720
17075,115603,-75.69,39.69,DELAWARE,ROSEVILLE PARK,1019711
73797,462499,-75.75,39.68,DELAWARE,NEWARK,1019717
63564,393564,-75.73,39.45,DELAWARE,MIDDLETOWN,1019709
63564,393573,-75.57,39.67,DELAWARE,NEW CASTLE,1019720
63564,393571,-75.53,39.75,DELAWARE,WILMINGTON,1019802
73797,462498,-75.67,39.63,DELAWARE,BEAR,1019701
64836,408410,-75.7,39.4,DELAWARE,TOWNSEND,1019734
54805,343049,-75.1765,38.7583,DELAWARE,BELLTOWN,1019958
73640,460300,-75.74,39.65,DELAWARE,COOCH,1019713
73640,460300,-75.73,39.66,DELAWARE,COOCH,1019713
27698,170147,-75.53,39.75,DELAWARE,WILMINGTON,1019802
37820,234070,-75.68,39.78,DELAWARE,HOCKESSIN,1019707
54805,343049,-75.165,38.763000000000005,DELAWARE,NASSAU,1019958
5881,51139,-75.7,39.4,DELAWARE,TOWNSEND,1019734
1138980,5308427,-75.6,38.55,DELAWARE,LAUREL,1019956
1138980,5308427,-75.51666999999999,38.45,DELAWARE,LAUREL,
38969,240652,-75.67,39.63,DELAWARE,BEAR,1019701
38969,240651,-75.75,39.68,DELAWARE,NEWARK,1019717
1133834,5292618,-75.6,39.28333,DELAWARE,SMYRNA,1019977
54097,341551,-75.57,38.45,DELAWARE,DELMAR,
27582,168851,-75.43,38.92,DELAWARE,MILFORD,1019963
60017,362627,-75.61,38.63,DELAWARE,BLADES,1019973
37820,234065,-75.57,39.67,DELAWARE,NEW CASTLE,1019720
37820,234063,-75.67,39.63,DELAWARE,BEAR,1019701
27582,168849,-75.5,38.92,DELAWARE,HOUSTON,1019954
1095354,5144698,-75.66667,39.63333,DELAWARE,NEWARK,1019701
63564,393567,-75.75,39.68,DELAWARE,NEWARK,1019717
1135594,5299977,-75.66667,39.63333,DELAWARE,BEAR,1019701
29792,186318,-75.6937,39.7884,DELAWARE,HOCKESSIN,1019707
4616,39755,-75.5439,38.5704,DELAWARE,LAUREL,1019956
49814,310952,-75.6,39.3,DELAWARE,SMYRNA,1019977
19931,132103,-75.08,38.72,DELAWARE,REHOBOTH BEACH,1019971
53726,340821,-75.54,39.74,DELAWARE,WILMINGTON,1019801
18498,125169,-75.67,39.63,DELAWARE,BEAR,1019701
53726,340813,-75.47,39.8,DELAWARE,CLAYMONT,1019703
28052,178250,-75.6244,38.8142,DELAWARE,GREENWOOD,1019950
28052,178258,-75.52,38.57,DELAWARE,SYCAMORE,1019956
27932,177772,-75.63,39.28,DELAWARE,CLAYTON,1019938
23370,136573,-75.53,39.17,DELAWARE,DOVER,1019904
1209625,5507000,-75.53333,39.75,DELAWARE,(ILG)WILMINGTON ARPT,1019802
96183,592905,-75.5497,39.709,DELAWARE,GARFIELD PARK,1019720
27932,178138,-75.67,39.15,DELAWARE,HAGLETTVILLE,1019953
53986,341469,-75.47,39.8,DELAWARE,CLAYMONT,1019703
38321,234149,-75.55,39.8,DELAWARE,TALLEYVILLE,1019803
38321,234150,-75.53,39.75,DELAWARE,WILMINGTON,1019802
1092924,5137487,-75.28333,38.71667,DELAWARE,HARBESON,1019951
1177240,5417033,-75.71667,39.48333,DELAWARE,ARMSTRONG,1019709
63776,403171,-75.3,38.58,DELAWARE,MILLSBORO,1019966
26073,159395,-75.53,39.75,DELAWARE,WILMINGTON,1019802
26073,159395,-75.55,39.8,DELAWARE,TALLEYVILLE,1019803
96183,592905,-75.5399,39.7086,DELAWARE,GARFIELD PARK,1019720
63237,396113,-75.67,39.63,DELAWARE,BEAR,1019701
53726,340820,-75.6573,39.6287,DELAWARE,BEAR,1019701
1161356,5333517,-75.56667,39.01667,DELAWARE,FELTON,1019943
1113051,5240679,-75.73333000000001,39.45,DELAWARE,MIDDLETOWN,1019709
37820,234054,-75.75,39.68,DELAWARE,NEWARK,1019717
124433,746628,-75.46,39.01,DELAWARE,FREDERICA,1019946
1155016,5364127,-75.4,39.06667,DELAWARE,BOWERS,1019901
84148,518791,-75.4947,39.8264,DELAWARE,HARNOUS CORNER,1019810
50640,327005,-75.63,39.28,DELAWARE,CLAYTON,1019938
63237,396118,-75.57,39.67,DELAWARE,NEW CASTLE,1019720
1209625,5507000,-75.61667,39.66667,DELAWARE,(ILG)WILMINGTON ARPT,1019720
103351,618173,-75.53,39.73,DELAWARE,DUNLEITH,1019809
84148,521847,-75.42,38.8,DELAWARE,ELLENDALE,1019941
1170688,5398850,-75.56667,38.45,DELAWARE,DELMAR,
1137339,5300653,-75.76666999999999,39.16667,DELAWARE,HARTLY,
84148,518794,-75.4947,39.8264,DELAWARE,HARNOUS CORNER,1019810
84148,518794,-75.47,39.8,DELAWARE,CLAYMONT,1019703
1180157,5422187,-75.53333,39.21667,DELAWARE,LEIPSIC,1019901
29949,186335,-75.05,38.4607,DELAWARE,FENWICK IS,1019944
1095354,5144698,-75.75,39.68333,DELAWARE,NEWARK,1019711
94756,578697,-75.5668,39.6617,DELAWARE,NEW CASTLE,1019720
84148,519446,-75.661,39.096,DELAWARE,HAGLETTVILLE,1019934
1137316,5300587,-75.6,39.3,DELAWARE,SMYRNA,1019977
84148,519446,-75.667,39.098,DELAWARE,HAGLETTVILLE,1019934
84148,519442,-75.52,39.83,DELAWARE,BRANDYWINE,1019810
