EPISODE_ID,EVENT_ID,LONGITUDE,LATITUDE,STATE,LOCATION,ZIPCODE
1188654,5446135,-116.73333000000001,44.46667,IDAHO,MIDVALE,1683645
1150220,5351638,-112.45,43.03333,IDAHO,FT HALL,1683202
107871,646331,-115.9637,45.9858,IDAHO,HARPSTER,1683552
1174072,5407875,-113.93333,42.8,IDAHO,BURLEY,
90078,541260,-114.6197,42.6834,IDAHO,WENDELL,1683338
1174071,5407874,-111.96667,43.58333,IDAHO,UCON,1683401
107871,646330,-116.1202,45.9258,IDAHO,GRANGEVILLE,1683530
89374,538259,-116.0651,46.38,IDAHO,GREER,1683544
90078,587320,-114.48,42.48,IDAHO,(TWF)TWIN FALLS ARPT,1683301
124920,749345,-114.14,42.44,IDAHO,MURTAUGH,1683344
1150223,5351641,-112.3,43.08333,IDAHO,FT HALL,
1188651,5446132,-114.75,42.6,IDAHO,BUHL,1683316
1096312,5147256,-116.2,43.91667,IDAHO,HORSESHOE BEND,1683629
90078,541260,-114.71,42.65,IDAHO,WENDELL,1683316
1174073,5407876,-112.16667,42.66667,IDAHO,MC CAMMON,1683250
1210927,5510117,-115.9333,46.31667,IDAHO,WEIPPE,1683553
31263,183675,-112.4061,43.1391,IDAHO,BLACKFOOT,1683221
90078,587320,-114.87,42.52,IDAHO,CASTLEFORD,1683321
1181751,5425962,-116.68333,43.73333,IDAHO,EMMETT,1683607
1181751,5425963,-116.66667,43.86667,IDAHO,NEW PLYMOUTH,1683617
124608,749298,-116.68,43.63,IDAHO,MOSS,1683607
130156,779446,-111.98,42.03,IDAHO,WESTON,1683286
130156,779455,-111.5997,42.65,IDAHO,SODA SPGS,1683276
130156,779461,-111.58,42.65,IDAHO,SODA SPGS,1683276
130156,779476,-112.0,42.18,IDAHO,CLIFTON,1683228
130156,779480,-112.02,42.27,IDAHO,OXFORD,1683228
130156,779481,-111.8518,42.23,IDAHO,BANIDA,1683263
124608,749299,-116.28,44.99,IDAHO,NEW MEADOWS ARPT,1683654
124608,749299,-116.2999,45.0259,IDAHO,NEW MEADOWS ARPT,1683654
90679,544073,-112.12,43.37,IDAHO,SHELLEY,1683274
1191030,5456504,-113.7333,42.25,IDAHO,OAKLEY,1683346
111181,664045,-112.13,43.72,IDAHO,ROBERTS,1683444
1191032,5456568,-113.9,42.21667,IDAHO,OAKLEY,1683346
1191033,5456569,-113.55,42.25,IDAHO,ELBA,1683342
90080,541262,-114.5105,43.0047,IDAHO,GOODING,1683352
1191037,5456573,-112.5,42.01667,IDAHO,STONE,1683252
1191036,5456572,-112.7,42.01667,IDAHO,STONE,1683252
111282,664058,-111.92,43.67,IDAHO,RIGBY,1683442
111282,664058,-111.8775,43.7007,IDAHO,RIGBY,1683442
105835,634905,-111.7493,43.8735,IDAHO,REXBURG,1683448
105835,634903,-111.7658,43.8302,IDAHO,REXBURG,1683440
1213977,5518525,-111.65,42.65,IDAHO,SODA SPGS,1683276
107770,645835,-113.969,44.9,IDAHO,ELLIS,1683467
124920,749345,-114.1343,42.4576,IDAHO,MURTAUGH,1683344
6619,38518,-116.25,46.48,IDAHO,OROFINO,1683544
1150219,5351637,-112.45,42.91667,IDAHO,CHUBBUCK,1683202
1191035,5456571,-113.55,42.25,IDAHO,ELBA,1683342
90677,544074,-111.27,42.22,IDAHO,DINGLE,1683254
90080,541262,-114.72,42.93,IDAHO,GOODING,1683330
44659,259000,-111.834,43.6498,IDAHO,LORENZO,1683442
111181,664051,-111.88,42.87,IDAHO,CHESTERFIELD,1683217
48902,286160,-114.6665,42.57,IDAHO,TWIN FALLS,1683328
9879,55127,-116.62,43.71,IDAHO,CALDWELL HUBLER ARPT,1683644
64374,385542,-115.93,46.37,IDAHO,WEIPPE,1683553
64374,385536,-116.0506,46.3255,IDAHO,WOODLAND,1683536
31265,183701,-111.98,43.4555,IDAHO,AMMON,1683406
64374,385532,-115.9059,46.3299,IDAHO,WEIPPE,1683553
64374,385531,-116.0465,45.8788,IDAHO,GRANGEVILLE,1683530
105840,634943,-111.07,42.35,IDAHO,GENEVA,1683238
6619,38521,-116.0191,46.48,IDAHO,OROFINO,1683544
89374,538273,-116.0405,46.4016,IDAHO,WEIPPE,1683544
1176298,5414421,-113.0,43.63333,IDAHO,ARCO,
1176201,5413393,-116.08333,45.95,IDAHO,GRANGEVILLE,1683530
1176200,5413391,-115.43333,45.56667,IDAHO,ELK CITY,1683671
1176200,5413390,-115.43333,45.85,IDAHO,ELK CITY,1683525
1176200,5413389,-116.36667,45.71667,IDAHO,WHITE BIRD,1683554
1176200,5413388,-116.3,45.76667,IDAHO,WHITE BIRD,1683554
1176200,5413387,-115.43333,45.83333,IDAHO,ELK CITY,1683525
65807,394401,-116.81,46.4,IDAHO,LAPWAI,1683540
17407,100653,-116.9226,48.4186,IDAHO,COOLIN,1683856
31265,183697,-112.43,43.8155,IDAHO,TERRETON,1683450
41609,242359,-115.98,46.15,IDAHO,KOOSKIA,1683536
1172759,5404256,-115.46667,45.55,IDAHO,DIXIE,1683671
94950,570753,-112.13,43.72,IDAHO,ROBERTS,1683444
1176300,5414423,-112.11667,43.36667,IDAHO,SHELLEY,1683274
1176299,5414422,-111.46667,44.0,IDAHO,CHESTER,1683420
76046,458789,-116.4047,48.8408,IDAHO,COPELAND,1683805
31263,183673,-113.4927,42.6206,IDAHO,IDAHOME,1683350
64374,385544,-115.97,46.15,IDAHO,KOOSKIA,1683536
1216644,5524255,-116.4167,48.86667,IDAHO,PORTHILL,1683805
64374,393553,-116.31,45.42,IDAHO,RIGGINS,1683549
31263,183670,-111.58,42.65,IDAHO,SODA SPGS,1683276
94585,569301,-116.9423,48.6332,IDAHO,SHILOH,1683848
89904,540687,-114.17,43.05,IDAHO,RICHFIELD,1683349
89904,540682,-114.17,43.05,IDAHO,RICHFIELD,1683349
61904,370204,-116.1187,48.1091,IDAHO,CLARK FORK,1683811
1218052,5525084,-114.4667,42.5,IDAHO,TWIN FALLS,1683301
31265,183696,-112.9259,43.7579,IDAHO,HOWE,1683244
1174074,5407877,-111.8,43.31667,IDAHO,BONE,1683236
22152,130472,-116.94,47.71,IDAHO,POST FALLS,1683854
1161222,5332919,-115.43333,45.83333,IDAHO,ELK CITY,1683525
30604,179258,-114.5,42.56,IDAHO,TWIN FALLS,1683301
48902,286160,-114.5395,42.6212,IDAHO,TWIN FALLS,1683328
1210928,5510118,-116.3333,46.45,IDAHO,AHSAHKA,1683544
31265,183691,-111.88,42.65,IDAHO,LUND,1683217
1150214,5351632,-113.66667,42.61667,IDAHO,RUPERT,1683350
1188655,5446136,-114.58333,42.21667,IDAHO,ROGERSON,1683302
89903,540679,-114.37,43.68,IDAHO,KETCHUM,1683340
89903,540676,-111.954,43.7522,IDAHO,LORENZO,1683434
41537,242123,-116.32,44.27,IDAHO,SWEET,1683657
1150215,5351633,-112.88333,42.75,IDAHO,AMERICAN FALLS,1683211
1150216,5351634,-112.83333,42.78333,IDAHO,AMERICAN FALLS,1683211
1150217,5351635,-112.65,42.88333,IDAHO,POCATELLO ARPT,1683204
1150217,5351635,-112.6,42.88333,IDAHO,POCATELLO ARPT,1683204
1150218,5351636,-112.6,42.91667,IDAHO,POCATELLO ARPT,1683204
107770,645836,-113.87,45.12,IDAHO,(27U)SALMON,1683467
105835,634907,-111.68,43.97,IDAHO,ST ANTHONY,1683445
22151,130471,-116.49,46.4,IDAHO,MELROSE,1683541
105840,634940,-111.3,42.32,IDAHO,MONTPELIER,1683254
1210928,5510120,-116.1667,46.78333,IDAHO,ELK RIVER,1683827
1187739,5443742,-112.45,43.05,IDAHO,FT HALL,1683202
65807,394400,-116.96,46.37,IDAHO,LEWISTON ORCHARDS,1683501
65807,394399,-116.94,46.37,IDAHO,LEWISTON ORCHARDS,1683501
65807,394398,-116.71,46.58,IDAHO,JULIAETTA,1683535
76926,471714,-116.3898,47.1091,IDAHO,SANTA,1683830
90677,544070,-111.8,42.63,IDAHO,CENTRAL,1683241
1122909,5267496,-112.11667,43.36667,IDAHO,SHELLEY,1683274
124608,749297,-116.8192,43.5318,IDAHO,MARSING,1683639
17410,100664,-116.6497,46.8819,IDAHO,DEARY,1683823
1122910,5267497,-112.1,43.43333,IDAHO,IDAHO FALLS,1683402
1122911,5267498,-111.16667,43.86667,IDAHO,TETONIA,1683452
62841,375892,-116.2797,46.5005,IDAHO,OROFINO,1683544
62841,375891,-116.1757,46.5312,IDAHO,OROFINO,1683544
62841,375887,-116.2054,46.5107,IDAHO,OROFINO,1683544
62841,375886,-116.25,46.48,IDAHO,OROFINO,1683544
62841,375885,-115.78,46.50899999999999,IDAHO,PIERCE,
124608,749298,-116.7445,43.7436,IDAHO,ENROSE,1683607
105835,634901,-111.8107,43.7665,IDAHO,REXBURG,1683440
1191029,5456503,-112.0667,43.33333,IDAHO,SHELLEY,1683274
1091418,5132167,-112.51666999999999,42.91667,IDAHO,CHUBBUCK,1683202
6619,38521,-115.8,46.57,IDAHO,CARDIFF,1683546
97888,588544,-112.85,42.95,IDAHO,ABERDEEN,1683210
1220419,5531412,-115.9667,44.11667,IDAHO,CROUCH,1683622
1091418,5132167,-112.45,42.91667,IDAHO,CHUBBUCK,1683202
119443,716809,-111.4,42.1655,IDAHO,BLOOMINGTON,1683272
119447,716814,-111.87,42.1,IDAHO,PRESTON,1683263
1091417,5133081,-112.83333,42.78333,IDAHO,AMERICAN FALLS,1683211
125907,754867,-111.98,43.47,IDAHO,AMMON,1683406
1091417,5133081,-112.63333,42.91667,IDAHO,AMERICAN FALLS,1683204
5340,31113,-116.67,45.02,IDAHO,BEAR,1683612
1091416,5133080,-112.06667,43.41667,IDAHO,COTTON,1683402
1091416,5133079,-112.11667,43.35,IDAHO,SHELLEY,1683274
6619,38522,-115.9351,46.48,IDAHO,OROFINO,
6619,42268,-116.2821,46.4266,IDAHO,OROFINO,1683544
1219846,5532571,-116.9,48.58333,IDAHO,COOLIN,1683856
1091416,5133079,-112.06667,43.4,IDAHO,SHELLEY,1683274
1091415,5133078,-112.33333,43.25,IDAHO,PINGREE,1683221
1091416,5133080,-111.98333000000001,43.46667,IDAHO,COTTON,1683406
1219846,5532570,-116.9167,48.53333,IDAHO,COOLIN,1683856
1091419,5132168,-112.45,42.91667,IDAHO,CHUBBUCK,1683202
97888,588545,-112.45,43.22,IDAHO,MORELAND,1683221
20495,122162,-116.1306,46.6814,IDAHO,DENT,
32144,189775,-116.1818,43.5531,IDAHO,BOISE,1683705
32144,189777,-116.3573,43.0099,IDAHO,OREANA,1683650
32144,193219,-114.65,42.99,IDAHO,GOODING,1683330
32144,193219,-114.73,42.98,IDAHO,GOODING,1683330
115692,695203,-112.6,42.92,IDAHO,(PIH)POCATELLO MUNI,1683204
1174067,5407870,-113.75,42.36667,IDAHO,ALBION,1683318
89100,536896,-115.741,43.2652,IDAHO,CLEFT,1683647
33153,193140,-116.03,44.5055,IDAHO,CASCADE,1683611
33152,193138,-116.55,43.5851,IDAHO,NAMPA,1683687
1219847,5532572,-116.45,48.56667,IDAHO,NAPLES,1683847
33153,193140,-116.0013,44.5405,IDAHO,CASCADE,1683611
1093730,5141380,-111.58333,42.65,IDAHO,SODA SPGS,1683276
1093731,5141381,-111.36667,44.43333,IDAHO,ISLAND PARK,1683429
1091419,5132168,-112.25,42.8,IDAHO,CHUBBUCK,1683245
1191013,5456424,-114.0,43.28333,IDAHO,CAREY,1683348
1159775,5334602,-116.81667,43.96667,IDAHO,NEW PLYMOUTH,1683655
1159775,5334598,-116.96667,44.25,IDAHO,WEISER,1683672
33152,193138,-116.56,43.58,IDAHO,NAMPA,1683651
1091415,5133078,-112.55,43.11667,IDAHO,PINGREE,1683262
54516,327448,-111.38,42.28,IDAHO,OVID,1683254
10361,57649,-113.57,42.42,IDAHO,ALBION,1683311
16825,96866,-116.1917,43.6405,IDAHO,BOISE,1683702
1123635,5269248,-116.96667,44.25,IDAHO,WEISER,1683672
97888,588541,-111.8102,43.53,IDAHO,IONA,1683401
97886,588534,-111.9061,42.1111,IDAHO,PRESTON,1683263
20101,126775,-114.59,42.32,IDAHO,AMSTERDAM,1683301
97881,588530,-113.4922,41.9977,IDAHO,ALMO,1683342
97881,588512,-112.45,42.9934,IDAHO,TYHEE,1683202
97881,588509,-111.17,43.82,IDAHO,TETONIA,1683452
97888,588542,-111.35,43.0355,IDAHO,GRAY,1683285
78944,473983,-114.4596,42.827,IDAHO,JEROME,1683338
1207347,5501098,-117.0167,46.41667,IDAHO,LEWISTON,1683501
97881,588504,-112.45,42.92,IDAHO,CHUBBUCK,1683202
97881,588500,-115.47,43.87,IDAHO,LESLIE,1683601
10358,57642,-112.2082,42.8307,IDAHO,INKOM,1683245
10357,57640,-112.87,42.57,IDAHO,ROCKLAND,1683271
10353,57636,-112.2082,42.8307,IDAHO,INKOM,1683245
1174052,5407786,-113.7,42.61667,IDAHO,RUPERT,1683350
1206459,5498157,-114.7,42.93333,IDAHO,GOODING,1683330
1174066,5407869,-113.86667,42.36667,IDAHO,BURLEY,1683318
1171234,5401675,-115.91667,43.4,IDAHO,BOISE,1683716
1171234,5401676,-115.75,43.16667,IDAHO,MOUNTAIN HOME,
78944,473982,-114.7,42.78,IDAHO,WENDELL,1683355
10361,57647,-113.765,42.5033,IDAHO,BURLEY,1683318
54516,327451,-111.27,42.25,IDAHO,WARDBORO,1683254
54516,327456,-111.3,42.32,IDAHO,MONTPELIER,1683254
54516,327459,-111.3,42.3345,IDAHO,MONTPELIER,1683254
20101,126786,-114.46,42.42,IDAHO,(TWF)TWIN FALLS ARPT,1683301
54525,327475,-112.464,43.2098,IDAHO,MORELAND,1683221
10361,57646,-112.4376,42.8834,IDAHO,POCATELLO,1683201
10359,57645,-112.2375,42.0866,IDAHO,CHERRY CREEK,1683252
54525,327475,-112.4711,43.2047,IDAHO,MORELAND,1683221
1161640,5374580,-116.03333,44.51667,IDAHO,CASCADE,1683611
1091414,5132599,-112.18333,43.28333,IDAHO,FIRTH,1683236
1091414,5132599,-112.03333,43.36667,IDAHO,FIRTH,1683274
97888,588543,-113.355,42.3267,IDAHO,MALTA,1683342
8589,49215,-116.6,43.6,IDAHO,NAMPA,1683651
8589,49220,-116.56,43.58,IDAHO,NAMPA,1683651
90060,541219,-114.88,42.8924,IDAHO,HAGERMAN,1683314
20101,126779,-114.13,42.59,IDAHO,HAZELTON,1683335
90060,541220,-114.7403,43.35,IDAHO,FAIRFIELD,1683327
78944,473982,-114.6103,42.8312,IDAHO,WENDELL,1683338
1091419,5132606,-112.56667,42.45,IDAHO,ARBON,1683212
1213970,5518518,-113.8,42.51667,IDAHO,BURLEY,1683318
1219848,5532574,-116.0667,48.08333,IDAHO,CABINET,1683811
1213975,5518523,-111.6333,43.95,IDAHO,CHESTER,1683445
1161296,5333693,-112.11667,43.36667,IDAHO,SHELLEY,1683274
1161297,5333694,-112.03333,43.48333,IDAHO,IDAHO FALLS,1683404
1174069,5407872,-112.48333000000001,42.83333,IDAHO,POCATELLO,1683204
30228,176888,-116.93,48.46,IDAHO,OUTLET BAY,1683856
96771,582226,-114.2578,42.3829,IDAHO,ROCK CREEK,1683344
33077,192662,-113.97,45.23,IDAHO,CARMEN,1683467
125907,754865,-112.5703,43.32,IDAHO,TABER,1683221
1191023,5456497,-112.3,43.21667,IDAHO,BLACKFOOT,1683221
96771,582226,-114.58,42.2779,IDAHO,ROGERSON,1683301
1191020,5456494,-112.55,44.16667,IDAHO,DUBOIS,1683423
1191019,5456493,-114.1667,43.05,IDAHO,RICHFIELD,1683349
33077,192664,-113.85,45.3,IDAHO,CARMEN,1683462
33077,192668,-113.93,45.37,IDAHO,NORTH FORK,1683466
33077,192672,-113.93,45.37,IDAHO,NORTH FORK,1683466
1096312,5147255,-116.21667,43.61667,IDAHO,BOISE,1683702
8247,47404,-115.82,47.47,IDAHO,MULLAN,1683846
8247,47405,-115.87,47.63,IDAHO,MURRAY,1683874
1185646,5440036,-116.21667,43.46667,IDAHO,(BOI)GOWEN FLD BOISE,1683634
94950,570757,-112.2794,43.28,IDAHO,FIRTH,1683221
33072,192636,-116.0,46.15,IDAHO,KOOSKIA,1683539
125907,754865,-112.5604,43.32,IDAHO,TABER,1683221
99180,595791,-112.35,43.18,IDAHO,BLACKFOOT,1683221
1191025,5456499,-112.45,43.21667,IDAHO,MORELAND,1683221
1191024,5456498,-112.45,43.21667,IDAHO,MORELAND,1683221
90080,541263,-114.3622,42.7752,IDAHO,JEROME CO  ARPT,1683338
124608,749297,-116.74,43.39,IDAHO,GIVENS HOT SPGS,1683639
57079,342029,-112.4134,43.0411,IDAHO,FT HALL,1683203
57079,342029,-112.45,43.03,IDAHO,FT HALL,1683202
57079,342030,-112.7571,42.8022,IDAHO,AMERICAN FALLS,1683211
57080,342032,-111.58,42.65,IDAHO,SODA SPGS,1683276
94701,569213,-116.98,48.02,IDAHO,BLANCHARD,1683804
1150410,5351280,-116.36667,43.25,IDAHO,SWAN FALLS,
1150409,5351279,-116.56667,43.58333,IDAHO,NAMPA,1683651
1150409,5351278,-116.56667,43.58333,IDAHO,NAMPA,1683651
130156,779444,-111.8,42.02,IDAHO,FRANKLIN,1683237
99179,595781,-112.3874,43.8607,IDAHO,TERRETON,1683425
1174070,5407873,-113.86667,42.08333,IDAHO,OAKLEY,
99179,595781,-112.2384,43.8531,IDAHO,HAMER,1683425
121390,726638,-111.8378,43.5577,IDAHO,IONA,1683401
99180,595790,-111.68,43.97,IDAHO,ST ANTHONY,1683445
90080,541263,-114.56,42.73,IDAHO,JEROME,1683338
94950,570757,-112.1996,43.37,IDAHO,SHELLEY,1683274
1191029,5456503,-112.0833,43.33333,IDAHO,SHELLEY,1683274
1141454,5314225,-111.88333,44.4,IDAHO,KILGORE,1683423
115692,695218,-112.3742,42.8291,IDAHO,POCATELLO,1683204
126843,760356,-111.37,44.458999999999996,IDAHO,ISLAND PARK,1683429
126843,760355,-111.6614,43.9755,IDAHO,ST ANTHONY,1683445
126843,760354,-111.9741,43.8326,IDAHO,ROBERTS,1683440
126843,760352,-111.8602,43.82,IDAHO,REXBURG,1683440
126843,760350,-112.13,43.72,IDAHO,ROBERTS,1683444
126843,760342,-112.53,43.6695,IDAHO,MONTEVIEW,
89870,540594,-113.5916,43.8995,IDAHO,MACKAY,1683251
126840,760290,-114.0573,42.3253,IDAHO,BURLEY,1683346
126843,760359,-113.67,42.62,IDAHO,RUPERT,1683350
126835,760277,-113.67,42.62,IDAHO,RUPERT,1683350
126835,760275,-113.78,42.53,IDAHO,BURLEY,1683318
115692,695208,-112.5231,42.9422,IDAHO,CHUBBUCK,1683202
1174068,5407871,-113.56667,42.41667,IDAHO,ALBION,1683311
1114161,5243155,-112.43333,42.71667,IDAHO,POCATELLO,
1191014,5456488,-113.95,43.3,IDAHO,CAREY,1683320
115692,695205,-112.5635,42.9311,IDAHO,(PIH)POCATELLO MUNI,1683204
10343,57541,-111.45,44.07,IDAHO,ASHTON,1683420
97888,588547,-112.35,43.18,IDAHO,BLACKFOOT,1683221
126835,760276,-113.75,42.57,IDAHO,HEYBURN,1683336
126843,760360,-111.98,43.47,IDAHO,AMMON,1683406
126843,760361,-112.13,43.72,IDAHO,ROBERTS,1683444
90080,541264,-114.2908,42.6622,IDAHO,HANSEN,1683338
1141451,5314222,-112.03333,43.48333,IDAHO,IDAHO FALLS,1683404
115692,695217,-112.4105,42.92,IDAHO,CHUBBUCK,1683201
115692,695215,-112.43,42.87,IDAHO,POCATELLO,1683201
115692,695214,-112.3881,42.9007,IDAHO,POCATELLO,1683201
115692,695213,-112.45,42.92,IDAHO,CHUBBUCK,1683202
115692,695210,-112.4376,42.8566,IDAHO,POCATELLO,1683201
89096,536889,-114.2194,42.4964,IDAHO,BICKEL,1683344
30681,179797,-116.14,42.01,IDAHO,RIDDLE,1689832
89903,540675,-112.13,43.72,IDAHO,ROBERTS,1683444
30681,179797,-116.14200000000001,42.00899999999999,IDAHO,RIDDLE,1689832
89870,540594,-113.59299999999999,43.9006,IDAHO,MACKAY,1683251
126843,760377,-112.7636,43.4709,IDAHO,ATOMIC CITY,1683221
126843,760377,-112.5942,43.5938,IDAHO,ATOMIC CITY,1683221
126843,760364,-112.03,43.48,IDAHO,IDAHO FALLS,1683404
89100,536896,-115.87,43.1658,IDAHO,(MUO)MOUNTAIN HOME A,
1213976,5518524,-111.7167,42.56667,IDAHO,GRACE,1683241
97888,588551,-112.1275,42.4434,IDAHO,DOWNEY,1683234
97888,588548,-112.6,42.92,IDAHO,(PIH)POCATELLO MUNI,1683204
90080,541264,-114.46,42.56,IDAHO,TWIN FALLS,1683301
89096,536889,-114.3544,42.4466,IDAHO,ROCK CREEK,1683341
115692,695207,-112.5452,42.9366,IDAHO,(PIH)POCATELLO MUNI,1683202
44460,258037,-116.28,45.8,IDAHO,WHITE BIRD,1683554
1188656,5446137,-114.46667,42.56667,IDAHO,TWIN FALLS,1683301
117938,708852,-112.45,42.92,IDAHO,CHUBBUCK,1683202
78486,473345,-113.84299999999999,45.2466,IDAHO,CARMEN,1683462
75487,455742,-114.0,42.59,IDAHO,MC HENRY,1683335
77806,469085,-111.3242,42.2334,IDAHO,WARDBORO,1683254
69105,414568,-114.2129,42.53,IDAHO,KIMBERLY,1683344
79832,478468,-116.2,43.9055,IDAHO,HORSESHOE BEND,1683629
1143836,5320874,-116.6,43.86667,IDAHO,EMMETT,1683617
69105,414568,-114.3,42.4432,IDAHO,HANSEN,1683334
79832,478474,-116.0731,44.4893,IDAHO,CASCADE,1683611
79832,478474,-115.9869,44.5507,IDAHO,CASCADE,1683611
64644,386696,-116.97,46.35,IDAHO,LEWISTON ORCHARDS,1683501
64644,386704,-117.02,46.3621,IDAHO,LEWISTON,1683501
64645,386706,-116.22,48.73,IDAHO,MOYIE SPGS,1683845
28096,164928,-117.0,46.73,IDAHO,MOSCOW,1683843
64645,386707,-116.22,48.73,IDAHO,MOYIE SPGS,1683845
1208223,5503625,-112.6,43.88333,IDAHO,MONTEVIEW,
52574,314181,-116.5,46.41,IDAHO,LOOKOUT,1683541
1214323,5516616,-114.8,43.35,IDAHO,FAIRFIELD,1683327
86462,521581,-112.9696,42.8823,IDAHO,AMERICAN FALLS,1683210
117938,708846,-112.85,43.0079,IDAHO,ABERDEEN,1683210
79832,478468,-116.1574,43.9507,IDAHO,HORSESHOE BEND,1683629
79832,478467,-116.4507,43.5688,IDAHO,MERIDIAN,1683642
79832,478467,-116.35,43.7,IDAHO,EAGLE,1683616
109289,654525,-116.3452,48.7401,IDAHO,BONNERS FERRY,1683805
78944,473983,-114.52,42.8,IDAHO,JEROME,1683338
78944,474020,-115.3,42.95,IDAHO,GLENNS FERRY,1683623
78944,474020,-115.2301,43.0012,IDAHO,GLENNS FERRY,1683633
1218052,5525084,-114.4167,42.53333,IDAHO,TWIN FALLS,1683341
96260,578687,-115.8093,46.6299,IDAHO,HEADQUARTERS,1683546
6825,39348,-114.5787,45.38,IDAHO,SHOUP,1683469
6825,39346,-114.5787,45.38,IDAHO,SHOUP,1683469
41637,242579,-115.98,46.14,IDAHO,KOOSKIA MUNI ARPT,1683539
118619,712552,-111.4,42.1655,IDAHO,BLOOMINGTON,1683272
41637,242577,-116.26,45.96,IDAHO,FENN,1683530
96563,580700,-114.1534,42.606,IDAHO,MURTAUGH,1683335
96563,580700,-114.4,42.49,IDAHO,KIMBERLY,1683341
96561,580695,-116.2299,43.6321,IDAHO,BOISE,1683703
96561,580695,-116.47,43.71,IDAHO,STAR,1683669
109289,654524,-116.3355,48.7102,IDAHO,BONNERS FERRY,1683805
117934,708803,-112.03,43.48,IDAHO,IDAHO FALLS,1683404
117938,708841,-113.95,43.3724,IDAHO,CAREY,1683320
79827,478433,-114.6,42.57,IDAHO,FILER,1683328
79827,478433,-114.5305,42.6212,IDAHO,FILER,1683301
1191959,5455402,-112.4667,43.83333,IDAHO,TERRETON,1683450
89906,540690,-112.18,44.35,IDAHO,SPENCER,1683446
86463,521583,-111.12,43.6,IDAHO,VICTOR,1683455
28096,164929,-116.95,46.89,IDAHO,KENNEDY FORD,1683872
1104852,5160197,-116.21667,43.53333,IDAHO,(BOI)GOWEN FLD BOISE,1683705
1101401,5169557,-116.51666999999999,46.46667,IDAHO,GIFFORD,1683541
64656,386811,-116.71,47.36,IDAHO,RAMSDELL,1683861
64656,386812,-116.78,47.38,IDAHO,CONKLING PARK,1683851
75695,456906,-112.4874,43.8993,IDAHO,MONTEVIEW,1683450
1220043,5532195,-112.8167,42.8,IDAHO,AMERICAN FALLS ARPT,1683211
69095,414464,-113.4794,42.4477,IDAHO,ALBION,1683311
64656,386813,-116.92,47.22,IDAHO,TENSED,1683851
64656,386814,-116.07,48.66,IDAHO,LEONIA,1683845
110509,660064,-114.77,42.92,IDAHO,(GNG)GOODING MUNI AR,1683330
110509,660064,-114.5764,42.9645,IDAHO,GOODING,1683352
1214319,5516531,-116.5167,45.15,IDAHO,BEAR,1683654
1174495,5410215,-114.56667,42.35,IDAHO,HOLLISTER,1683301
74718,451821,-114.4085,42.8019,IDAHO,JEROME,1683338
1174498,5410223,-116.08333,44.78333,IDAHO,MC CALL,1683638
79316,475717,-114.4,42.93,IDAHO,SHOSHONE,1683324
100100,599646,-112.12,43.37,IDAHO,SHELLEY,1683274
1174500,5410227,-115.61667,44.08333,IDAHO,LOWMAN,1683637
6572,38246,-116.8104,47.7496,IDAHO,HAYDEN,1683835
64652,394887,-116.50200000000001,44.6788,IDAHO,COUNCIL,1683612
64652,394887,-116.3579,44.7812,IDAHO,COUNCIL,1683612
64652,394883,-116.6269,44.6007,IDAHO,CAMBRIDGE,1683610
64652,394883,-116.6987,44.5495,IDAHO,CAMBRIDGE,1683645
28096,164930,-116.99,46.37,IDAHO,LWS NEZ PERCE CO ARP,1683501
1214320,5516532,-114.5667,42.35,IDAHO,HOLLISTER,1683301
1131442,5281251,-116.5,43.86667,IDAHO,EMMETT,1683617
96691,581840,-112.45,43.03,IDAHO,FT HALL,1683202
96714,581948,-116.5833,48.2265,IDAHO,SANDPOINT,1683860
96714,581949,-116.55,48.2076,IDAHO,SANDPOINT,1683860
107946,646748,-111.37,44.43,IDAHO,ISLAND PARK,1683429
1220041,5532193,-112.45,42.91667,IDAHO,CHUBBUCK,1683202
28096,164932,-116.8,46.4,IDAHO,LAPWAI,1683540
86463,521585,-111.17,43.82,IDAHO,TETONIA,1683452
1105516,5168510,-116.56667,43.58333,IDAHO,NAMPA,1683651
1135696,5299488,-116.61667,46.23333,IDAHO,WINCHESTER,1683555
88751,535187,-116.2244,46.1946,IDAHO,NEZPERCE,1683543
88751,535187,-116.1173,46.2834,IDAHO,KAMIAH,1683536
1104852,5160286,-116.26666999999999,43.76667,IDAHO,EAGLE,1683714
1104852,5160285,-116.28333,43.56667,IDAHO,(BOI)GOWEN FLD BOISE,1683709
1174495,5410214,-116.16667,43.65,IDAHO,BOISE,1683702
1104852,5160198,-116.21667,43.5,IDAHO,(BOI)GOWEN FLD BOISE,1683634
75695,456906,-112.5069,43.8899,IDAHO,MONTEVIEW,1683450
1217918,5525456,-115.6,45.83333,IDAHO,ELK CITY,1683525
1101401,5169554,-116.91667,48.43333,IDAHO,COOLIN,1683856
6573,38254,-116.62,46.23,IDAHO,WINCHESTER,1683555
1214328,5516622,-116.8167,43.01667,IDAHO,DE LAMAR,1697910
1179767,5420015,-111.33333,44.5,IDAHO,MACKS INN,1683429
88235,533391,-116.6982,47.978,IDAHO,ATHOL,1683801
88235,533396,-115.8975,47.6932,IDAHO,EAGLE,1683873
1102805,5157178,-113.0,43.78333,IDAHO,HOWE,1683244
1102801,5156953,-111.96667,43.58333,IDAHO,UCON,1683401
1102808,5157182,-113.85,42.66667,IDAHO,PAUL,1683347
8420,48157,-114.23,44.5,IDAHO,CHALLIS,1683226
88235,533396,-116.3178,47.3277,IDAHO,CALDER,1683861
1118746,5257827,-112.45,42.91667,IDAHO,CHUBBUCK,1683202
1102808,5157182,-113.9,42.7,IDAHO,PAUL,1683347
39267,228014,-115.88,43.9924,IDAHO,CENTERVILLE,
39267,228014,-115.9805,43.92,IDAHO,CENTERVILLE,1683631
94639,569297,-116.47,46.23,IDAHO,CRAIGMONT,1683523
1118747,5257828,-112.86667,42.56667,IDAHO,ROCKLAND,1683271
1118749,5257830,-112.16667,42.56667,IDAHO,ARIMO,1683214
1118750,5257831,-111.58333,42.65,IDAHO,SODA SPGS,1683276
106580,639729,-116.1619,46.3892,IDAHO,GREER,1683544
1100453,5155517,-116.45,43.45,IDAHO,KUNA,1683634
1216650,5524286,-116.25,48.66667,IDAHO,BONNERS FERRY,1683805
94639,569299,-116.47,46.1866,IDAHO,CRAIGMONT,1683523
88235,533391,-116.7716,47.38399999999999,IDAHO,CONKLING PARK,1683876
1102803,5156956,-113.18333,43.55,IDAHO,ARCO,1683213
88235,533389,-116.3469,47.3207,IDAHO,FERRELL,1683861
4141,23138,-116.5537,43.5516,IDAHO,NAMPA,1683686
88235,533075,-116.9019,46.8888,IDAHO,POTLATCH,1683855
1211198,5509118,-116.4667,46.51667,IDAHO,LENORE,1683541
55741,334231,-114.28,45.38,IDAHO,SHOUP,1683466
1211198,5509119,-116.55,46.56667,IDAHO,LENORE,1683537
1211199,5509171,-116.5833,47.31667,IDAHO,ST MARIES,1683861
88235,533389,-116.8259,47.0946,IDAHO,SANDERS,1683824
1191988,5455792,-112.4333,42.86667,IDAHO,POCATELLO,1683201
1141628,5313934,-113.93333,45.55,IDAHO,GIBBONSVILLE,1683463
1197701,5473420,-112.2333,44.25,IDAHO,DUBOIS,1683423
65712,393651,-116.63,46.98,IDAHO,YALE,1683834
1197702,5473421,-112.3167,44.23333,IDAHO,DUBOIS,1683423
1102801,5156954,-111.91667,43.66667,IDAHO,RIGBY,1683442
79786,478280,-111.37,44.43,IDAHO,ISLAND PARK,1683429
79786,478281,-111.33,44.528999999999996,IDAHO,MACKS INN,1683429
105695,634036,-111.78,43.82,IDAHO,REXBURG,1683440
8418,48143,-113.5458,43.8979,IDAHO,MACKAY,1683251
79786,478282,-112.1368,44.1423,IDAHO,DUBOIS,
79786,478283,-111.757,44.1037,IDAHO,ST ANTHONY,
105695,634034,-111.6517,43.5995,IDAHO,POPLAR,1683443
105695,634033,-111.45,44.07,IDAHO,ASHTON,1683420
1197704,5473423,-112.1333,43.71667,IDAHO,ROBERTS,1683444
1214328,5516623,-116.9167,43.61667,IDAHO,HOMEDALE MUNI ARPT,1683676
1143836,5320874,-116.58333,43.86667,IDAHO,EMMETT,1683617
41129,239181,-116.03,46.22,IDAHO,KAMIAH MUNI ARPT,1683536
64457,385850,-116.67,46.29,IDAHO,SLICKPOO,1683555
1154373,5362828,-116.95,47.71667,IDAHO,PRIEST RIVER,1683854
1102796,5156893,-113.3,43.63333,IDAHO,ARCO,1683213
1214328,5516625,-116.2167,43.61667,IDAHO,BOISE,1683702
86459,521562,-112.6153,43.9914,IDAHO,MONTEVIEW,1683435
1174235,5408106,-116.83333,48.45,IDAHO,COOLIN,1683856
77806,469085,-111.3061,42.2389,IDAHO,WARDBORO,1683254
86462,521581,-113.0487,42.8465,IDAHO,AMERICAN FALLS,1683211
1214328,5516626,-116.1167,43.98333,IDAHO,HORSESHOE BEND,1683629
5102,29698,-116.32,45.5935,IDAHO,RIGGINS,1683542
403,1618,-114.17,42.9,IDAHO,BESSLEN,
1214328,5516627,-116.1,44.06667,IDAHO,BANKS,1683602
65717,393685,-116.6707,46.351000000000006,IDAHO,CULDESAC,1683524
1137860,5304942,-115.46667,44.65,IDAHO,WARM LAKE,1683611
1216650,5524285,-116.8333,48.63333,IDAHO,COOLIN,1683821
1216648,5524279,-115.95,47.08333,IDAHO,CLARKIA,
1179757,5420004,-111.71667,42.56667,IDAHO,GRACE,1683241
1214328,5516624,-116.7,43.65,IDAHO,MIDDLETON,1683605
1179765,5420013,-111.8,43.31667,IDAHO,BONE,1683236
64457,385850,-116.6021,46.275,IDAHO,CRAIG JCT,1683524
64457,385864,-116.87,47.97,IDAHO,SPIRIT LAKE,1683869
31100,182379,-112.63,43.32,IDAHO,TABER,1683221
1102797,5156894,-112.53333,43.93333,IDAHO,MONTEVIEW,1683435
1118751,5257832,-113.48333000000001,42.53333,IDAHO,BURLEY,1683323
1118752,5257833,-113.86667,42.08333,IDAHO,OAKLEY,
106580,644626,-116.1489,46.388000000000005,IDAHO,GREER,1683544
1212527,5511972,-116.35,46.05,IDAHO,COTTONWOOD,1683522
1118753,5257834,-113.38333,42.53333,IDAHO,BURLEY,1683323
1118754,5257835,-112.86667,42.68333,IDAHO,ROCKLAND,1683211
1154373,5361913,-116.9,48.18333,IDAHO,SANDPOINT,1683856
1154373,5361914,-116.55,48.28333,IDAHO,POST FALLS,1683864
1102800,5156952,-112.23333000000001,44.11667,IDAHO,DUBOIS,1683423
64473,385904,-116.88,47.33,IDAHO,PLUMMER JCT,1683851
1154373,5362827,-116.55,48.21667,IDAHO,OLDTOWN,1683860
29530,173195,-112.7914,42.57,IDAHO,ROCKLAND,1683271
29530,173196,-111.834,43.6498,IDAHO,LORENZO,1683442
1174232,5408005,-116.83333,48.48333,IDAHO,COOLIN,1683821
1174235,5408106,-116.83333,48.51667,IDAHO,COOLIN,1683821
1216955,5523137,-111.4,43.0,IDAHO,WAYAN,1683285
1102797,5156949,-111.68333,43.86667,IDAHO,MOODY,1683448
1216957,5523139,-113.3667,43.73333,IDAHO,MOORE,1683255
1216958,5523140,-112.35,43.18333,IDAHO,BLACKFOOT,1683221
1216960,5523142,-113.3667,43.73333,IDAHO,MOORE,1683255
1102798,5156950,-112.0,42.61667,IDAHO,LAVA HOT SPGS,1683246
6573,38255,-116.5663,46.3084,IDAHO,CULDESAC,1683524
1174495,5410216,-116.0,44.45,IDAHO,CASCADE,1683611
76986,464517,-112.45,42.92,IDAHO,CHUBBUCK,1683202
1158952,5378329,-116.73333000000001,43.15,IDAHO,REYNOLDS,1683650
1158948,5378324,-115.78333,42.88333,IDAHO,BRUNEAU,1683604
1158945,5378321,-116.91667,44.01667,IDAHO,FRUITLAND,1683619
21642,127986,-113.9,44.8371,IDAHO,SALMON,1683467
21642,127987,-113.35,44.708999999999996,IDAHO,LEADORE,1683464
1214329,5516636,-116.7833,43.5,IDAHO,MARSING,1683607
1214329,5516636,-116.7833,43.43333,IDAHO,MARSING,1683639
1214328,5516631,-115.85,45.21667,IDAHO,YELLOW PINE,1683638
1139371,5307564,-112.33333,42.8,IDAHO,INKOM,1683204
1139370,5307563,-111.1,43.71667,IDAHO,DRIGGS,1683422
1139368,5307561,-112.43333,42.86667,IDAHO,POCATELLO,1683201
1214328,5516630,-116.2167,43.55,IDAHO,BOISE,1683705
21739,128501,-116.1012,46.5823,IDAHO,OROFINO,1683544
128092,768141,-113.491,43.8712,IDAHO,DARLINGTON,1683255
69095,414463,-113.5611,42.52,IDAHO,DECLO,1683323
69095,414463,-113.5415,42.52,IDAHO,DECLO,1683323
128092,768141,-113.4058,43.8302,IDAHO,DARLINGTON,1683255
1214328,5516629,-116.1333,44.7,IDAHO,DONNELLY,1683615
413,1638,-113.91,43.13,IDAHO,RICHFIELD,
1101476,5172677,-111.58333,42.65,IDAHO,SODA SPGS,1683276
1213979,5518527,-111.3333,43.45,IDAHO,SWAN VLY,1683449
1094634,5144074,-116.51666999999999,46.46667,IDAHO,GIFFORD,1683541
1099189,5163657,-115.46667,43.86667,IDAHO,LESLIE,1683601
407,1632,-112.85,43.41,IDAHO,ATOMIC CITY,1683221
408,1634,-112.85,43.45,IDAHO,HOWE,
1099193,5163662,-113.3,43.63333,IDAHO,ARCO,1683213
1216650,5524287,-116.3,48.66667,IDAHO,BONNERS FERRY,1683805
1099191,5163659,-112.2,43.71667,IDAHO,ROBERTS,1683444
107945,646747,-111.8436,42.6389,IDAHO,LUND,1683217
17668,102151,-114.62,42.57,IDAHO,FILER,1683328
109166,653780,-111.58,42.6934,IDAHO,SODA SPGS,1683276
1213982,5518530,-112.5333,44.01667,IDAHO,MONTEVIEW,1683435
1213981,5518529,-111.1,43.66667,IDAHO,DRIGGS,1683422
11178,61270,-111.46700000000001,42.8504,IDAHO,SODA SPGS,
1216650,5524287,-116.3333,48.66667,IDAHO,BONNERS FERRY,1683805
100105,599684,-111.8159,42.0834,IDAHO,PRESTON,1683263
74718,451821,-114.3945,42.8121,IDAHO,JEROME,1683338
1213980,5518528,-111.2167,43.35,IDAHO,PALISADES,1683428
1196755,5470336,-116.1167,45.93333,IDAHO,GRANGEVILLE,1683530
100105,599686,-112.03,43.48,IDAHO,IDAHO FALLS,1683404
52650,314605,-114.72,46.58,IDAHO,HDQTRS CPTPA ARPT,1659847
1099189,5163657,-113.61667,43.91667,IDAHO,LESLIE,1683251
408,1634,-112.85,43.46,IDAHO,HOWE,
1213978,5518526,-111.3333,43.45,IDAHO,SWAN VLY,1683449
413,1638,-113.93,43.12,IDAHO,RICHFIELD,
31274,183726,-111.43,43.13,IDAHO,HERMAN,1683285
1176318,5414441,-112.4,42.86667,IDAHO,POCATELLO,1683201
1176307,5414430,-111.11667,43.6,IDAHO,VICTOR,1683455
1176303,5414426,-111.11667,43.6,IDAHO,VICTOR,1683455
1176302,5414425,-111.58333,42.65,IDAHO,SODA SPGS,1683276
32778,191464,-112.43,42.87,IDAHO,POCATELLO,1683201
105579,633426,-114.4308,42.7676,IDAHO,JEROME CO  ARPT,1683338
22649,133002,-114.27,43.4555,IDAHO,BELLEVUE,1683313
28929,170012,-116.964,44.0678,IDAHO,PAYETTE,1683661
1155173,5365320,-112.53333,43.93333,IDAHO,MONTEVIEW,1683435
74721,451830,-115.8418,43.2334,IDAHO,MOUNTAIN HOME,1683647
43425,252778,-116.02,46.23,IDAHO,TRAMWAY,1683536
43425,252780,-116.3,45.76,IDAHO,WHITE BIRD,1683554
43425,252782,-116.03,46.24,IDAHO,TRAMWAY,1683536
43425,252784,-116.25,46.14,IDAHO,GREEN CREEK,1683522
1176301,5414424,-112.1,43.36667,IDAHO,SHELLEY,1683274
105579,633426,-114.4214,42.7476,IDAHO,JEROME CO  ARPT,1683338
44780,263173,-116.3605,46.1896,IDAHO,HARRIS SIDING,1683523
61904,370204,-116.5622,48.1021,IDAHO,WESTMOND,1683813
44780,263173,-116.3653,46.185,IDAHO,HARRIS SIDING,1683526
1176319,5414442,-111.21667,43.35,IDAHO,PALISADES,1683428
89374,538410,-116.0463,46.4032,IDAHO,WEIPPE,1683544
1176322,5414505,-111.78333,43.76667,IDAHO,REXBURG,1683440
1176324,5414507,-113.86667,42.08333,IDAHO,OAKLEY,
21739,128500,-116.25,46.48,IDAHO,OROFINO,1683544
31265,183707,-112.4073,42.8299,IDAHO,POCATELLO,1683204
413,1641,-114.07,43.23,IDAHO,PICABO,1683348
21739,128500,-116.3243,46.5312,IDAHO,OROFINO,1683520
44917,260317,-116.42,46.13,IDAHO,FERDINAND,1683526
128091,768137,-111.6854,43.9067,IDAHO,TETON,1683445
413,1641,-114.07,43.24,IDAHO,PICABO,1683348
1136485,5297249,-112.15,43.7,IDAHO,ROBERTS,1683444
1176325,5414508,-113.86667,42.08333,IDAHO,OAKLEY,
125907,754867,-112.03,43.48,IDAHO,IDAHO FALLS,1683404
1206873,5496329,-116.7833,43.61667,IDAHO,HUSTON,1683607
1221253,5534613,-111.9833,43.46667,IDAHO,AMMON,1683406
63987,383205,-116.68,47.4,IDAHO,CONKLING PARK,1683833
74721,451830,-115.8833,43.1854,IDAHO,MOUNTAIN HOME,
1155175,5365322,-112.0,42.31667,IDAHO,SWANLAKE,1683281
63987,383196,-116.7373,47.3165,IDAHO,CHATCOLET,1683861
22649,133002,-114.27,43.4845,IDAHO,BELLEVUE,1683333
63987,383196,-116.6404,47.3609,IDAHO,ST MARIES,1683861
1136485,5297249,-112.1,43.73333,IDAHO,ROBERTS,1683434
1221252,5534612,-112.0333,43.48333,IDAHO,IDAHO FALLS,1683404
1094634,5144073,-117.01666999999999,46.41667,IDAHO,LEWISTON,1683501
31081,182304,-112.45,42.9924,IDAHO,CHUBBUCK,1683202
1139372,5307565,-112.25,42.35,IDAHO,MALAD CITY,1683252
407,1632,-112.85,43.45,IDAHO,ATOMIC CITY,
21627,127865,-113.6075,42.7888,IDAHO,MINIDOKA,1683350
65807,394408,-116.65,46.61,IDAHO,JULIAETTA,1683537
31081,182308,-112.63,43.1753,IDAHO,TABER,1683262
1118655,5257192,-115.6,46.15,IDAHO,LOWELL,1683539
44466,258057,-114.59,46.5,IDAHO,LOWELL,1683539
21627,127869,-111.14,43.6,IDAHO,VICTOR,1683455
44460,258038,-116.12,45.93,IDAHO,GRANGEVILLE,1683530
31081,182307,-112.45,43.22,IDAHO,MORELAND,1683221
1196757,5470401,-113.9,45.16667,IDAHO,SALMON,1683467
65807,394407,-116.68,46.52,IDAHO,MYRTLE,1683535
1196757,5470400,-113.9,45.16667,IDAHO,SALMON,1683467
1205858,5493285,-112.35,43.18333,IDAHO,BLACKFOOT,1683221
11178,61270,-111.58,42.7801,IDAHO,SODA SPGS,1683276
1196755,5470397,-115.7167,46.15,IDAHO,KOOSKIA,1683539
16862,97125,-114.23,44.528999999999996,IDAHO,CHALLIS,1683226
21627,127882,-111.12,43.6,IDAHO,VICTOR,1683455
21627,127883,-111.1,43.72,IDAHO,DRIGGS,1683422
28555,167954,-113.8112,42.507,IDAHO,BURLEY,1683318
103457,618315,-116.48,43.7,IDAHO,STAR,1683669
1214319,5516531,-116.7167,45.03333,IDAHO,BEAR,1683612
103457,618315,-116.3727,43.7141,IDAHO,EAGLE,1683616
1118656,5257193,-116.31667,45.41667,IDAHO,RIGGINS,1683549
18129,105902,-112.7495,43.4812,IDAHO,ATOMIC CITY,1683221
76986,464520,-112.43,42.87,IDAHO,POCATELLO,1683201
109166,653780,-111.5499,42.7035,IDAHO,SODA SPGS,1683276
78486,472136,-113.895,45.231,IDAHO,CARMEN,1683467
78486,472135,-113.89,45.18,IDAHO,SALMON,1683467
100105,599682,-112.0,42.32,IDAHO,SWANLAKE,1683281
76986,464521,-112.45,42.92,IDAHO,CHUBBUCK,1683202
76986,464522,-111.22,43.35,IDAHO,PALISADES,1683449
41637,242575,-116.35,46.05,IDAHO,COTTONWOOD,1683522
65807,394412,-116.19,47.27,IDAHO,CALDER,1683808
108055,647415,-116.50399999999999,43.8736,IDAHO,EMMETT,1683617
65807,394411,-116.66,46.65,IDAHO,BOVARD,1683537
44494,258209,-115.8911,44.9554,IDAHO,MC CALL,
1214328,5516628,-116.0333,44.51667,IDAHO,CASCADE,1683611
1101474,5172675,-111.16667,43.81667,IDAHO,TETONIA,1683452
44494,258209,-115.9165,44.9,IDAHO,MC CALL,
1101475,5172676,-112.56667,42.45,IDAHO,ARBON,1683212
18129,105903,-112.5977,42.4295,IDAHO,ARBON,1683212
65807,394410,-116.56,46.49,IDAHO,SUMMIT,1683541
1118657,5257194,-114.41667,45.48333,IDAHO,SHOUP,1683469
18129,105899,-112.87,42.3529,IDAHO,ROCKLAND,1683271
78975,474178,-115.69,43.12,IDAHO,MOUNTAIN HOME,1683647
21627,127879,-112.9575,42.7412,IDAHO,AMERICAN FALLS,1683211
21627,127889,-111.3092,44.43,IDAHO,ISLAND PARK,1683429
1139374,5307567,-112.98333000000001,42.13333,IDAHO,JUNIPER,1683342
65807,394404,-116.79,46.42,IDAHO,LAPWAI,1683540
21627,127887,-111.8,43.32,IDAHO,BONE,1683236
1216648,5524276,-116.5833,47.31667,IDAHO,ST MARIES,1683861
658,2926,-115.5,42.95,IDAHO,GLENNS FERRY,1683627
1216648,5524275,-116.8833,46.91667,IDAHO,POTLATCH,1683855
1196755,5470396,-115.8833,46.01667,IDAHO,CLEARWATER,1683552
28555,167954,-113.8217,42.4993,IDAHO,BURLEY,1683318
1139373,5307566,-112.43333,42.86667,IDAHO,POCATELLO,1683201
21744,128543,-113.9616,45.17,IDAHO,SALMON,1683467
1212899,5515863,-116.95,47.71667,IDAHO,POST FALLS,1683854
1212899,5515862,-116.8667,47.4,IDAHO,WORLEY,1683876
1212899,5515861,-117.0167,47.23333,IDAHO,TENSED,1683851
21744,128541,-113.9,45.1266,IDAHO,SALMON,1683467
1196755,5470336,-116.2667,45.96667,IDAHO,GRANGEVILLE,1683530
1099193,5163662,-113.0,43.78333,IDAHO,ARCO,1683244
11176,61269,-111.38,42.12,IDAHO,ST CHARLES,1683272
31081,182306,-112.35,43.18,IDAHO,BLACKFOOT,1683221
69095,414464,-113.4975,42.4422,IDAHO,ALBION,1683311
1139375,5307568,-112.33333,42.8,IDAHO,INKOM,1683204
65807,394405,-116.58,46.48,IDAHO,SUMMIT,1683524
88235,533075,-116.9975,46.7456,IDAHO,MOSCOW,1683843
1216648,5524277,-116.3833,47.11667,IDAHO,SANTA,1683830
78975,474178,-115.6772,43.1701,IDAHO,MOUNTAIN HOME,1683647
404,1622,-114.27,43.02,IDAHO,SHOSHONE,1683352
1216648,5524278,-116.3833,48.56667,IDAHO,NAPLES,1683847
31432,184682,-114.46,42.58,IDAHO,TWIN FALLS,1683301
87932,530669,-113.3644,44.6902,IDAHO,LEADORE,1683464
405,1626,-114.4,42.93,IDAHO,SHOSHONE,1683324
658,2926,-115.54,42.95,IDAHO,GLENNS FERRY,1683627
31432,184687,-114.48,42.49,IDAHO,(TWF)TWIN FALLS ARPT,1683301
