EPISODE_ID,EVENT_ID,LONGITUDE,LATITUDE,STATE,LOCATION,ZIPCODE
22071,131991,-76.81,39.46,MARYLAND,GLYNDON,2421136
1115566,5248048,-76.88333,38.66667,MARYLAND,BRANDYWINE,2420613
57162,342451,-77.0354,39.0343,MARYLAND,HOMEWOOD,2420902
28543,170715,-78.53,39.56,MARYLAND,TOWN CREEK,2421555
65789,394107,-76.34,39.43,MARYLAND,CLAYTON,2421085
65789,394108,-78.5719,39.6116,MARYLAND,RIDGELEY,2421555
65789,394109,-77.7196,39.4094,MARYLAND,ANTIETAM,2421782
65789,394557,-76.5519,39.3408,MARYLAND,KENWOOD,2421206
65789,395289,-77.2741,39.3319,MARYLAND,FOUNTAIN MILLS,2421754
65789,395346,-77.2465,39.3437,MARYLAND,FOUNTAIN MILLS,2421770
104468,625813,-75.92,38.87,MARYLAND,HILLSBORO,2421629
1215523,5520330,-77.1,39.55,MARYLAND,MT AIRY,2421776
65430,391775,-76.846,38.944,MARYLAND,BUENA VISTA,2420774
65789,394106,-76.5496,39.5076,MARYLAND,SUNNYBROOK,2421131
1209479,5507169,-76.51666999999999,39.16667,MARYLAND,PASADENA,2421122
28544,170727,-76.55,39.07,MARYLAND,SEVERNA PARK,2421146
1115568,5248119,-77.11667,39.11667,MARYLAND,OLNEY,2420855
19784,118072,-76.51,39.27,MARYLAND,DUNDALK,2421222
58002,347760,-79.39,39.38,MARYLAND,LOCH LYNN HGTS,2421550
19784,118073,-77.56,39.7,MARYLAND,RINGGOLD,2421783
57162,342450,-77.06,39.04,MARYLAND,KEN GAR,2420895
65430,391775,-76.834,38.953,MARYLAND,BUENA VISTA,2420706
10329,57475,-76.08,38.56,MARYLAND,CAMBRIDGE,2421613
1209479,5507170,-76.85,39.23333,MARYLAND,COLUMBIA,2421044
22071,131981,-77.22,39.14,MARYLAND,CLOPPER,2420878
22071,131982,-77.18,39.16,MARYLAND,MONTGOMERY VLG,2420879
65789,394103,-77.0465,39.6904,MARYLAND,SILVER RUN,2421158
22071,131984,-77.12,39.22,MARYLAND,LAYTONSVILLE,2420882
65430,391779,-76.388,39.504,MARYLAND,BENSON,2421047
22071,131985,-76.96,39.37,MARYLAND,SYKESVILLE,2421784
22071,131986,-76.89,39.49,MARYLAND,CEDARHURST,2421048
65789,394104,-76.9859,39.6929,MARYLAND,DEEP RUN,2421158
19788,118367,-76.44,38.24,MARYLAND,PARK HALL ARPT,2420653
1162283,5374130,-79.23333000000001,39.45,MARYLAND,SWANTON,2421561
19791,118413,-77.6394,39.3694,MARYLAND,PETERSVILLE,2421755
19889,118261,-75.7,38.2,MARYLAND,PRINCESS ANNE,2421853
22067,131967,-77.7,39.63,MARYLAND,FUNKSTOWN,2421740
1115568,5248118,-77.18333,39.16667,MARYLAND,MONTGOMERY VLG,2420879
22067,131969,-77.55,39.57,MARYLAND,WOLFSVILLE,2421773
16077,112866,-75.8922,38.7111,MARYLAND,PRESTON,2421655
65430,391802,-76.744,39.098,MARYLAND,TIPTON AAF ARPT,2420755
28541,167987,-78.78,39.61,MARYLAND,CUMBERLAND ARPT,
1118110,5254752,-76.83333,39.63333,MARYLAND,MANCHESTER,2421074
22067,131970,-76.6,39.0,MARYLAND,LUSBY XRDS,2421401
22071,132002,-76.18,39.59,MARYLAND,LEVEL,2421078
28053,178234,-75.8595,38.9107,MARYLAND,DENTON,2421660
65430,391806,-78.376,39.688,MARYLAND,PINEY GROVE,2421766
1118113,5254298,-76.85,39.1,MARYLAND,LAUREL,2420707
22067,131971,-76.57,39.14,MARYLAND,GREEN HAVEN,2421060
57162,367369,-76.195,39.58,MARYLAND,ALDINO ARPT,2421078
22067,131974,-76.567,39.14,MARYLAND,GREEN HAVEN,2421122
1118114,5254303,-77.41667,39.41667,MARYLAND,FREDERICK,2421701
22071,131996,-76.68,38.81,MARYLAND,DRURY,2420711
65430,393890,-76.8422,39.1764,MARYLAND,GUILFORD,2421045
53312,340669,-76.07,39.3,MARYLAND,LYNCH,2421678
22067,131977,-76.37,38.15,MARYLAND,DAMERON,2420628
1180149,5422178,-75.95,39.51667,MARYLAND,ELK NECK,2421901
1180148,5422177,-75.95,39.51667,MARYLAND,ELK NECK,2421901
22071,131997,-76.6,38.81,MARYLAND,SUDLEY,2420711
58425,350464,-76.223,39.6069,MARYLAND,GLENVILLE,2421078
1115567,5248117,-76.91667,38.63333,MARYLAND,WALDORF,2420601
1115567,5248115,-76.98333000000001,38.36667,MARYLAND,NEWBURG,2420664
1115566,5248048,-76.9,38.66667,MARYLAND,BRANDYWINE,2420613
1115567,5248115,-76.95,38.38333,MARYLAND,NEWBURG,2420664
22071,132001,-76.26,39.5,MARYLAND,CALVARY,2421015
19788,118368,-76.54,39.39,MARYLAND,OAKLEIGH,2421234
57162,342464,-77.695,39.5736,MARYLAND,ROXBURY,2421740
57162,342463,-77.7083,39.5017,MARYLAND,KEEDYSVILLE,2421713
1215523,5520234,-77.53333,39.56667,MARYLAND,ADAMSTOWN,2421773
38165,221828,-79.18,39.39,MARYLAND,KITZMILLER,2421538
38165,221827,-79.41,39.41,MARYLAND,OAKLAND,2421550
22062,131256,-76.88,39.01,MARYLAND,GREENBELT,2420770
1215523,5520233,-77.75,39.68333,MARYLAND,BRADDOCK HGTS,2421740
1215523,5520228,-76.91667,38.93333,MARYLAND,PALMER PARK,2420785
38165,221826,-79.41,39.41,MARYLAND,OAKLAND,2421550
29568,173374,-75.46,38.12,MARYLAND,GIRDLETREE,2421851
1180148,5422177,-75.95,39.5,MARYLAND,ELK NECK,2421901
38165,221825,-79.42,39.42,MARYLAND,OAKLAND,2421550
19464,115169,-75.7,38.2,MARYLAND,PRINCESS ANNE,2421853
22062,131257,-76.8,38.99,MARYLAND,SPRINGFIELD,2420769
1162282,5374129,-79.41667,39.41667,MARYLAND,OAKLAND,2421550
1215498,5519699,-76.46667,39.41667,MARYLAND,PERRY HALL,2421236
57162,342452,-76.9524,39.0778,MARYLAND,FAIRLAND,2420904
16077,112866,-75.9336,38.7083,MARYLAND,BETHLEHEM,2421655
19791,118413,-77.6351,39.3894,MARYLAND,BURKITTSVILLE,2421755
57162,342453,-76.8586,39.0977,MARYLAND,LAUREL,2420707
57162,342454,-76.5627,39.148,MARYLAND,GREEN HAVEN,2421060
22071,136700,-76.55,38.78,MARYLAND,DEALE,2420751
57162,342456,-77.9365,39.6577,MARYLAND,CLEAR SPG,2421722
22071,131992,-76.66,39.69,MARYLAND,FREELAND,2421120
22067,131959,-76.4,39.45,MARYLAND,FRANKLINVILLE,2421087
22071,131994,-76.71,39.66,MARYLAND,RAYVILLE,2421053
22071,136699,-76.54,38.8,MARYLAND,CHURCHTON,2420733
22067,131963,-76.35,39.42,MARYLAND,CLAYTON,2421085
22067,131966,-77.72,39.61,MARYLAND,FUNKSTOWN,2421740
65430,391802,-76.678,39.179,MARYLAND,(BWI)BALTMOR-WSHNGTN,2421240
65430,391779,-76.393,39.486999999999995,MARYLAND,BAGLEY,2421047
65430,391806,-78.361,39.699,MARYLAND,PINEY GROVE,2421766
86285,520813,-76.506,38.351,MARYLAND,SOTTERLEY,2420636
1115568,5248121,-76.85,39.16667,MARYLAND,COLUMBIA,2421046
50301,302214,-78.535,39.562,MARYLAND,TOWN CREEK,2421555
50301,302214,-78.54,39.555,MARYLAND,TOWN CREEK,2421555
1173581,5406398,-77.26666999999999,39.5,MARYLAND,WOODSBORO,2421701
1095274,5144220,-77.18333,39.66667,MARYLAND,TANEYTOWN,2421787
107544,645680,-77.69,39.49,MARYLAND,KEEDYSVILLE,2421756
1095274,5144219,-77.13333,39.68333,MARYLAND,WESTMINSTER,2421787
65430,391763,-77.233,39.282,MARYLAND,PURDUM,2420872
65430,391763,-77.232,39.274,MARYLAND,PURDUM,2420872
65430,391764,-77.446,39.099000000000004,MARYLAND,POOLESVILLE,2420837
107544,645681,-77.64,39.45,MARYLAND,LOCUST GROVE,2421779
57162,342406,-76.73,39.13,MARYLAND,PIONEER CITY,2421144
1181014,5424239,-76.26666999999999,38.41667,MARYLAND,HONGA,2421669
57162,342410,-77.1294,39.4012,MARYLAND,MT AIRY,2421771
50301,302219,-78.477,39.602,MARYLAND,GREEN RANGE STATION,2421555
65964,396170,-76.95,38.935,MARYLAND,COLMAR MANOR,2420722
65964,396114,-76.3212,39.6672,MARYLAND,MILL GREEN,2421154
65964,396046,-76.5242,38.5524,MARYLAND,DARES BEACH,2420678
57162,342411,-76.7807,39.5327,MARYLAND,PLEASANT GROVE,2421136
57162,342412,-76.3044,39.5042,MARYLAND,EMMORTON,2421015
57162,342413,-76.2545,39.5229,MARYLAND,CALVARY,2421001
57162,342415,-77.0748,39.0516,MARYLAND,KEN GAR,2420902
107544,645682,-77.58,39.4,MARYLAND,BROAD RUN,2421769
107544,645684,-77.47,39.37,MARYLAND,FEAGAVILLE,2421703
57184,342586,-76.5157,38.6117,MARYLAND,BREEZY PT,2420639
1095274,5144218,-77.26666999999999,39.6,MARYLAND,TANEYTOWN,2421757
57184,342585,-76.4658,39.1389,MARYLAND,BAYSIDE BEACH,2421122
57184,342584,-76.462,39.2565,MARYLAND,EDGEMERE,2421219
107544,645685,-77.45,39.37,MARYLAND,FEAGAVILLE,2421703
65964,396116,-76.285,39.6483,MARYLAND,DUBLIN,2421154
107544,645679,-77.62,39.32,MARYLAND,BRUNSWICK,2421716
28846,170173,-75.88,39.2866,MARYLAND,GALENA,2421651
107544,645678,-77.66,39.33,MARYLAND,KNOXVILLE,2421758
1136243,5297688,-77.3,39.1,MARYLAND,DARNESTOWN,2420874
75508,455898,-77.358,39.47,MARYLAND,WALKERSVILLE,2421793
1115565,5248038,-76.85,38.28333,MARYLAND,COBB IS,2420664
75508,455848,-77.242,39.034,MARYLAND,POTOMAC,2420854
1173581,5406453,-76.25,39.56667,MARYLAND,CHURCHVILLE,2421028
107544,645674,-76.88,38.64,MARYLAND,MATTAWOMAN,2420601
57194,342669,-76.411,38.283,MARYLAND,PATUXENT RIVER,2420670
75508,455836,-76.6721,39.2668,MARYLAND,ARBUTUS,2421227
1173581,5406398,-77.31667,39.55,MARYLAND,WOODSBORO,2421798
19795,118462,-76.98,39.05,MARYLAND,HILLANDALE,2420904
50301,302265,-76.83,39.609,MARYLAND,TRENTON,2421074
50301,302256,-76.988,39.568000000000005,MARYLAND,CRANBERRY STATION,2421157
57194,342669,-76.41199999999999,38.283,MARYLAND,PATUXENT RIVER,2420670
40105,233289,-78.9502,39.6341,MARYLAND,MIDLOTHIAN,2421532
19795,124941,-76.8093,39.1003,MARYLAND,MARYLAND CITY,2420724
40105,233290,-78.929,39.65,MARYLAND,FROSTBURG,2421532
50301,302256,-76.984,39.577,MARYLAND,CRANBERRY STATION,2421157
57162,342404,-76.6024,39.1664,MARYLAND,MARLEY,2421060
57162,342405,-76.72,39.14,MARYLAND,PIONEER CITY,2421144
86159,520207,-78.6505,39.5452,MARYLAND,OLDTOWN,2421555
86159,520206,-78.6286,39.5504,MARYLAND,OLDTOWN,2421555
86159,520205,-78.6509,39.5443,MARYLAND,OLDTOWN,2421555
50301,302255,-77.42,39.152,MARYLAND,POOLESVILLE,2420837
107544,645675,-76.89,38.66,MARYLAND,MATTAWOMAN,2420613
107544,645676,-77.31,39.28,MARYLAND,HYATTSTOWN,2420871
86159,520204,-78.6451,39.5473,MARYLAND,OLDTOWN,2421555
86159,520203,-77.6232,39.3164,MARYLAND,BRUNSWICK,2421716
50301,302255,-77.408,39.158,MARYLAND,POOLESVILLE,2420837
50301,302219,-78.479,39.601,MARYLAND,GREEN RANGE STATION,2421555
1115565,5248038,-76.85,38.26667,MARYLAND,COBB IS,2420664
65430,391764,-77.447,39.107,MARYLAND,POOLESVILLE,2420837
16064,93429,-76.9847,38.9634,MARYLAND,UNIVERSITY PARK,2420782
16064,93429,-76.9868,38.9677,MARYLAND,UNIVERSITY PARK,2420783
28544,170732,-77.01,38.51,MARYLAND,PORT TOBACCO,2420646
65430,391766,-77.107,39.374,MARYLAND,WATERSVILLE JCT,2421771
107544,645695,-76.8913,39.2656,MARYLAND,PINE ORCHARD,2421042
65430,391767,-76.908,39.527,MARYLAND,SANDYVILLE,2421048
19795,118450,-76.7756,39.1108,MARYLAND,FT MEADE JCT,2420755
1100075,5163226,-76.06667,38.76667,MARYLAND,EASTON,2421601
28544,170731,-76.94,38.52,MARYLAND,NEWTOWN,2420646
28544,170730,-77.02,38.51,MARYLAND,PORT TOBACCO,2420677
104468,625898,-76.35,38.89,MARYLAND,MATTAPEX,2421666
65430,391767,-76.952,39.503,MARYLAND,EASTVIEW,2421157
1115563,5248024,-77.06667,38.63333,MARYLAND,BRYANS ROAD,2420616
16064,93425,-76.8687,38.5921,MARYLAND,BEANTOWN,2420602
68241,409451,-76.6748,38.5138,MARYLAND,BUENA VISTA,2420612
67080,402437,-78.7639,39.7226,MARYLAND,KINGS GROVE,2421529
67083,402444,-77.2281,38.5068,MARYLAND,DONCASTER,2420640
68241,409451,-76.6628,38.5103,MARYLAND,BUENA VISTA,2420678
57162,342422,-76.949,39.0707,MARYLAND,FAIRLAND,2420904
57162,342423,-76.92,39.05,MARYLAND,AMMENDALE,2420705
28544,170729,-77.07,38.52,MARYLAND,MC CONCHIE,2420677
65430,391768,-77.194,39.245,MARYLAND,CEDAR GROVE,2420882
104468,625896,-76.07,39.04,MARYLAND,CENTREVILLE,2421617
104468,625895,-75.86,39.19,MARYLAND,SUDLERSVILLE,2421668
65430,391768,-77.19,39.251,MARYLAND,DAMASCUS,2420882
16064,93424,-76.54,39.7,MARYLAND,NORRISVILLE,2421161
65430,391769,-76.878,39.15,MARYLAND,SCAGGSVILLE,2420723
65430,391769,-76.87,39.172,MARYLAND,SIMPSONVILLE,2421046
65430,391771,-76.756,39.049,MARYLAND,(FME)TIPTON AAF FT M,
65430,391771,-76.755,39.047,MARYLAND,(FME)TIPTON AAF FT M,2421113
28544,170728,-76.48,39.05,MARYLAND,ST MARGARETS,2421012
19795,118450,-76.7402,39.1028,MARYLAND,PIONEER CITY,2420755
1115568,5248119,-77.06667,39.15,MARYLAND,OLNEY,2420832
19795,118453,-76.7974,39.1074,MARYLAND,FT MEADE JCT,2420724
19795,118454,-76.7,39.12,MARYLAND,SEVERN,2421144
16064,93426,-76.35,39.53,MARYLAND,BEL AIR,2421014
57162,342403,-76.809,39.0998,MARYLAND,MARYLAND CITY,2420724
57162,342402,-76.7288,39.1183,MARYLAND,PIONEER CITY,2420755
37350,217478,-75.88,39.33,MARYLAND,GALENA,2421635
16064,93425,-76.884,38.6136,MARYLAND,BEANTOWN,2420602
19795,118461,-77.1,39.13,MARYLAND,NORBECK,2420853
1158583,5378952,-75.85,37.98333,MARYLAND,CRISFIELD,2421817
57147,342339,-76.9425,38.9878,MARYLAND,COLLEGE PARK,2420742
58120,348553,-75.0611,38.3957,MARYLAND,OCEAN PINES,2421842
58120,348553,-75.0761,38.3958,MARYLAND,OCEAN PINES,2421842
19795,118460,-76.35,39.53,MARYLAND,BEL AIR,2421014
1100067,5162861,-76.23333000000001,39.13333,MARYLAND,ROCK HALL,2421661
65430,391765,-77.139,39.358000000000004,MARYLAND,MT AIRY,2421771
65430,391765,-77.137,39.364000000000004,MARYLAND,MT AIRY,2421771
19795,118459,-76.8339,39.1327,MARYLAND,SAVAGE,2420723
57162,342416,-76.1292,39.5689,MARYLAND,HAVRE DE GRACE,2421078
57162,342417,-76.9539,39.0596,MARYLAND,FAIRLAND,2420904
57162,342418,-77.0605,39.0718,MARYLAND,GLENMONT,2420906
57162,342420,-76.139,39.6017,MARYLAND,LAPIDUM,2421078
65430,391766,-77.139,39.357,MARYLAND,WATERSVILLE JCT,2421771
83224,502219,-76.68,38.242,MARYLAND,COMPTON,2420650
107544,645695,-77.1119,39.3314,MARYLAND,FLORENCE,2421771
83224,502219,-76.4855,38.3355,MARYLAND,CALIFORNIA,2420619
83224,503717,-76.396,38.376999999999995,MARYLAND,COVE PT,2420657
57162,342421,-77.0555,39.04,MARYLAND,WHEATON,2420902
19795,118457,-77.11,39.54,MARYLAND,NEW WINDSOR,2421776
83224,503717,-76.4855,38.3355,MARYLAND,COSTER,2420619
19795,118456,-76.7,39.11,MARYLAND,MAYFIELD,2421144
1100075,5163225,-76.18333,38.75,MARYLAND,NEWCOMB,2421601
1209479,5507169,-76.56667,39.1,MARYLAND,PASADENA,2421146
19769,117834,-76.6,38.52,MARYLAND,BARSTOW,2420678
57173,342492,-76.4456,39.3257,MARYLAND,MIDDLE RIVER,2421221
1209479,5507167,-76.46667,39.41667,MARYLAND,PERRY HALL,2421236
88853,535808,-76.7131,39.6052,MARYLAND,HAMPSTEAD,2421120
88853,535781,-77.1461,39.3951,MARYLAND,MT AIRY,2421771
88853,535776,-77.1568,39.3712,MARYLAND,MT AIRY,2421771
88853,535773,-77.197,39.3425,MARYLAND,MT AIRY,2421771
88853,535772,-77.2028,39.342,MARYLAND,KEMPTOWN,2421771
1119561,5259332,-77.28333,39.18333,MARYLAND,GERMANTOWN,2420874
57796,347219,-76.867,38.411,MARYLAND,WICOMICO,2420622
57796,347219,-76.851,38.427,MARYLAND,RYCEVILLE,2420659
57796,347217,-76.544,38.215,MARYLAND,CHINGVILLE,2420650
57796,347217,-76.562,38.215,MARYLAND,CHINGVILLE,2420650
57793,346854,-76.6684,39.1794,MARYLAND,(BWI)BALTMOR-WSHNGTN,2421240
57793,346853,-76.6698,39.1795,MARYLAND,(BWI)BALTMOR-WSHNGTN,2421240
1099061,5163921,-76.61667,39.3,MARYLAND,BALTIMORE,2421201
1099061,5163920,-76.51666999999999,39.33333,MARYLAND,ROSEDALE,2421237
1099059,5165079,-76.81667,39.1,MARYLAND,MARYLAND CITY,2420724
1099059,5165079,-76.8,39.11667,MARYLAND,MARYLAND CITY,2420724
1099059,5165078,-76.78333,39.1,MARYLAND,SAVAGE,2420724
107544,645672,-76.91,38.61,MARYLAND,ST CHARLES,2420602
1099059,5165078,-76.8,39.1,MARYLAND,SAVAGE,2420724
1189524,5449430,-76.21667,38.78333,MARYLAND,ST MICHAELS,2421663
50635,324746,-76.3097,38.9704,MARYLAND,STEVENSVILLE,2421666
27230,159808,-76.78,38.53,MARYLAND,HUGHESVILLE,2420637
27230,159809,-76.78,38.53,MARYLAND,HUGHESVILLE,2420637
27234,159827,-77.2,39.31,MARYLAND,CLAGGETTSVILLE,2420872
1220807,5534235,-76.55,39.06667,MARYLAND,SEVERNA PARK,2421146
1220807,5534235,-76.56667,39.1,MARYLAND,SEVERNA PARK,2421146
97128,584326,-76.61,39.46,MARYLAND,PADONIA,2421093
97128,584325,-76.6,39.48,MARYLAND,ASHLAND,2421030
1220807,5534179,-76.78333,39.0,MARYLAND,BOWIE,2420720
1099061,5163922,-77.06667,38.61667,MARYLAND,BRYANS ROAD,2420640
97128,584311,-76.64,39.46,MARYLAND,TEXAS,2421030
1099061,5163973,-76.26666999999999,39.66667,MARYLAND,NORTHEAST PORTION,2421034
107824,646230,-76.7275,38.9448,MARYLAND,MITCHELLVILLE,2420716
65703,393516,-79.41,39.41,MARYLAND,OAKLAND,2421550
65703,393515,-79.39,39.38,MARYLAND,LOCH LYNN HGTS,2421550
65703,393514,-79.35,39.56,MARYLAND,MC HENRY,2421541
1093757,5141121,-77.01666999999999,38.63333,MARYLAND,WALDORF,2420603
1093757,5140927,-77.05,39.05,MARYLAND,WHEATON,2420902
1093757,5140926,-77.15,39.08333,MARYLAND,ROCKVILLE,2420850
57184,342583,-76.5115,39.2519,MARYLAND,DUNDALK,2421222
1093757,5140925,-77.2,39.13333,MARYLAND,GAITHERSBURG,2420877
107886,646417,-77.08,39.01,MARYLAND,PARKWOOD,2420895
57184,342582,-76.513,39.2538,MARYLAND,DUNDALK,2421222
107873,646342,-75.41,38.39,MARYLAND,PITTSVILLE,2421850
27240,159850,-76.55,39.11,MARYLAND,EARLEIGH HGTS,2421122
1119559,5259253,-76.78333,39.0,MARYLAND,BOWIE,2420720
107843,646186,-76.4345,39.3217,MARYLAND,(MTN)MARTIN ARPT BAL,2421220
1119560,5259255,-77.28333,39.18333,MARYLAND,GERMANTOWN,2420874
1093757,5140924,-77.05,39.08333,MARYLAND,LAYHILL,2420906
1119560,5259256,-76.93333,38.85,MARYLAND,SUITLAND,2420746
1119561,5259326,-78.93333,39.65,MARYLAND,FROSTBURG,2421532
1093757,5140923,-77.28333,39.18333,MARYLAND,GERMANTOWN,2420874
1093757,5140922,-77.71667,39.65,MARYLAND,HAGERSTOWN,2421740
57184,342581,-76.5243,39.2708,MARYLAND,DUNDALK,2421222
1101305,5173740,-76.88333,38.83333,MARYLAND,FORESTVILLE,2420746
49815,306910,-75.9895,39.2113,MARYLAND,MC GINNIS,2421620
49815,306910,-76.0384,39.1736,MARYLAND,CHURCH HILL,2421620
57184,342580,-76.5225,39.2629,MARYLAND,DUNDALK,2421222
77181,466065,-79.42,39.3,MARYLAND,REDHOUSE,2421550
88853,537058,-77.16,39.37,MARYLAND,MT AIRY,2421771
1159963,5369342,-79.11667,39.7,MARYLAND,GRANTSVILLE,2421536
107843,646184,-76.4543,39.3228,MARYLAND,MIDDLE RIVER,2421221
1181629,5426100,-76.15,38.51667,MARYLAND,CAMBRIDGE,2421622
65703,393517,-79.21,39.48,MARYLAND,SWANTON,2421561
97128,584309,-76.6,39.46,MARYLAND,PADONIA,2421093
97128,584307,-76.62,39.49,MARYLAND,ASHLAND,2421030
1209463,5506867,-76.83333,39.13333,MARYLAND,SAVAGE,2420723
107544,645651,-77.18,39.17,MARYLAND,MONTGOMERY VLG,2420879
86285,520791,-77.0787,39.2447,MARYLAND,UNITY,2420882
86285,520792,-77.0674,39.2622,MARYLAND,KNOLLWOOD,2420833
1163743,5331231,-76.85,39.1,MARYLAND,LAUREL,2420707
86285,520793,-77.023,39.251999999999995,MARYLAND,KNOLLWOOD,2421737
86291,520829,-77.2595,39.0507,MARYLAND,POTOMAC,2420854
1209463,5506860,-78.16667,39.73333,MARYLAND,HANCOCK,
107544,645669,-76.94,38.61,MARYLAND,ST CHARLES,2420603
27234,159829,-77.12,39.07,MARYLAND,AUTREY PARK,2420851
107544,645670,-77.08,38.53,MARYLAND,MC CONCHIE,2420646
107544,645671,-76.91,38.59,MARYLAND,ST CHARLES,2420602
1209463,5506861,-77.28333,39.18333,MARYLAND,GERMANTOWN,2420874
86285,520794,-77.023,39.233000000000004,MARYLAND,DAYTON,2421036
86285,520796,-77.021,39.198,MARYLAND,WEVERTON,2420833
1163728,5335308,-78.81667,39.65,MARYLAND,LA VALE,2421502
1209463,5506862,-77.0,39.26667,MARYLAND,GLENELG,2421737
1209463,5506863,-77.0,39.08333,MARYLAND,COLESVILLE,2420904
86285,520797,-76.985,39.186,MARYLAND,HIGHLAND,2420777
86285,520798,-76.9901,39.1993,MARYLAND,HIGHLAND,2421029
1101305,5173453,-77.2,39.28333,MARYLAND,DAMASCUS,2420872
1209463,5506864,-76.95,39.4,MARYLAND,ELDERSBURG,2421784
1092490,5136813,-77.1,38.53333,MARYLAND,PISGAH,2420640
27234,159830,-77.1,39.05,MARYLAND,GARRETT PARK ESTATES,2420852
86285,520818,-76.4544,38.3183,MARYLAND,SOLOMONS,2420688
86285,520805,-76.9765,39.1789,MARYLAND,HIGHLAND,2420777
86285,520806,-76.95100000000001,39.191,MARYLAND,HIGHLAND,2420777
1209463,5506865,-76.71667,39.21667,MARYLAND,ELK RIDGE,2421075
1209463,5506866,-76.9,39.03333,MARYLAND,BELTSVILLE,2420705
1209463,5506868,-77.0,38.8,MARYLAND,OXON HILL,2420745
97128,584308,-76.63,39.48,MARYLAND,COCKEYSVILLE,2421030
1209463,5506870,-76.61667,39.3,MARYLAND,BALTIMORE,2421201
1209463,5506872,-76.6,39.4,MARYLAND,TOWSON,2421286
97128,584154,-76.64,39.46,MARYLAND,TEXAS,2421030
97128,584153,-76.81,39.4,MARYLAND,HARRISONVILLE,2421117
97128,584144,-76.6329,39.4561,MARYLAND,PADONIA,2421093
107544,645642,-76.69,39.14,MARYLAND,BRIDEWELL,2421144
1199167,5474440,-76.13333,38.31667,MARYLAND,CRAPO,2421626
1199070,5474418,-76.53333,38.16667,MARYLAND,TALL TIMBERS,2420690
1213637,5517774,-75.86667,39.18333,MARYLAND,SUDLERSVILLE,2421668
1113009,5240202,-79.41667,39.41667,MARYLAND,OAKLAND,2421550
27234,159831,-76.55,39.11,MARYLAND,EARLEIGH HGTS,2421122
27234,159828,-77.15,39.0,MARYLAND,CARDEROCK SPGS,2420817
1209463,5506879,-77.58333,39.65,MARYLAND,SMITHSBURG,2421783
1209463,5506877,-76.23333000000001,39.46667,MARYLAND,BELCAMP,2421017
1209463,5506876,-76.26666999999999,39.46667,MARYLAND,ABINGDON,2421009
1209463,5506875,-76.51666999999999,39.26667,MARYLAND,DUNDALK,2421222
1209463,5506874,-76.55,39.38333,MARYLAND,PARKVILLE,2421234
78840,473613,-76.265,39.516,MARYLAND,CALVARY,2421015
1092488,5136793,-76.36667,38.11667,MARYLAND,RIDGE,2420680
1092490,5136810,-76.95,38.58333,MARYLAND,WHITE PLAINS,2420695
78840,473613,-76.247,39.509,MARYLAND,CALVARY,2421015
19745,117164,-79.4768,39.6884,MARYLAND,SAND SPG,2421531
1209463,5506859,-76.96667,38.95,MARYLAND,HYATTSVILLE,2420712
19745,117164,-79.3169,39.6301,MARYLAND,ACCIDENT,2421520
86285,520785,-77.7145,39.661,MARYLAND,HAGERSTOWN,2421742
86285,520786,-77.6304,39.6037,MARYLAND,BEAVER CREEK,2421742
86285,520788,-77.236,39.326,MARYLAND,KEMPTOWN,2421770
1163752,5331336,-76.05,38.56667,MARYLAND,CAMBRIDGE,2421613
86285,520789,-77.19,39.309,MARYLAND,CLAGGETTSVILLE,2420872
86285,520790,-77.092,39.283,MARYLAND,DAISY,2421797
1209463,5506873,-76.46667,39.41667,MARYLAND,PERRY HALL,2421236
1209463,5506871,-76.71667,39.36667,MARYLAND,PIKESVILLE,2421208
1209479,5507168,-76.36667,39.43333,MARYLAND,JOPPA,2421085
1192021,5456068,-76.06667,38.76667,MARYLAND,EASTON,2421601
1120658,5260835,-76.06667,38.76667,MARYLAND,EASTON,2421601
22057,130090,-76.54,38.97,MARYLAND,BESTGATE,2421037
1136902,5302319,-76.56667,39.1,MARYLAND,PASADENA,2421146
1099063,5164286,-76.5,38.9,MARYLAND,ANNAPOLIS,2421037
66544,399009,-76.1,38.58,MARYLAND,CAMBRIDGE,2421613
66544,399007,-76.08,38.56,MARYLAND,CAMBRIDGE,2421613
1181606,5425838,-76.36667,39.73333,MARYLAND,HANCOCK,
1181606,5425838,-76.36667,39.7,MARYLAND,HANCOCK,2421132
1181606,5425839,-76.36667,39.43333,MARYLAND,POOLESVILLE,2421085
1181606,5425840,-77.63333,39.31667,MARYLAND,ADAMSTOWN,2421716
1181606,5425840,-77.63333,39.4,MARYLAND,ADAMSTOWN,2421755
1099063,5164283,-76.78333,39.0,MARYLAND,BOWIE,2420720
1209463,5506883,-77.05,39.0,MARYLAND,SILVER SPG,2420910
1136902,5302317,-76.66667,39.16667,MARYLAND,BALTIMORE WASHINGTON,2421240
1136902,5302315,-76.83333,39.13333,MARYLAND,SAVAGE,2420723
67002,402027,-79.32,39.63,MARYLAND,ACCIDENT,2421520
1136902,5302314,-76.6,39.0,MARYLAND,CROWNSVILLE,2421401
1136901,5302111,-76.9,38.76667,MARYLAND,CLINTON,2420735
1136901,5302107,-77.71667,39.65,MARYLAND,HAGERSTOWN,2421740
57173,342491,-76.4568,39.3194,MARYLAND,MIDDLE RIVER,2421221
15981,92236,-75.82,38.88,MARYLAND,DENTON,2421629
1095274,5144217,-77.26666999999999,39.58333,MARYLAND,LADIESBURG,2421757
57173,342497,-76.8166,38.8838,MARYLAND,LARGO,2420774
57173,342498,-76.4832,39.1322,MARYLAND,VENICE ON THE BAY,2421122
57173,342500,-76.4885,39.1312,MARYLAND,VENICE ON THE BAY,2421122
57173,342502,-76.4832,39.1215,MARYLAND,LAKE SHR,2421122
17726,102590,-78.9696,39.687,MARYLAND,FINZEL,2421532
57173,342507,-78.0764,39.696999999999996,MARYLAND,MOFFET,2421750
57173,342508,-76.5168,39.4053,MARYLAND,CARNEY,2421234
22057,130089,-76.89,38.78,MARYLAND,CLINTON,2420735
1181606,5425837,-77.2,38.36667,MARYLAND,BOONSBORO,2420662
22057,130088,-76.99,38.8,MARYLAND,PHELPS CORNER,2420745
1099063,5164288,-76.61667,38.61667,MARYLAND,HUNTINGTOWN,2420639
1099068,5176139,-76.58333,38.38333,MARYLAND,HOLLYWOOD,2420636
1209479,5507166,-76.36667,39.33333,MARYLAND,BOWLEYS QUARTERS,2421220
1209477,5507161,-76.78333,38.45,MARYLAND,NANJEMOY,2420659
1209474,5507080,-76.68333,39.66667,MARYLAND,BENTLEY SPGS,2421053
22062,131255,-76.92,39.01,MARYLAND,BRANCHVILLE,2420740
1163182,5371769,-76.15,38.46667,MARYLAND,CHURCH CREEK,2421622
22062,131254,-76.93,39.0,MARYLAND,BRANCHVILLE,2420740
22062,131253,-76.92,39.02,MARYLAND,BELTSVILLE,2420740
22062,131230,-77.08,39.15,MARYLAND,OLNEY,2420832
22062,131217,-77.28,39.24,MARYLAND,CLARKSBURG,2420871
1209473,5507079,-76.88333,38.6,MARYLAND,WALDORF,2420602
22062,131206,-77.57,39.48,MARYLAND,MYERSVILLE,2421769
1181595,5425271,-77.16667,38.56667,MARYLAND,LA PLATA,2420658
19464,115167,-75.7,38.26,MARYLAND,LORETTO,2421853
1181595,5425271,-77.06667,38.46667,MARYLAND,LA PLATA,2420693
53312,340670,-76.07,39.22,MARYLAND,CHESTERTOWN,2421620
1181598,5425282,-76.45,38.33333,MARYLAND,SOLOMONS,2420629
1136907,5302412,-77.55,39.66667,MARYLAND,SMITHSBURG,2421783
1136902,5302326,-77.4,39.43333,MARYLAND,FREDERICK,2421701
1181606,5425836,-77.55,39.4,MARYLAND,BRUNSWICK,2421769
22062,131203,-76.93,38.94,MARYLAND,QUINCY MANOR,2420710
1209473,5507078,-76.91667,38.63333,MARYLAND,WALDORF,2420601
1209463,5506885,-77.0,38.8,MARYLAND,OXON HILL,2420745
1136902,5302326,-77.38333,39.45,MARYLAND,FREDERICK,2421701
1136902,5302323,-76.85,39.1,MARYLAND,LAUREL,2420707
1136902,5302322,-76.85,38.7,MARYLAND,BRANDYWINE,2420613
17664,102115,-79.29,39.66,MARYLAND,KEYSERS RIDGE,2421520
1181606,5425836,-77.65,39.4,MARYLAND,BRUNSWICK,2421779
1181606,5425837,-77.2,38.41667,MARYLAND,BOONSBORO,2420662
22062,131202,-77.14,39.01,MARYLAND,WOODHAVEN,2420817
1099063,5164293,-77.41667,39.61667,MARYLAND,THURMONT,2421788
1120608,5260208,-76.06667,38.66667,MARYLAND,TRAPPE,2421673
22057,130087,-77.66,39.51,MARYLAND,BOONSBORO,2421713
1093757,5141418,-76.95,38.58333,MARYLAND,WHITE PLAINS,2420695
1163133,5371432,-76.2,39.63333,MARYLAND,DARLINGTON,2421034
1094183,5140821,-75.56667,38.06667,MARYLAND,POCOMOKE CITY,2421851
1094173,5140738,-75.4,38.18333,MARYLAND,SNOW HILL,2421863
1094169,5142140,-75.76666999999999,38.11667,MARYLAND,MANOKIN,2421871
1094168,5142139,-75.7,38.2,MARYLAND,PRINCESS ANNE,2421853
107533,644469,-78.33,39.72,MARYLAND,FOREST PARK,2421750
1209463,5506882,-77.41667,39.41667,MARYLAND,FREDERICK,2421701
1209463,5506880,-78.61667,39.55,MARYLAND,OLDTOWN,2421555
1181606,5425842,-78.18333,39.7,MARYLAND,MARYLAND PT,2421750
1181606,5425926,-77.41667,39.18333,MARYLAND,PYLESVILLE,2420839
1093757,5141130,-76.7,38.73333,MARYLAND,DUNKIRK,2420772
1093757,5141129,-76.91667,38.66667,MARYLAND,WALDORF,2420613
1093757,5141128,-76.81667,38.75,MARYLAND,ROSARYVILLE,2420772
1093757,5141127,-77.0,39.08333,MARYLAND,COLESVILLE,2420904
1093757,5141122,-76.65,38.7,MARYLAND,DUNKIRK,2420736
1093757,5141122,-76.63333,38.7,MARYLAND,DUNKIRK,2420736
1214161,5517159,-75.3,38.25,MARYLAND,NEWARK,2421841
67039,402176,-79.25,39.58,MARYLAND,BITTINGER,2421520
1181606,5425926,-77.45,39.13333,MARYLAND,PYLESVILLE,2420837
1181606,5425927,-77.41667,39.41667,MARYLAND,JOPPA,2421701
1181606,5425927,-77.46667,39.31667,MARYLAND,JOPPA,2421710
56196,337084,-75.22,38.33,MARYLAND,BERLIN,2421811
56196,337086,-75.29,38.25,MARYLAND,NEWARK,2421841
1120689,5261349,-79.13333,39.71667,MARYLAND,GRANTSVILLE,2421536
74253,449088,-76.807,38.843,MARYLAND,BROWN,2420774
74253,449088,-76.813,38.836999999999996,MARYLAND,WESTPHALIA,2420772
28544,170733,-76.94,38.52,MARYLAND,NEWTOWN,2420646
28544,170734,-76.9457,38.4162,MARYLAND,ALLENS FRESH,2420632
1120689,5261349,-79.06667,39.7,MARYLAND,GRANTSVILLE,2421536
22055,130043,-76.55,39.11,MARYLAND,EARLEIGH HGTS,2421122
1093757,5141419,-76.91667,38.63333,MARYLAND,WALDORF,2420601
22057,130080,-76.43,39.53,MARYLAND,SCARFF,2421047
1173581,5406453,-76.23333000000001,39.58333,MARYLAND,CHURCHVILLE,2421028
22057,130086,-76.46,39.38,MARYLAND,WHITE MARSH,2421128
1162566,5371824,-76.06667,38.76667,MARYLAND,EASTON,2421601
50301,302265,-76.81,39.614000000000004,MARYLAND,WHITEHOUSE,2421074
1093757,5141416,-76.85,39.23333,MARYLAND,COLUMBIA,2421044
22057,130084,-76.43,39.33,MARYLAND,BALTIMORE MARTIN ST,2421220
22057,130083,-76.38,39.31,MARYLAND,BOWLEYS QUARTERS,2421220
97202,584593,-77.465,39.2604,MARYLAND,TUSCARORA,2421790
97202,584593,-77.4609,39.2814,MARYLAND,PLEASANT VIEW,2421710
22057,130082,-76.35,39.53,MARYLAND,BEL AIR,2421014
1115566,5248047,-76.95,38.66667,MARYLAND,WALDORF,2420601
1115566,5248047,-76.96667,38.63333,MARYLAND,WALDORF,2420603
49848,292857,-79.41,39.41,MARYLAND,OAKLAND,2421550
49848,292856,-79.45,39.31,MARYLAND,REDHOUSE,2421550
22057,130081,-76.43,39.53,MARYLAND,SCARFF,2421047
1163138,5336300,-77.1,39.08333,MARYLAND,GLENMONT,2420853
1115565,5248044,-76.43333,38.13333,MARYLAND,ST INIGOES,2420684
1180090,5422369,-75.83333,39.6,MARYLAND,ELKTON,2421921
1180088,5422367,-75.98333000000001,39.56667,MARYLAND,CHARLESTOWN,
1095274,5144213,-77.55,39.68333,MARYLAND,SMITHSBURG,2421783
1115565,5248043,-76.45,38.3,MARYLAND,SOLOMONS,2420670
1163135,5336202,-77.15,38.5,MARYLAND,IRONSIDES,2420646
16539,95477,-79.4696,39.6109,MARYLAND,NEELER GLADE,2421531
1115565,5248039,-76.91667,38.63333,MARYLAND,WALDORF,2420601
1164965,5379733,-77.41667,39.15,MARYLAND,POOLESVILLE,2420837
1181606,5425841,-77.65,39.5,MARYLAND,CATOCTIN,2421713
1163135,5336200,-76.91667,38.63333,MARYLAND,WALDORF,2420601
1163135,5336197,-76.85,38.7,MARYLAND,BRANDYWINE,2420613
1163134,5335773,-76.6,39.4,MARYLAND,TOWSON,2421286
1163133,5371435,-77.93333,39.65,MARYLAND,CLEAR SPG,2421722
1173585,5406524,-76.98333000000001,38.53333,MARYLAND,LA PLATA,2420646
46037,268757,-76.5651,39.3721,MARYLAND,RASPEBURG,2421234
1136297,5297708,-75.63333,38.0,MARYLAND,SHELLTOWN,2421838
46037,268758,-76.5601,39.3772,MARYLAND,PARKVILLE,2421234
52155,312237,-78.348,39.702,MARYLAND,BELLE GROVE,2421766
52155,312238,-78.333,39.693000000000005,MARYLAND,BELLE GROVE,2421766
52155,312239,-78.348,39.71,MARYLAND,BELLE GROVE,2421766
52155,312240,-78.3076,39.7075,MARYLAND,FOREST PARK,2421750
52155,312297,-78.18,39.7,MARYLAND,HANCOCK,2421750
52155,312299,-77.9936,39.6856,MARYLAND,INDIAN SPGS,2421711
52155,312301,-77.99,39.6745,MARYLAND,INDIAN SPGS,2421711
52155,312302,-78.6248,39.5499,MARYLAND,OLDTOWN,2421555
52155,312303,-78.8541,39.5665,MARYLAND,PINTO,2421502
52155,312304,-78.7167,39.5653,MARYLAND,SPRING GAP,2421502
52155,312309,-78.7167,39.5653,MARYLAND,SPRING GAP,2421502
52155,312321,-78.7566,39.6377,MARYLAND,EVITTS CREEK,2421502
52155,312328,-78.745,39.6511,MARYLAND,CUMBERLAND,2421502
52155,312330,-79.0425,39.4889,MARYLAND,LUKE,2421562
52155,312236,-78.35300000000001,39.691,MARYLAND,BELLE GROVE,2421766
52155,312334,-78.49600000000001,39.677,MARYLAND,FLINTSTONE,2421530
52155,312352,-78.40100000000001,39.638000000000005,MARYLAND,LITTLE ORLEANS,2421766
52155,312363,-78.5983,39.6332,MARYLAND,RIDGELEY,2421555
52155,312434,-78.40100000000001,39.638000000000005,MARYLAND,LITTLE ORLEANS,2421766
52155,312435,-78.39,39.681999999999995,MARYLAND,PINEY GROVE,2421766
52155,312440,-78.372,39.673,MARYLAND,PINEY GROVE,2421766
52155,312442,-78.375,39.684,MARYLAND,PINEY GROVE,2421766
52155,312444,-78.37100000000001,39.65,MARYLAND,LITTLE ORLEANS,2421766
52155,312445,-78.37100000000001,39.666,MARYLAND,PINEY GROVE,2421766
52155,312446,-78.458,39.678000000000004,MARYLAND,PINEY GROVE,2421530
52155,312447,-78.354,39.665,MARYLAND,BELLE GROVE,2421766
52155,312449,-78.434,39.692,MARYLAND,PINEY GROVE,2421530
52155,312450,-78.426,39.703,MARYLAND,PINEY GROVE,2421530
52155,312451,-78.605,39.63,MARYLAND,RIDGELEY,2421555
1133939,5292643,-76.38333,38.46667,MARYLAND,LONG BEACH,
52155,312338,-78.50399999999999,39.693000000000005,MARYLAND,FLINTSTONE,2421530
8244,47558,-77.63,39.32,MARYLAND,BRUNSWICK,2421716
52155,312235,-78.387,39.7,MARYLAND,PINEY GROVE,2421766
52155,312232,-78.39699999999999,39.711999999999996,MARYLAND,PINEY GROVE,2421530
8288,47608,-76.35,39.53,MARYLAND,BEL AIR,2421014
1133939,5292538,-77.03333,38.61667,MARYLAND,BRYANS ROAD,2420603
1133939,5292539,-76.91667,38.63333,MARYLAND,WALDORF,2420601
1133939,5292540,-77.18333,38.55,MARYLAND,RISON,2420640
1133939,5292540,-76.68333,38.51667,MARYLAND,RISON,2420637
1133939,5292541,-76.98333000000001,38.56667,MARYLAND,LA PLATA,2420646
1133939,5292543,-76.88333,38.6,MARYLAND,WALDORF,2420602
1133939,5292544,-76.98333000000001,38.53333,MARYLAND,LA PLATA,2420646
1133939,5292545,-76.85,38.55,MARYLAND,BRYANTOWN,2420617
1133939,5292547,-76.75,38.53333,MARYLAND,PATUXENT,2420637
1133939,5292548,-76.61667,38.51667,MARYLAND,BOWENS,2420678
1133939,5292640,-76.5,38.48333,MARYLAND,BOWENS,2420685
1133939,5292640,-76.65,38.5,MARYLAND,BOWENS,2420678
52148,314973,-77.777,39.701,MARYLAND,CEARFOSS,2421740
52155,312233,-78.333,39.703,MARYLAND,BELLE GROVE,2421766
52148,314973,-77.747,39.681,MARYLAND,MAUGANSVILLE,2421740
52148,314974,-77.551,39.603,MARYLAND,GARFIELD,2421783
52149,310916,-78.9103,39.6572,MARYLAND,ECKHART MINES,2421532
1133939,5292641,-76.55,38.53333,MARYLAND,PRINCE FREDERICK,2420678
53930,323154,-76.7457,38.9206,MARYLAND,MITCHELLVILLE,2420721
53930,323155,-76.905,38.961,MARYLAND,LANDOVER HILLS,2420737
53930,323156,-76.7596,38.8233,MARYLAND,UPPER MARLBORO,2420772
53930,323904,-76.7577,38.8165,MARYLAND,UPPER MARLBORO,2420772
1133939,5292642,-76.98333000000001,38.53333,MARYLAND,LA PLATA,2420646
52152,311870,-77.4159,39.1189,MARYLAND,POOLESVILLE,2420837
52154,311921,-77.0363,39.2901,MARYLAND,GLENWOOD,2421738
52154,311925,-77.0299,39.2856,MARYLAND,GLENWOOD,2421738
52155,311933,-78.9753,39.4587,MARYLAND,MC COOLE,2421557
52155,311935,-78.9629,39.4395,MARYLAND,MC COOLE,
52155,311936,-78.9632,39.4706,MARYLAND,DAWSON,2421557
52148,314974,-77.539,39.59,MARYLAND,GARFIELD,2421783
8244,47556,-76.42,39.52,MARYLAND,FALLSTON,2421047
8244,47555,-76.4068,39.5098,MARYLAND,FALLSTON,2421047
8244,47555,-76.3538,39.4689,MARYLAND,FALLSTON,2421085
53940,324214,-76.378,39.649,MARYLAND,STREET,2421154
53940,324214,-76.375,39.674,MARYLAND,STREET,2421154
53940,324215,-76.234,39.474000000000004,MARYLAND,BELCAMP,2421017
53940,324215,-76.234,39.471,MARYLAND,BELCAMP,2421017
53944,335126,-77.4486,39.4268,MARYLAND,FREDERICK,2421702
44476,258084,-76.4492,39.1134,MARYLAND,PINEHURST,2421122
1136244,5297786,-76.3,39.41667,MARYLAND,EDGEWOOD,2421040
1130414,5279307,-75.93333,38.16667,MARYLAND,DEAL IS,2421821
1130414,5279307,-75.95,38.15,MARYLAND,DEAL IS,2421821
1136245,5297800,-76.61667,39.3,MARYLAND,BALTIMORE,2421201
1136245,5297801,-76.43333,39.38333,MARYLAND,WHITE MARSH,2421128
46037,268757,-76.5705,39.3665,MARYLAND,RASPEBURG,2421214
1136245,5297870,-76.3,39.41667,MARYLAND,EDGEWOOD,2421040
1095275,5144640,-76.61667,39.3,MARYLAND,BALTIMORE,2421201
1136244,5297700,-77.63333,39.6,MARYLAND,BEAVER CREEK,2421742
1095275,5144641,-76.35,39.53333,MARYLAND,BEL AIR,2421014
1208192,5503389,-75.76666999999999,39.13333,MARYLAND,HENDERSON,2421649
1208192,5503389,-75.76666999999999,39.06667,MARYLAND,HENDERSON,2421640
1208191,5503388,-75.88333,39.33333,MARYLAND,GALENA,2421635
1208190,5503387,-76.11667,39.6,MARYLAND,PORT DEPOSIT,2421904
1208188,5503385,-76.06667,39.21667,MARYLAND,CHESTERTOWN,2421620
76346,460451,-77.32,39.08,MARYLAND,SENECA,2420874
69409,416427,-76.50399999999999,39.609,MARYLAND,MADONNA,2421084
76346,460451,-76.947,39.108000000000004,MARYLAND,BURTONSVILLE,2420866
69409,416427,-76.502,39.626,MARYLAND,MADONNA,2421084
5309,39603,-76.73,39.5589,MARYLAND,BUTLER,2421152
5309,39603,-76.73,39.5878,MARYLAND,BUTLER,2421120
5309,39589,-76.88,39.0,MARYLAND,GREENBELT,2420770
5309,39555,-78.7567,39.6602,MARYLAND,CUMBERLAND,2421502
69408,416426,-77.5508,39.5742,MARYLAND,WOLFSVILLE,2421773
1095275,5144643,-77.71667,39.33333,MARYLAND,SANDY HOOK,2421758
116651,701695,-76.07,39.04,MARYLAND,CENTREVILLE,2421617
116651,701693,-76.07,39.04,MARYLAND,CENTREVILLE,2421617
1124690,5272158,-77.28333,39.18333,MARYLAND,GERMANTOWN,2420874
52158,312769,-78.9611,39.6094,MARYLAND,CARLOS,2421532
52158,312770,-78.9098,39.6473,MARYLAND,ECKHART MINES,2421532
52158,312771,-78.9103,39.6572,MARYLAND,ECKHART MINES,2421532
30429,178218,-79.41,39.41,MARYLAND,OAKLAND,2421550
52158,312772,-78.6327,39.7191,MARYLAND,PLEASANT VLY,2421530
8244,47544,-76.5392,38.4393,MARYLAND,ST LEONARD,2420685
1176244,5414232,-79.3,39.48333,MARYLAND,DEER PARK,2421550
8239,47533,-76.6191,39.4021,MARYLAND,HAMILTON,2421204
18363,107360,-75.56,38.07,MARYLAND,POCOMOKE CITY,2421851
8239,47533,-76.68,39.33,MARYLAND,DRUID,2421215
8239,47529,-76.67,39.2,MARYLAND,LINTHICUM HGTS,2421090
32093,189032,-77.2962,39.3688,MARYLAND,MONROVIA,2421754
32093,189032,-77.3352,39.3531,MARYLAND,IJAMSVILLE,2421754
32093,189031,-77.3584,39.3514,MARYLAND,URBANA,2421704
32093,189031,-77.3168,39.3708,MARYLAND,IJAMSVILLE,2421754
32093,189030,-76.916,39.494,MARYLAND,FINKSBURG,2421048
32093,189030,-76.933,39.492,MARYLAND,GAMBER,2421048
1124690,5272159,-77.2,39.13333,MARYLAND,GAITHERSBURG,2420877
1124690,5272160,-77.18333,39.16667,MARYLAND,MONTGOMERY VLG,2420879
1124690,5272161,-77.06667,39.18333,MARYLAND,BROOKEVILLE,2420833
116651,701692,-76.07,39.04,MARYLAND,CENTREVILLE,2421617
53940,324213,-76.38,39.68,MARYLAND,STREET,2421132
53934,323908,-76.8964,39.3971,MARYLAND,SHERVETTES CORNER,2421784
32266,189006,-77.04,39.1,MARYLAND,LAYHILL,2420906
32086,189033,-78.5088,39.6062,MARYLAND,GREEN RANGE STATION,2421555
32086,189034,-78.3215,39.7,MARYLAND,BELLE GROVE,2421766
32086,189034,-78.3334,39.693000000000005,MARYLAND,BELLE GROVE,2421766
53934,323906,-77.3352,39.4852,MARYLAND,WALKERSVILLE,2421793
38970,240644,-75.87,39.18,MARYLAND,SUDLERSVILLE,2421668
32093,189029,-76.9286,39.3269,MARYLAND,ALPHA,2421104
32093,189029,-76.9301,39.3261,MARYLAND,ALPHA,2421104
32086,189033,-78.62899999999999,39.544000000000004,MARYLAND,OLDTOWN,2421555
5309,39554,-76.78,39.42,MARYLAND,OWINGS MILLS,2421117
1133939,5292537,-77.16667,38.6,MARYLAND,INDIAN HEAD,2420640
1133930,5292369,-76.86667,38.95,MARYLAND,GREENBELT,2420785
1120993,5262055,-76.08333,38.56667,MARYLAND,CAMBRIDGE,2421613
1095274,5144295,-76.83333,39.46667,MARYLAND,REISTERSTOWN,2421136
39476,229394,-76.608,39.4052,MARYLAND,ROGERS FORGE,2421204
39476,229393,-76.6213,39.395,MARYLAND,ROGERS FORGE,2421204
39476,229391,-76.615,38.5486,MARYLAND,BARSTOW,2420678
39476,229390,-76.6797,39.2501,MARYLAND,HALETHORPE,2421227
39476,229386,-76.6958,39.0612,MARYLAND,ODENTON,2421054
39476,229384,-76.8542,38.649,MARYLAND,MATTAWOMAN,2420601
39476,229383,-76.8695,38.5967,MARYLAND,BEANTOWN,2420601
1095274,5144295,-76.78333,39.41667,MARYLAND,REISTERSTOWN,2421117
39476,229382,-76.8874,38.6474,MARYLAND,MATTAWOMAN,2420601
39476,229381,-76.8586,38.6061,MARYLAND,BEANTOWN,2420601
39476,229380,-76.9406,38.5903,MARYLAND,WHITE PLAINS,2420695
39476,229379,-76.8973,38.6392,MARYLAND,MATTAWOMAN,2420601
1120993,5262054,-75.68333,38.43333,MARYLAND,SALISBURY,2421830
39476,229378,-76.9045,38.6419,MARYLAND,WALDORF,2420601
39476,229376,-76.9313,38.6255,MARYLAND,WALDORF,2420603
39476,229374,-76.9176,38.6521,MARYLAND,WALDORF,2420601
39476,229370,-77.0163,38.676,MARYLAND,ACCOKEEK,2420607
39476,229369,-76.664,39.7164,MARYLAND,MARYLAND LINE,2421053
39476,229368,-76.8857,39.0093,MARYLAND,GREENBELT,2420770
39476,229362,-77.0985,38.9808,MARYLAND,FRIENDSHIP HGTS,2420815
1095274,5144300,-76.91667,38.63333,MARYLAND,WALDORF,2420601
1095274,5144635,-76.58333,38.35,MARYLAND,HOLLYWOOD,2420636
1095274,5144722,-77.05,39.0,MARYLAND,SILVER SPG,2420910
1157083,5373869,-79.41667,39.41667,MARYLAND,OAKLAND,2421550
96619,580986,-77.18,39.26,MARYLAND,DAVIS ARPT,2420882
96619,580988,-77.19,39.25,MARYLAND,DAVIS ARPT,2420882
1120993,5262130,-75.95,38.53333,MARYLAND,LINKWOOD,2421835
96619,580989,-77.15,39.27,MARYLAND,DAVIS ARPT,2420882
39476,229377,-76.9045,38.6419,MARYLAND,WALDORF,2420601
1120993,5262131,-75.56667,38.45,MARYLAND,DELMAR,2421875
96951,583154,-76.97,38.343,MARYLAND,MORGANTOWN,2420664
96951,583156,-76.907,38.294000000000004,MARYLAND,ISSUE,2420645
1156708,5370424,-76.23333000000001,39.46667,MARYLAND,BELCAMP,2421017
7253,41727,-76.08,38.28,MARYLAND,WINGATE,2421675
124432,746622,-75.81,39.53,MARYLAND,CHESAPEAKE CITY,2421915
7253,41726,-75.85,37.98,MARYLAND,CRISFIELD,2421817
62587,375967,-76.0045,39.0559,MARYLAND,HAYDEN,2421617
15699,89638,-77.12,38.97,MARYLAND,BETHESDA,2420816
15699,89639,-77.15,39.08,MARYLAND,ROCKVILLE,2420850
15699,89640,-77.0,39.58,MARYLAND,WESTMINSTER,2421157
15699,89641,-76.88,39.2,MARYLAND,CLARKSVILLE,2421044
124432,746623,-75.86,39.3,MARYLAND,MASSEY,2421635
124432,746624,-76.07,39.22,MARYLAND,CHESTERTOWN,2421620
1156711,5370701,-77.21667,39.01667,MARYLAND,POTOMAC,2420854
1095274,5144228,-76.95,39.4,MARYLAND,ELDERSBURG,2421784
1170896,5399415,-79.28333,39.35,MARYLAND,KITZMILLER,2421550
96951,583156,-76.8416,38.3172,MARYLAND,WOODBERRY BEACH,2420659
1170819,5399205,-79.41667,39.41667,MARYLAND,OAKLAND,2421550
5879,52433,-75.8,38.97,MARYLAND,GREENSBORO,2421639
1212966,5515103,-76.46667,39.4,MARYLAND,FULLERTON,2421236
1212971,5515168,-76.73333000000001,39.6,MARYLAND,PARKTON,2421120
1212984,5515329,-76.83333,38.36667,MARYLAND,CHAPTICO,2420659
1212984,5515329,-76.78333,38.36667,MARYLAND,CHAPTICO,2420621
1120992,5262049,-76.21667,38.5,MARYLAND,MADISON,2421648
5879,52432,-75.82,38.88,MARYLAND,DENTON,2421629
1120992,5262050,-76.21667,38.5,MARYLAND,MADISON,2421648
1120992,5262051,-76.08333,38.56667,MARYLAND,CAMBRIDGE,2421613
31405,184541,-75.85,38.31,MARYLAND,TYASKIN,2421865
96951,583157,-76.63600000000001,38.39,MARYLAND,OAKVILLE,2420659
31405,184542,-75.47,38.42,MARYLAND,MELSON,2421875
31405,184543,-75.55,38.34,MARYLAND,MT HERMON,2421804
96951,583157,-76.8416,38.3172,MARYLAND,MILLS PT SHRS,2420659
76234,459693,-76.447,39.473,MARYLAND,FORK,2421013
1142027,5312839,-79.41667,39.66667,MARYLAND,FRIENDSVILLE,2421531
76234,459693,-76.449,39.461999999999996,MARYLAND,FORK,2421087
96951,583154,-76.935,38.353,MARYLAND,WAYSIDE,2420664
6957,40131,-77.2,39.28,MARYLAND,DAMASCUS,2420872
6957,40133,-76.9896,39.2693,MARYLAND,WEST FRIENDSHIP,2421737
6957,40134,-76.72,39.3,MARYLAND,CATONSVILLE MANOR,2421207
6957,40137,-76.9859,39.1,MARYLAND,BURTONSVILLE,2420905
20149,120226,-75.11,38.35,MARYLAND,WEST OCEAN CITY,2421842
38702,224466,-77.6274,39.3914,MARYLAND,BURKITTSVILLE,2421718
38702,224467,-77.52199999999999,39.364000000000004,MARYLAND,JEFFERSON,2421755
38702,224468,-76.9602,39.402,MARYLAND,ELDERSBURG,2421784
49489,291427,-78.9871,39.5756,MARYLAND,DETMOLD,2421539
38702,224469,-77.4131,39.1789,MARYLAND,BEALLSVILLE,2420839
38702,224471,-77.205,39.2632,MARYLAND,DAMASCUS,2420872
38702,224472,-77.205,39.2632,MARYLAND,DAMASCUS,2420872
38702,224473,-76.9735,39.2588,MARYLAND,GLENELG,2421042
38702,224474,-76.3617,39.3653,MARYLAND,HAREWOOD PARK,2421220
1169606,5396437,-77.61667,39.7,MARYLAND,LEITERSBURG,2421742
68020,408080,-76.5382,39.3847,MARYLAND,PARKVILLE,2421234
68020,407884,-76.4715,39.3625,MARYLAND,POPLAR,2421237
67458,404509,-76.695,38.816,MARYLAND,DRURY,2420711
6957,40137,-77.07,39.0845,MARYLAND,GLENMONT,2420906
6957,40138,-76.88,39.13,MARYLAND,NORTH LAUREL,2420723
6957,40140,-77.2771,39.3291,MARYLAND,IJAMSVILLE,2421754
76346,460447,-76.541,38.400999999999996,MARYLAND,SOTTERLEY,2420685
68020,407883,-76.4978,39.3911,MARYLAND,CARNEY,2421236
68020,407882,-76.5538,39.3806,MARYLAND,PARKVILLE,2421234
68020,407880,-76.9869,39.6358,MARYLAND,WESTMINSTER ARPT,2421158
68016,407871,-77.0565,39.102,MARYLAND,LAYHILL,2420906
68016,407867,-78.7931,39.6711,MARYLAND,LONG,2421502
38708,224491,-76.765,38.245,MARYLAND,AVENUE,2420626
89716,540080,-76.7313,39.4,MARYLAND,MC DONOGH,2421208
1194783,5463962,-77.55,39.58333,MARYLAND,LAYTONSVILLE,2421783
68020,407885,-76.6661,39.3595,MARYLAND,WOODBERRY,2421209
1169606,5396436,-77.58333,39.65,MARYLAND,WOLFSVILLE,2421783
1169606,5396436,-77.6,39.61667,MARYLAND,WOLFSVILLE,2421742
1169606,5396435,-77.61667,39.68333,MARYLAND,LEITERSBURG,2421742
67405,404532,-76.7516,38.2241,MARYLAND,COLTON,2420626
67405,404532,-76.7515,38.2233,MARYLAND,COLTON,2420626
1142027,5312840,-79.33333,39.63333,MARYLAND,ACCIDENT,2421520
106633,640217,-77.19,39.05,MARYLAND,GLEN,2420854
4529,25739,-76.07,38.6266,MARYLAND,TRAPPE,2421673
6957,40129,-77.2,39.28,MARYLAND,DAMASCUS,2420872
1169571,5395454,-76.55,38.53333,MARYLAND,PRINCE FREDERICK,2420678
41925,244398,-75.29,38.25,MARYLAND,NEWARK,2421841
1169575,5395458,-76.9,38.76667,MARYLAND,CLINTON,2420735
1169583,5397445,-76.41667,39.65,MARYLAND,JARRETTSVILLE,2421154
76346,460443,-76.488,38.309,MARYLAND,CALIFORNIA,2420653
1169592,5397509,-76.83333,39.46667,MARYLAND,REISTERSTOWN,2421136
1169592,5397510,-76.6,39.43333,MARYLAND,TOWSON,2421093
76346,460443,-76.74,38.278,MARYLAND,OAKLEY,2420609
76346,460447,-76.513,38.422,MARYLAND,SOTTERLEY,2420685
1169592,5397512,-76.78333,39.0,MARYLAND,BOWIE,2420720
1169592,5397513,-76.8,39.2,MARYLAND,COLUMBIA,2421045
1169606,5396435,-77.63333,39.68333,MARYLAND,LEITERSBURG,2421742
6957,40131,-77.1896,39.2507,MARYLAND,LAYTONSVILLE,2420882
6957,40130,-77.2,39.28,MARYLAND,DAMASCUS,2420872
84173,519209,-76.07,39.57,MARYLAND,PERRYVILLE,2421903
94757,579429,-76.07,39.7,MARYLAND,RISING SUN,2421911
1169606,5396367,-76.9,38.76667,MARYLAND,CLINTON,2420735
1133930,5292369,-76.88333,39.0,MARYLAND,GREENBELT,2420770
1169606,5396360,-77.41667,39.41667,MARYLAND,FREDERICK,2421701
1169595,5397585,-76.63333,39.16667,MARYLAND,GLEN BURNIE,2421061
1169595,5397582,-76.85,39.1,MARYLAND,LAUREL,2420707
1169592,5397577,-77.26666999999999,39.36667,MARYLAND,NEW MARKET,2421770
1169592,5397516,-77.28333,39.18333,MARYLAND,GERMANTOWN,2420874
1169592,5397515,-76.78333,38.45,MARYLAND,NANJEMOY,2420659
1169592,5397514,-76.55,39.3,MARYLAND,ROSSVILLE,2421205
1169606,5396356,-77.73333000000001,39.66667,MARYLAND,HALFWAY,2421740
31401,184462,-75.86,37.98,MARYLAND,CRISFIELD,2421817
5309,39552,-77.12,38.97,MARYLAND,BETHESDA,2420816
5309,39550,-77.05,39.0,MARYLAND,SILVER SPG,2420910
30783,180773,-76.8863,38.9917,MARYLAND,GREENBELT,2420706
30783,180775,-76.83,38.88,MARYLAND,RITCHIE,2420774
30783,180776,-76.47,39.6,MARYLAND,JARRETTSVILLE,2421084
30783,181436,-76.5024,39.282,MARYLAND,DUNDALK,2421222
30783,181436,-76.5258,39.2895,MARYLAND,ST HELENA,2421222
4756,27235,-76.68,39.7,MARYLAND,FREELAND,2421053
4756,27241,-76.53,38.98,MARYLAND,PAROLE,2421401
61127,365415,-76.4225,38.2773,MARYLAND,(NHK)NAS PATUXENT RI,2420670
1136297,5297710,-75.16667,38.4,MARYLAND,SHOWELL,2421811
106633,640227,-76.86,39.2,MARYLAND,CLARKSVILLE,2421045
1141706,5314453,-76.9,39.15,MARYLAND,SCAGGSVILLE,2420723
1141706,5314454,-77.41667,39.38333,MARYLAND,FREDERICK,2421703
93475,569665,-75.95,39.6,MARYLAND,NORTH EAST,2421901
106633,640228,-76.87,39.22,MARYLAND,EAST LIOAK,2421044
30783,180772,-76.34,39.4,MARYLAND,MAGNOLIA,2421085
1095275,5145085,-76.88333,39.66667,MARYLAND,MANCHESTER,2421102
1095275,5145096,-76.83333,38.7,MARYLAND,BRANDYWINE,2420613
1167737,5390890,-77.56667,39.5,MARYLAND,MYERSVILLE,2421773
1095275,5145190,-76.63333,38.75,MARYLAND,CHANEY,2420754
1095275,5145190,-76.7,38.75,MARYLAND,CHANEY,2420772
1095275,5145192,-76.53333,39.33333,MARYLAND,OVERLEA,2421206
1095275,5145192,-76.45,39.36667,MARYLAND,OVERLEA,2421237
1095275,5145194,-77.03333,38.66667,MARYLAND,ACCOKEEK,2420607
6671,52462,-75.97,38.92,MARYLAND,QUEEN ANNE,2421625
6671,52463,-75.95,38.9711,MARYLAND,RUTHSBURG,2421657
1095275,5145545,-76.65,39.48333,MARYLAND,COCKEYSVILLE,2421030
1095276,5145546,-77.71667,39.65,MARYLAND,HAGERSTOWN,2421740
1095276,5145547,-77.58333,39.56667,MARYLAND,SMITHSBURG,2421773
1095276,5145549,-77.15,39.38333,MARYLAND,MT AIRY,2421771
1095276,5145550,-76.86667,39.26667,MARYLAND,ELLICOTT CITY,2421042
1095275,5145096,-76.68333,38.7,MARYLAND,BRANDYWINE,2420754
106633,640229,-76.64,38.65,MARYLAND,CHANEYVILLE,2420639
30783,180771,-76.46,39.34,MARYLAND,POPLAR,2421220
30783,180769,-76.7,39.11,MARYLAND,MAYFIELD,2421144
30745,180364,-76.59,38.46,MARYLAND,ISLAND CREEK,2420676
30745,180365,-76.51,38.45,MARYLAND,ST LEONARD,2420685
30745,180366,-76.51,38.47,MARYLAND,ST LEONARD,2420685
30745,180367,-76.47,38.43,MARYLAND,LUSBY,2420657
30745,180372,-76.48,38.3,MARYLAND,CALIFORNIA,2420653
30745,180374,-76.53,38.3,MARYLAND,CALIFORNIA,2420619
30745,180376,-77.18,38.49,MARYLAND,IRONSIDES,2420662
55736,334222,-76.5145,39.2877,MARYLAND,DUNDALK,2421224
56961,341198,-75.57,38.45,MARYLAND,DELMAR,2421875
1136297,5297709,-75.28333,38.16667,MARYLAND,GIRDLETREE,2421863
106633,640225,-76.93,38.61,MARYLAND,ST CHARLES,2420603
55727,334144,-78.1123,39.7219,MARYLAND,HOOD,2421750
106633,640226,-77.01,39.14,MARYLAND,ASHTON,2420861
1212522,5511963,-79.41667,39.66667,MARYLAND,FRIENDSVILLE,2421531
30783,180770,-76.45,39.3,MARYLAND,MIDDLE RIVER,2421221
30751,180695,-76.75,38.41,MARYLAND,MECHANICSVILLE,2420659
1212523,5511964,-79.33333,39.63333,MARYLAND,ACCIDENT,2421520
1136297,5297709,-75.4,38.1,MARYLAND,GIRDLETREE,2421829
1136297,5297710,-75.25,38.38333,MARYLAND,SHOWELL,2421811
30783,180745,-78.04,39.67,MARYLAND,PECKTONVILLE,2421711
30783,180746,-77.75,39.71,MARYLAND,(HGR)HAGERSTOWN RGNL,2421740
30783,180748,-77.72,39.64,MARYLAND,HAGERSTOWN,2421740
30783,180749,-77.72,39.64,MARYLAND,HAGERSTOWN,2421740
30783,180751,-77.71,39.68,MARYLAND,PARAMT,2421742
30783,180755,-77.32,39.53,MARYLAND,WOODSBORO,2421798
30783,180756,-77.01,39.58,MARYLAND,WESTMINSTER,2421157
30783,180757,-77.01,39.58,MARYLAND,WESTMINSTER,2421157
30783,180764,-76.54,39.53,MARYLAND,SWEET AIR,2421131
30783,180765,-76.42,39.62,MARYLAND,ROCKS,2421084
30783,180766,-76.49,39.61,MARYLAND,JARRETTSVILLE,2421084
30751,181392,-76.79,38.41,MARYLAND,BUDDS CREEK,2420659
1095276,5145550,-76.95,39.26667,MARYLAND,ELLICOTT CITY,2421042
1095276,5145551,-76.8,39.26667,MARYLAND,ELLICOTT CITY,2421043
1142320,5313054,-75.56667,38.36667,MARYLAND,SALISBURY,2421804
30845,181106,-76.82,38.8,MARYLAND,WESTPHALIA,2420772
30845,181109,-76.61,38.51,MARYLAND,BOWENS,2420678
30845,181111,-76.49,38.95,MARYLAND,ANNAPOLIS,2421403
30845,181124,-77.4439,39.4426,MARYLAND,FREDERICK,2421702
17126,99076,-76.73,39.39,MARYLAND,HOWARDVILLE,2421208
1189029,5450629,-76.75,38.91667,MARYLAND,MITCHELLVILLE,2420721
1189029,5450628,-76.9,38.8,MARYLAND,CAMP SPGS,2420762
1189029,5450627,-76.88333,38.8,MARYLAND,ANDREWS AFB,2420762
18477,108720,-76.45,39.3,MARYLAND,MIDDLE RIVER,2421221
1189029,5450626,-76.9,38.8,MARYLAND,CAMP SPGS,2420762
18469,108648,-77.55,39.7,MARYLAND,EDGEMONT,2421783
18469,108644,-77.58,39.66,MARYLAND,CAVETOWN,2421783
18469,108642,-77.71,39.49,MARYLAND,KEEDYSVILLE,2421756
18469,108637,-77.58,39.66,MARYLAND,CAVETOWN,2421783
30845,181102,-76.58,39.7,MARYLAND,WEST LIBERTY,2421161
117046,704123,-76.3104,38.9778,MARYLAND,STEVENSVILLE,2421666
50982,323590,-76.9123,38.7823,MARYLAND,WESTCHESTER ESTATES,2420735
18465,108576,-76.67,38.7,MARYLAND,DUNKIRK,2420754
18465,108575,-76.5063,38.4913,MARYLAND,KENWOOD BEACH,2420676
18465,108573,-78.72,39.58,MARYLAND,NORTH BRANCH,2421502
18465,108572,-78.72,39.57,MARYLAND,SPRING GAP,2421502
53987,341465,-75.95,39.6,MARYLAND,NORTH EAST,2421901
53987,341464,-76.07,39.57,MARYLAND,PERRYVILLE,2421903
53987,341463,-76.12,39.6,MARYLAND,PORT DEPOSIT,2421904
50982,323590,-76.8988,38.7824,MARYLAND,CLINTON,2420735
1189026,5450553,-76.78333,39.41667,MARYLAND,OWINGS MILLS,2421117
1189026,5450551,-76.65,39.38333,MARYLAND,RIDERWOOD,2421209
1189026,5450550,-76.53333,38.68333,MARYLAND,CHESAPEAKE BEACH,2420732
1189026,5450549,-76.9,38.76667,MARYLAND,CLINTON,2420735
1189026,5450547,-77.41667,39.15,MARYLAND,POOLESVILLE,2420837
117046,704123,-76.3485,38.9637,MARYLAND,STEVENSVILLE BAY ARP,2421666
30845,181101,-77.4,39.35,MARYLAND,LIME KILN,2421704
30845,181100,-77.75,39.6534,MARYLAND,FOUNTAIN HEAD,2421740
30845,181099,-77.6971,39.6243,MARYLAND,FUNKSTOWN,2421740
1095276,5145551,-76.83333,39.26667,MARYLAND,ELLICOTT CITY,2421042
1095276,5145552,-76.66667,39.2,MARYLAND,LINTHICUM HGTS,2421090
1142320,5313052,-75.48333000000001,38.36667,MARYLAND,SALISBURY,2421849
106636,640259,-76.53,38.69,MARYLAND,CHESAPEAKE BEACH,2420732
30824,180939,-77.05,39.62,MARYLAND,PLEASANT VLY,2421158
30824,180940,-76.94,38.97,MARYLAND,BERWYN,2420782
30824,180942,-76.89,39.54,MARYLAND,PATAPSCO,2421048
30824,180943,-76.89,39.5,MARYLAND,CEDARHURST,2421048
1095276,5145553,-76.51666999999999,39.16667,MARYLAND,RIVERA BEACH,2421122
1114979,5244849,-75.8,38.96667,MARYLAND,GREENSBORO,2421639
77991,470255,-76.9004,38.7045,MARYLAND,CRESTVIEW MANOR,2420613
77991,470255,-76.8894,38.7365,MARYLAND,CRESTVIEW MANOR,2420735
30837,180992,-76.44,39.34,MARYLAND,POPLAR,2421220
30837,181438,-76.3577,39.486999999999995,MARYLAND,BENSON,2421085
30837,181438,-76.3908,39.4871,MARYLAND,BAGLEY,2421047
30837,181441,-76.4433,39.3024,MARYLAND,(MTN)MARTIN ARPT BAL,2421221
30837,181441,-76.3647,39.2505,MARYLAND,LYNCH PT,
1217237,5522186,-75.78333,38.03333,MARYLAND,MARION,2421838
1217234,5522064,-75.6,38.36667,MARYLAND,SALISBURY,2421801
1141708,5314462,-77.2,39.28333,MARYLAND,DAMASCUS,2420872
30845,181091,-77.71,39.63,MARYLAND,FUNKSTOWN,2421740
30845,181090,-77.72,39.62,MARYLAND,FUNKSTOWN,2421740
30845,181089,-77.72,39.64,MARYLAND,HAGERSTOWN,2421740
30745,180361,-77.02,38.51,MARYLAND,PORT TOBACCO,2420677
30845,181088,-77.72,39.7,MARYLAND,(HGR)HAGERSTOWN RGNL,2421742
30845,181040,-77.42,39.38,MARYLAND,FREDERICK JCT,2421703
30845,181039,-77.4386,39.4164,MARYLAND,FREDERICK,2421702
30845,181038,-77.42,39.43,MARYLAND,FREDERICK,2421702
30845,181034,-77.57,39.51,MARYLAND,MYERSVILLE,2421773
30845,181028,-77.67,39.64,MARYLAND,SECURITY,2421742
30845,181024,-77.61,39.63,MARYLAND,PONDSVILLE,2421783
30845,181074,-77.25,39.29,MARYLAND,BROWNINGSVILLE,2420872
76346,461399,-77.3314,39.4911,MARYLAND,WALKERSVILLE,2421793
106633,640224,-77.01,38.6,MARYLAND,POMFRET,2420695
50982,301576,-76.902,38.81,MARYLAND,ANDREWS MANOR,2420746
67540,405808,-75.9,38.7,MARYLAND,PRESTON,2421655
67540,405809,-75.77,38.68,MARYLAND,FEDERALSBURG,2421632
76346,461404,-77.1256,39.5474,MARYLAND,NEW WINDSOR,2421776
26231,153698,-76.62,39.6,MARYLAND,BLUE MT,2421111
117501,706681,-77.0176,39.0274,MARYLAND,KEMP MILL,2420901
117501,706681,-77.0138,39.0284,MARYLAND,KEMP MILL,2420901
26231,153697,-76.23,39.6,MARYLAND,GLENVILLE,2421078
26231,153696,-77.62,39.6,MARYLAND,PONDSVILLE,2421742
76346,461408,-77.0066,39.5142,MARYLAND,SMALLWOOD,2421157
76346,462144,-76.5598,38.2414,MARYLAND,CHINGVILLE,2420650
76605,462189,-76.3697,38.1522,MARYLAND,DAMERON,2420628
76605,462165,-78.7025,39.5684,MARYLAND,SPRING GAP,2421555
88597,534188,-76.3881,39.585,MARYLAND,FOREST HILL,2421050
88597,534187,-76.358,39.586999999999996,MARYLAND,FOREST HILL,2421050
22584,132723,-75.85,37.99,MARYLAND,CRISFIELD,2421817
41036,239464,-76.3116,39.5637,MARYLAND,FOUNTAIN GREEN,2421015
1095275,5144751,-76.95,39.4,MARYLAND,ELDERSBURG,2421784
41036,239463,-76.3332,39.5695,MARYLAND,GIBSON,2421015
88597,534186,-76.3788,39.5385,MARYLAND,VALE,2421014
1115167,5247326,-75.73333000000001,38.36667,MARYLAND,QUANTICO,2421856
41036,239462,-76.301,39.5443,MARYLAND,FOUNTAIN GREEN,2421015
78081,470256,-76.182,39.628,MARYLAND,DARLINGTON,2421034
78081,470256,-76.169,39.632,MARYLAND,DARLINGTON,2421034
41024,239237,-76.8027,39.7194,MARYLAND,GUNPOWDER,2421102
41024,239230,-76.444,39.531,MARYLAND,SCARFF,2421047
41024,239229,-76.4556,39.5269,MARYLAND,SCARFF,2421047
41024,239228,-76.518,39.577,MARYLAND,TAYLOR,2421111
88597,534185,-76.3772,39.5536,MARYLAND,BYNUM,2421014
9644,54097,-78.83,39.6,MARYLAND,CRESAPTOWN,2421502
1134072,5293528,-75.68333,38.41667,MARYLAND,HEBRON,2421830
1095275,5144648,-76.85,39.66667,MARYLAND,MILLERS,2421102
1134072,5293530,-76.3,38.41667,MARYLAND,TAYLORS IS,
76346,461403,-77.2367,39.5186,MARYLAND,MC KINSTRYS,2421791
67540,405807,-76.2875,38.8166,MARYLAND,MC DANIEL,2421647
5305,31008,-76.9,38.77,MARYLAND,CLINTON,2420735
5302,31002,-76.9,38.48,MARYLAND,DENTSVILLE,2420646
5302,31002,-76.9,38.48,MARYLAND,DENTSVILLE,2420646
31923,188036,-76.46,39.52,MARYLAND,LAUREL BROOK,2421047
49405,289469,-79.35,39.55,MARYLAND,MC HENRY,2421541
64032,383478,-77.5155,39.3193,MARYLAND,MT VILLE,2421703
64032,383470,-77.4598,39.3071,MARYLAND,ADAMSTOWN,2421710
64032,383469,-77.5155,39.3193,MARYLAND,MT VILLE,2421703
64032,383468,-77.9311,39.6559,MARYLAND,CLEAR SPG,2421722
31923,188026,-76.33,39.55,MARYLAND,FOUNTAIN GREEN,2421014
31923,188019,-76.32,39.57,MARYLAND,GIBSON,2421015
52229,311420,-75.8,38.97,MARYLAND,GREENSBORO,2421639
31923,188017,-76.79,39.43,MARYLAND,BELLTOWN,2421117
31923,188013,-77.07,39.34,MARYLAND,LISBON,2421797
22584,132722,-75.86,37.98,MARYLAND,CRISFIELD,2421817
31923,188008,-76.37,38.15,MARYLAND,DAMERON,2420628
31918,189008,-76.25,39.47,MARYLAND,SEWELL,2421017
31918,187319,-76.89,39.49,MARYLAND,CEDARHURST,2421048
31903,187269,-76.84,38.26,MARYLAND,COBB IS,2420625
109774,656689,-75.08,38.36,MARYLAND,OCEAN CITY,2421842
109774,656690,-75.09,38.33,MARYLAND,WEST OCEAN CITY,
109774,656691,-75.09,38.34,MARYLAND,WEST OCEAN CITY,
109774,656691,-75.06,38.39,MARYLAND,OCEAN PINES,2421842
76346,461402,-77.2367,39.5186,MARYLAND,JOHNSVILLE,2421791
44476,258084,-76.45,39.1,MARYLAND,LAKE SHR,2421122
106633,640218,-77.16,39.07,MARYLAND,ROCKVILLE,2420854
56957,341164,-75.59,38.37,MARYLAND,SALISBURY,2421804
9165,51949,-77.58,39.65,MARYLAND,SMITHSBURG,2421783
105423,632299,-76.07,39.37,MARYLAND,BETTERTON,2421610
63502,394923,-76.06,39.7,MARYLAND,RISING SUN,2421911
31923,188005,-76.41,38.15,MARYLAND,ST INIGOES,2420684
1134072,5293530,-75.81667,38.35,MARYLAND,TAYLORS IS,2421856
1134072,5293531,-76.08333,38.45,MARYLAND,CHURCH CREEK,2421613
1136245,5297871,-76.26666999999999,39.46667,MARYLAND,ABINGDON,2421009
106633,640222,-77.08,39.09,MARYLAND,GLENMONT,2420853
1178240,5418009,-76.5,38.3,MARYLAND,CALIFORNIA,2420653
1178240,5418009,-76.45,38.28333,MARYLAND,CALIFORNIA,2420670
1178240,5418006,-77.41667,39.41667,MARYLAND,FREDERICK,2421701
1178240,5418005,-76.21667,39.48333,MARYLAND,ABERDEEN,2421017
1178240,5418004,-76.43333,38.28333,MARYLAND,(NHK)NAS PATUXENT RI,2420670
1178235,5417468,-76.83333,39.46667,MARYLAND,REISTERSTOWN,2421136
1178233,5417461,-77.58333,39.65,MARYLAND,SMITHSBURG,2421783
1178233,5417459,-77.28333,39.18333,MARYLAND,GERMANTOWN,2420874
1178229,5417454,-77.05,39.0,MARYLAND,SILVER SPG,2420910
1178229,5417453,-77.0,39.03333,MARYLAND,WHITE OAK,2420901
1178229,5417448,-76.96667,38.95,MARYLAND,HYATTSVILLE,2420712
1178229,5417389,-76.9,39.03333,MARYLAND,BELTSVILLE,2420705
1178229,5417388,-76.95,38.91667,MARYLAND,BLADENSBURG,
106633,640221,-77.15,39.08,MARYLAND,ROCKVILLE,2420850
1178229,5417387,-76.96667,38.95,MARYLAND,HYATTSVILLE,2420712
43927,255393,-77.0455,39.0664,MARYLAND,WHEATON HILLS,2420906
43927,255394,-76.8315,38.7861,MARYLAND,MEADOWS,2420772
1178229,5417385,-77.06667,39.06667,MARYLAND,GLENMONT,2420906
1178229,5417384,-76.48333000000001,39.31667,MARYLAND,ESSEX,2421221
43927,257038,-77.1829,39.4437,MARYLAND,UNIONVILLE,2421771
43927,257038,-77.1837,39.4403,MARYLAND,UNIONVILLE,2421771
50982,301573,-76.954,38.75,MARYLAND,FRIENDLY PG ARPK ARP,2420744
50982,301573,-76.959,38.746,MARYLAND,FRIENDLY PG ARPK ARP,2420744
50982,301576,-76.889,38.813,MARYLAND,ANDREWS MANOR,2420762
1141706,5314398,-76.63333,39.43333,MARYLAND,SOUTH PORTION,2421093
1141706,5314450,-76.9,38.8,MARYLAND,CAMP SPGS,2420762
55736,334224,-76.5034,39.2701,MARYLAND,DUNDALK,2421222
1141706,5314451,-76.95,39.4,MARYLAND,ELDERSBURG,2421784
55736,334223,-76.4813,39.306,MARYLAND,ESSEX,2421221
1160471,5368565,-77.11667,38.96667,MARYLAND,BETHESDA,2420816
1141705,5314392,-78.61667,39.7,MARYLAND,FLINTSTONE,2421530
1141704,5314390,-77.0,38.8,MARYLAND,OXON HILL,2420745
106633,640220,-77.07,38.63,MARYLAND,BRYANS ROAD,2420616
1134072,5293532,-75.76666999999999,38.35,MARYLAND,QUANTICO,2421856
1134072,5293532,-75.83333,38.33333,MARYLAND,QUANTICO,2421856
88597,534184,-76.429,39.535,MARYLAND,SCARFF,2421047
88597,534181,-76.682,38.279,MARYLAND,COMPTON,2420650
1136247,5297980,-76.9,38.4,MARYLAND,FAULKNER,2420622
1115163,5247312,-75.21667,38.31667,MARYLAND,BERLIN,2421811
1115163,5247311,-75.21667,38.31667,MARYLAND,BERLIN,2421811
1136247,5297980,-76.98333000000001,38.4,MARYLAND,FAULKNER,2420664
4626,40649,-75.83,39.6,MARYLAND,ELKTON,2421921
4626,40657,-76.17,38.98,MARYLAND,QUEENSTOWN,2421658
1115163,5247310,-75.73333000000001,38.36667,MARYLAND,QUANTICO,2421856
1115163,5247309,-75.7,38.2,MARYLAND,PRINCESS ANNE,2421853
1136297,5297708,-75.65,37.98333,MARYLAND,SHELLTOWN,2421838
1115163,5247307,-75.75,38.46667,MARYLAND,MARDELA SPGS,2421837
1115163,5247306,-76.25,38.55,MARYLAND,HUDSON,2421613
1148709,5347622,-76.93333,38.53333,MARYLAND,LA PLATA,2420646
1148709,5347621,-77.01666999999999,38.51667,MARYLAND,LA PLATA,2420646
106633,640219,-77.06,39.1,MARYLAND,LAYHILL,2420906
56957,341165,-75.59,38.37,MARYLAND,SALISBURY,2421804
104063,622534,-75.82,38.89,MARYLAND,DENTON,2421629
1095353,5144697,-75.83333,39.6,MARYLAND,ELKTON,2421921
1095392,5144748,-75.98333000000001,39.56667,MARYLAND,CHARLESTOWN,
1095420,5146394,-75.8,38.96667,MARYLAND,GREENSBORO,2421639
106633,640223,-77.06,39.1,MARYLAND,LAYHILL,2420906
1136253,5297995,-76.66667,39.05,MARYLAND,MILLERSVILLE,2421054
1190717,5451921,-76.56667,39.41667,MARYLAND,TOWSON,2421286
1136251,5297992,-77.28333,39.18333,MARYLAND,GERMANTOWN,2420874
1136249,5297988,-77.3,39.13333,MARYLAND,GAITHERSBURG,2420874
1136249,5297987,-77.41667,39.15,MARYLAND,POOLESVILLE,2420837
1115163,5247304,-75.85,38.46667,MARYLAND,VIENNA,2421869
1148709,5347255,-76.98333000000001,38.53333,MARYLAND,LA PLATA,2420646
1190717,5452479,-76.98333000000001,38.53333,MARYLAND,LA PLATA,2420646
1156660,5370081,-76.58333,38.35,MARYLAND,HOLLYWOOD,2420636
1133939,5292643,-76.48333000000001,38.46667,MARYLAND,LONG BEACH,2420685
4367,24613,-76.23,39.13,MARYLAND,ROCK HALL,2421661
1161908,5374674,-76.01666999999999,38.5,MARYLAND,BUCKTOWN,2421613
76234,459735,-76.755,38.223,MARYLAND,COLTON,2420626
1098300,5154106,-77.28333,39.18333,MARYLAND,GERMANTOWN,2420874
1123608,5270225,-76.83333,39.23333,MARYLAND,NORTH LAUREL,2421045
1123608,5270225,-76.88333,39.13333,MARYLAND,NORTH LAUREL,2420723
17914,104097,-76.74,38.96,MARYLAND,COLLINGTON,2420715
75534,455921,-78.097,39.694,MARYLAND,MOFFET,2421750
50329,323595,-77.1265,39.4449,MARYLAND,UNIONVILLE,2421771
50329,323595,-77.1476,39.4358,MARYLAND,UNIONVILLE,2421771
1135651,5300220,-75.91667,39.5,MARYLAND,TOWN PT,2421915
17914,104098,-76.859,38.9466,MARYLAND,LANHAM,2420706
1135651,5300220,-75.88333,39.5,MARYLAND,TOWN PT,2421915
17914,104105,-76.74,38.44,MARYLAND,MECHANICSVILLE,2420659
50329,323593,-77.1701,39.4474,MARYLAND,UNIONVILLE,2421771
32726,191190,-75.07,38.36,MARYLAND,OCEAN CITY,2421842
50329,323593,-77.2398,39.4144,MARYLAND,NEW LONDON,2421771
50329,301112,-77.0785,39.6483,MARYLAND,MAYBERRY,2421158
50329,301105,-77.0897,39.4595,MARYLAND,TAYLORSVILLE,2421157
50329,301105,-77.1265,39.4449,MARYLAND,COVER,2421771
76234,459735,-76.753,38.226,MARYLAND,COLTON,2420626
17914,108107,-76.9901,39.0333,MARYLAND,WHITE OAK,2420903
1135651,5300219,-75.95,39.43333,MARYLAND,EARLEVILLE,2421919
50329,301104,-77.2613,39.405,MARYLAND,NEW LONDON,2421774
1135651,5300219,-75.88333,39.45,MARYLAND,EARLEVILLE,2421919
17914,108107,-76.9958,39.0318,MARYLAND,WHITE OAK,2420901
50329,301104,-77.2431,39.4144,MARYLAND,NEW LONDON,2421774
1135651,5300218,-75.98333000000001,39.43333,MARYLAND,CRYSTAL BEACH,2421919
50848,300273,-76.6801,39.0321,MARYLAND,MILLERSVILLE,2421114
1095274,5144227,-77.3,39.1,MARYLAND,DARNESTOWN,2420874
50324,301096,-76.704,38.9729,MARYLAND,CONAWAYS,2420715
50329,301112,-76.9182,39.7204,MARYLAND,MELROSE,2421102
50324,301096,-76.694,38.977,MARYLAND,CROFTON,2421054
32726,191189,-75.07,38.36,MARYLAND,OCEAN CITY,2421842
16781,99097,-76.63,38.64,MARYLAND,HUNTINGTOWN,2420639
17914,104046,-76.56,38.7,MARYLAND,PARIS,2420736
1098303,5154486,-76.83333,39.1,MARYLAND,LAUREL,2420724
29844,186323,-76.0663,39.0454,MARYLAND,CENTREVILLE,2421617
32674,191532,-76.383,39.3253,MARYLAND,BOWLEYS QUARTERS,2421220
18756,132881,-76.2334,39.2179,MARYLAND,FAIRLEE,2421620
119383,718062,-76.4694,39.2662,MARYLAND,EDGEMERE,2421222
119383,718061,-76.4629,39.2962,MARYLAND,ESSEX,2421221
119372,717617,-77.1972,39.3424,MARYLAND,KEMPTOWN,2421771
119372,717615,-77.425,39.4344,MARYLAND,FREDERICK,2421702
119363,716571,-76.7058,39.3615,MARYLAND,PIKESVILLE,2421215
119362,716538,-76.3931,39.3443,MARYLAND,CHASE,2421220
75528,455884,-76.946,38.727,MARYLAND,FRIENDLY PG ARPK ARP,2420735
50301,302268,-76.704,39.599000000000004,MARYLAND,EVNA,2421120
1098303,5154486,-76.81667,39.1,MARYLAND,LAUREL,2420724
1098300,5154107,-77.05,39.0,MARYLAND,SILVER SPG,2420910
1098303,5154483,-77.0,39.08333,MARYLAND,COLESVILLE,2420904
1098303,5154482,-77.06667,39.08333,MARYLAND,GLENMONT,2420906
1098302,5154475,-77.35,39.13333,MARYLAND,DAWSONVILLE,2420837
1098301,5154473,-76.5,38.96667,MARYLAND,ANNAPOLIS,2421403
50301,302273,-76.618,38.294000000000004,MARYLAND,LEONARDTOWN,2420650
50301,302273,-76.666,38.263000000000005,MARYLAND,ABELLS WHARF,2420650
32702,191119,-76.0,38.31,MARYLAND,ELLIOTT,2421869
32702,191119,-75.9952,38.3105,MARYLAND,ELLIOTT,2421869
50301,302277,-76.439,38.38,MARYLAND,BERTHA,2420657
50301,302277,-76.465,38.366,MARYLAND,APPEAL,2420657
1100568,5154863,-76.06667,38.3,MARYLAND,TODDVILLE,2421672
89079,536778,-76.5178,39.3735,MARYLAND,FULLERTON,2421234
1095274,5144222,-77.15,39.56667,MARYLAND,UNION BRIDGE,2421791
1095274,5144224,-77.0,39.58333,MARYLAND,WESTMINSTER,2421157
75534,455920,-78.1549,39.7029,MARYLAND,HANCOCK,2421750
1098303,5154482,-77.0,39.1,MARYLAND,GLENMONT,2420905
87769,529538,-76.6923,39.2426,MARYLAND,HALETHORPE,2421227
50848,300274,-77.4944,39.1639,MARYLAND,WHITES FERRY,2420842
50324,301094,-76.71600000000001,38.968,MARYLAND,COLLINGTON,2420715
95522,573923,-77.99,39.67,MARYLAND,INDIAN SPGS,2421711
95522,573922,-76.68,38.51,MARYLAND,BENEDICT,2420612
29945,186458,-76.07,38.77,MARYLAND,EASTON,2421601
1137311,5300581,-76.2,39.3,MARYLAND,MELITOTA,
1137311,5300581,-75.83333,39.3,MARYLAND,MELITOTA,2421635
1137337,5300651,-75.78333,39.03333,MARYLAND,GOLDSBORO,2421636
1137338,5300652,-75.76666999999999,39.13333,MARYLAND,TEMPLEVILLE,2421649
17930,106851,-76.53,39.47,MARYLAND,LONG GREEN,2421131
76234,459751,-76.593,39.262,MARYLAND,SPARROWS PT,2421230
17930,106852,-77.16,39.37,MARYLAND,MT AIRY,2421771
17930,106856,-77.36,39.36,MARYLAND,REELS MILL,2421704
1197636,5473171,-76.06667,38.76667,MARYLAND,EASTON,2421601
63238,396342,-76.1,39.67,MARYLAND,COLORA,2421917
76234,459751,-76.593,39.265,MARYLAND,SPARROWS PT,2421230
1136243,5297698,-76.8,39.26667,MARYLAND,ELLICOTT CITY,2421043
17930,106858,-76.4605,39.5654,MARYLAND,UPPER XRDS,2421084
89143,537166,-76.542,39.128,MARYLAND,GREEN HAVEN,2421122
89143,537160,-76.6352,39.1166,MARYLAND,DELMONT,2421108
17930,106859,-76.38,39.58,MARYLAND,FOREST HILL,2421050
16781,99277,-76.7055,38.9416,MARYLAND,DAVIDSONVILLE,2420716
16781,99276,-76.61,38.83,MARYLAND,LOTHIAN,2420711
16781,99103,-76.57,38.35,MARYLAND,HOLLYWOOD,2420636
17934,107693,-76.63,38.4,MARYLAND,SANDGATES,2420659
16781,99102,-76.85,38.7,MARYLAND,BRANDYWINE,2420613
17930,106861,-77.17,39.06,MARYLAND,ROCKVILLE,2420854
16781,99101,-76.86,38.75,MARYLAND,CHELTENHAM,2420735
1095274,5144225,-76.88333,39.66667,MARYLAND,MANCHESTER,2421102
17934,107692,-76.65,38.36,MARYLAND,OAKVILLE,2420659
28482,167636,-75.56,38.07,MARYLAND,POCOMOKE CITY,2421851
16781,99096,-76.69,38.76,MARYLAND,PINDELL,2420711
89144,537183,-77.484,39.7106,MARYLAND,HIGH FIELD,2421719
50848,300279,-77.1942,39.2369,MARYLAND,CEDAR GROVE,2420882
95522,573925,-76.93,39.11,MARYLAND,BURTONSVILLE,2420866
17930,106847,-76.63,39.42,MARYLAND,LUTHERVILLE,2421093
50324,301094,-76.704,38.9729,MARYLAND,COLLINGTON,2420715
1135559,5299851,-75.95,39.7,MARYLAND,RISING SUN,2421911
1135559,5299851,-76.0,39.65,MARYLAND,RISING SUN,2421911
50324,301093,-76.8899,38.6534,MARYLAND,MATTAWOMAN,2420601
118451,711827,-76.6417,38.3123,MARYLAND,LEONARDTOWN,2420650
1136243,5297692,-77.16667,39.11667,MARYLAND,DERWOOD,2420855
57194,342670,-76.561,38.3,MARYLAND,LNRDTWN ST MARYS ARP,2420619
57194,342670,-76.51100000000001,38.33,MARYLAND,CALIFORNIA,2420619
1123608,5270224,-76.98333000000001,38.93333,MARYLAND,HYATTSVILLE,
1136243,5297693,-77.06667,39.15,MARYLAND,OLNEY,2420832
1136243,5297694,-77.06667,39.18333,MARYLAND,BROOKEVILLE,2420833
1136243,5297695,-76.88333,39.2,MARYLAND,CLARKSVILLE,2421044
1136243,5297697,-76.85,39.23333,MARYLAND,COLUMBIA,2421044
1123608,5270224,-76.85,39.1,MARYLAND,HYATTSVILLE,2420707
17930,106850,-76.6197,39.4373,MARYLAND,TIMONIUM,2421093
118645,712827,-77.1414,39.2112,MARYLAND,LAYTONSVILLE,2420882
118451,711828,-76.5602,38.2414,MARYLAND,CHINGVILLE,2420650
50324,301093,-76.8901,38.6521,MARYLAND,MATTAWOMAN,2420601
1095274,5144226,-77.2,39.28333,MARYLAND,DAMASCUS,2420872
1209583,5506791,-79.23333000000001,39.45,MARYLAND,SWANTON,2421561
1136243,5297699,-76.61667,39.3,MARYLAND,BALTIMORE,2421201
46550,269821,-76.9447,38.6553,MARYLAND,BERRY,2420601
46550,269821,-76.9655,38.6262,MARYLAND,BERRY,2420603
17924,105157,-76.95,39.02,MARYLAND,ADELPHI,2420740
17930,106844,-76.63,39.48,MARYLAND,COCKEYSVILLE,2421030
17930,106846,-76.64,39.5,MARYLAND,ASHLAND,2421030
16767,98691,-76.9438,38.768,MARYLAND,CLINTON HYDE FLD ARP,2420744
16767,98692,-76.9141,38.8317,MARYLAND,WOODS CORNER,2420746
16767,98692,-76.9101,38.8378,MARYLAND,BERKSHIRE,2420746
16781,99095,-76.55,38.96,MARYLAND,EDGEWATER,2421037
16767,98691,-76.9448,38.7758,MARYLAND,CLINTON HYDE FLD ARP,2420744
29838,174670,-75.1,38.34,MARYLAND,WEST OCEAN CITY,2421842
16781,99098,-76.59,38.55,MARYLAND,STOAKLEY,2420678
87765,529509,-77.5,39.46,MARYLAND,BRADDOCK HGTS,2421769
29838,174667,-75.35,38.39,MARYLAND,WILLARDS,2421874
32658,190911,-76.54,39.09,MARYLAND,EARLEIGH HGTS,2421146
29838,174664,-75.49,38.39,MARYLAND,CHESAPEAKE HGTS,2421849
29838,174663,-75.47,38.39,MARYLAND,PARSONBURG,2421849
29838,174662,-75.59,38.37,MARYLAND,SALISBURY,2421804
32674,191513,-77.25,39.34,MARYLAND,FOUNTAIN MILLS,2421770
32672,190946,-76.66,38.28,MARYLAND,ABELLS WHARF,2420650
32672,190948,-76.66,38.27,MARYLAND,ABELLS WHARF,2420650
96600,580942,-76.45,38.26,MARYLAND,LEXINGTON PARK,2420653
29838,174668,-75.07,38.36,MARYLAND,OCEAN CITY,2421842
7253,41728,-76.08,38.56,MARYLAND,CAMBRIDGE,2421613
1156659,5370697,-76.73333000000001,38.43333,MARYLAND,OAKVILLE,2420659
1156659,5370693,-76.8,38.45,MARYLAND,PORT TOBACCO,2420659
1156659,5370693,-76.78333,38.45,MARYLAND,PORT TOBACCO,2420659
1095274,5144222,-77.18333,39.56667,MARYLAND,UNION BRIDGE,2421791
1095274,5144221,-77.41667,39.41667,MARYLAND,FREDERICK,2421701
17908,103968,-76.69,38.27,MARYLAND,COMPTON,2420650
29830,174620,-75.7,38.41,MARYLAND,HEBRON,2421830
32672,190947,-76.69,38.28,MARYLAND,COMPTON,2420650
96600,580936,-76.45,38.26,MARYLAND,LEXINGTON PARK,2420653
29838,174661,-75.87,38.63,MARYLAND,HURLOCK,2421643
50301,302268,-76.705,39.598,MARYLAND,EVNA,2421120
89061,536715,-77.1121,39.5401,MARYLAND,NEW WINDSOR,2421776
29794,186317,-76.0959,39.6723,MARYLAND,COLORA,2421917
87765,529505,-77.6006,39.513000000000005,MARYLAND,MYERSVILLE,2421773
17914,104046,-76.5339,38.6878,MARYLAND,CHESAPEAKE BEACH,2420732
32653,190890,-77.25,39.63,MARYLAND,KEYSVILLE,2421757
87765,529503,-77.6081,39.6046,MARYLAND,PONDSVILLE,2421742
1197311,5469705,-78.61667,39.55,MARYLAND,OLDTOWN,2421555
87769,529536,-76.61,39.33,MARYLAND,MT ROYAL,2421218
29830,174618,-75.89,38.43,MARYLAND,DRAWBRIDGE,2421869
1136243,5297690,-77.2,39.13333,MARYLAND,GAITHERSBURG,2420877
46037,268758,-76.5651,39.3721,MARYLAND,PARKVILLE,2421234
29838,174669,-75.15,38.38,MARYLAND,OCEAN PINES,2421811
32674,191530,-76.81,39.46,MARYLAND,GLYNDON,2421136
1136243,5297691,-77.15,39.08333,MARYLAND,ROCKVILLE,2420850
