EPISODE_ID,EVENT_ID,LONGITUDE,LATITUDE,STATE,LOCATION,ZIPCODE
98636,592917,-70.93,42.53,MASSACHUSETTS,PEABODY,2501960
31782,186642,-71.42,42.68,MASSACHUSETTS,TYNGSBORO,2501879
117373,705874,-71.81,42.27,MASSACHUSETTS,WORCESTER,2501609
1137892,5306187,-73.25,42.33333,MASSACHUSETTS,LENOX DALE,2501242
9022,51338,-71.57,42.62,MASSACHUSETTS,GROTON,2501450
98636,592918,-70.93,42.58,MASSACHUSETTS,(BVY)BEVERLY MUNI AR,2501923
6465,37615,-73.1,42.7,MASSACHUSETTS,NORTH ADAMS,2501247
31782,186643,-71.44,42.31,MASSACHUSETTS,SAXONVILLE,2501701
31782,186645,-71.62,42.27,MASSACHUSETTS,WESTBOROUGH,2501581
9022,51337,-71.7,42.67,MASSACHUSETTS,TOWNSEND,2501469
54232,325245,-73.37,42.35,MASSACHUSETTS,RICHMOND FURNACE,2501266
9197,52828,-73.02,42.57,MASSACHUSETTS,SAVOY,2501256
98636,592920,-72.93,42.18,MASSACHUSETTS,BLANDFORD,2501008
98636,592919,-70.93,42.53,MASSACHUSETTS,PEABODY,2501960
64695,403606,-71.02,42.47,MASSACHUSETTS,SAUGUS IRON WORKS NH,2501906
1136600,5297160,-72.76666999999999,42.05,MASSACHUSETTS,SOUTHWICK,2501077
1137895,5305277,-73.2,42.71667,MASSACHUSETTS,NEW ASHFORD,2501267
9197,52824,-73.12,42.63,MASSACHUSETTS,ADAMS,2501220
1211814,5512411,-71.75,42.43333,MASSACHUSETTS,STERLING,2501564
43844,254725,-72.6,42.55,MASSACHUSETTS,DEERFIELD,2501342
43844,254727,-72.2,42.35,MASSACHUSETTS,HARDWICK,2501037
27669,162528,-72.9,42.7,MASSACHUSETTS,ROWE,2501367
64695,403609,-71.35,42.28,MASSACHUSETTS,NATICK,2501760
43844,254728,-71.9,42.25,MASSACHUSETTS,LEICESTER,2501524
1211814,5512411,-71.78333,42.36667,MASSACHUSETTS,STERLING,2501583
1211814,5508564,-70.9,42.51667,MASSACHUSETTS,SALEM,2501970
1211814,5508561,-71.1,42.11667,MASSACHUSETTS,STOUGHTON,2502072
64695,403607,-72.03,42.08,MASSACHUSETTS,SOUTHBRIDGE,2501550
19327,113980,-71.1385,41.9517,MASSACHUSETTS,WINNECONNET,2502780
1101822,5169878,-71.1,42.03333,MASSACHUSETTS,NORTON,2502375
1101822,5169878,-71.18333,41.96667,MASSACHUSETTS,NORTON,2502766
1101819,5169871,-71.98333000000001,42.56667,MASSACHUSETTS,GARDNER,2501440
9033,51392,-71.52,42.22,MASSACHUSETTS,HOPKINTON,2501748
9032,51391,-72.13,42.32,MASSACHUSETTS,NEW BRAINTREE,2501531
1137895,5305279,-73.1,42.7,MASSACHUSETTS,NORTH ADAMS,2501247
1137895,5305278,-73.11667,42.63333,MASSACHUSETTS,ADAMS,2501220
54851,329577,-72.54,42.54,MASSACHUSETTS,MONTAGUE STATION,2501351
9032,51391,-72.1093,42.3353,MASSACHUSETTS,NEW BRAINTREE,2501531
19327,113978,-70.82,42.12,MASSACHUSETTS,HANOVER,2502339
98633,592904,-71.71,42.07,MASSACHUSETTS,EAST DOUGLAS,2501516
1137895,5305277,-73.23333000000001,42.6,MASSACHUSETTS,NEW ASHFORD,2501237
31782,186641,-71.62,42.27,MASSACHUSETTS,WESTBOROUGH,2501581
9197,52822,-73.11,42.69,MASSACHUSETTS,NORTH ADAMS,2501247
9197,52826,-73.12,42.63,MASSACHUSETTS,ADAMS,2501220
21585,127670,-71.2348,41.7217,MASSACHUSETTS,SOUTH SWANSEA,
117373,705876,-71.23,42.62,MASSACHUSETTS,TEWKSBURY,2501876
31782,186632,-71.8,42.27,MASSACHUSETTS,WORCESTER,2501608
10565,58717,-72.77,42.05,MASSACHUSETTS,SOUTHWICK,2501077
1135085,5294841,-71.98333000000001,42.56667,MASSACHUSETTS,GARDNER,2501440
10557,58686,-72.93,42.42,MASSACHUSETTS,WORTHINGTON CORNERS,2501098
64695,403605,-70.96,42.47,MASSACHUSETTS,LYNN,2501904
64695,403603,-70.99,42.42,MASSACHUSETTS,REVERE,2502151
5818,34078,-73.02,42.08,MASSACHUSETTS,TOLLAND,2501034
75838,463790,-71.14,42.66,MASSACHUSETTS,SHAWSHEEN VLG,2501810
75847,460040,-72.6,42.59,MASSACHUSETTS,GREENFIELD,2501301
1211823,5512496,-71.75,42.43333,MASSACHUSETTS,STOUGHTON,2501564
10557,58685,-72.68,42.52,MASSACHUSETTS,CONWAY,2501341
75847,460041,-72.56,42.6,MASSACHUSETTS,TURNERS FALLS,2501376
1099392,5162716,-70.73333000000001,42.2,MASSACHUSETTS,SCITUATE,2502066
1211823,5512496,-71.88333,42.05,MASSACHUSETTS,STOUGHTON,2501570
1099392,5163823,-71.7,42.66667,MASSACHUSETTS,TOWNSEND,2501469
1211823,5512498,-71.21667,42.35,MASSACHUSETTS,SALEM,2502465
7780,44831,-72.67,42.1,MASSACHUSETTS,WEST SPRINGFIELD,2501089
75847,460042,-72.5,42.45,MASSACHUSETTS,LEVERETT,2501054
75847,460043,-72.54,42.12,MASSACHUSETTS,EAST SPRINGFIELD,2501109
75847,460044,-70.96,42.64,MASSACHUSETTS,TOPSFIELD,2501983
1135082,5294747,-72.93333,42.41667,MASSACHUSETTS,WORTHINGTON CORNERS,2501098
1135080,5294742,-71.55,42.35,MASSACHUSETTS,MARLBOROUGH,2501752
1135080,5294742,-71.56667,42.4,MASSACHUSETTS,MARLBOROUGH,2501749
1135080,5294741,-71.63333,42.31667,MASSACHUSETTS,NORTHBOROUGH,2501532
1135080,5294740,-71.51666999999999,42.3,MASSACHUSETTS,SOUTHBOROUGH,2501772
1135080,5294739,-71.28333,42.25,MASSACHUSETTS,DOVER,2502030
1211823,5512498,-71.41667,42.28333,MASSACHUSETTS,SALEM,2501702
75847,460045,-70.95,42.57,MASSACHUSETTS,HAWTHORNE,2501923
10565,58718,-72.48,42.17,MASSACHUSETTS,LUDLOW,2501056
117373,709387,-71.0163,42.5946,MASSACHUSETTS,MIDDLETON,2501949
115945,697634,-72.68,42.52,MASSACHUSETTS,CONWAY,2501341
115945,697637,-72.56,42.33,MASSACHUSETTS,HADLEY,2501035
31782,186632,-71.83,42.2,MASSACHUSETTS,AUBURN,2501501
31782,186629,-72.92,42.2,MASSACHUSETTS,BLANDFORD,2501008
31782,186629,-72.88,42.28,MASSACHUSETTS,LITTLEVILLE,2501050
31782,186628,-72.9,42.7,MASSACHUSETTS,ROWE,2501367
54232,325246,-73.32,42.29,MASSACHUSETTS,STOCKBRIDGE,2501262
117373,705875,-71.6,42.43,MASSACHUSETTS,BOLTON,2501740
10565,58719,-70.5,41.76,MASSACHUSETTS,SANDWICH,2502563
31799,186754,-71.65,42.31,MASSACHUSETTS,NORTHBOROUGH,2501532
115945,697638,-72.54,42.12,MASSACHUSETTS,EAST SPRINGFIELD,2501109
117373,705877,-71.5,42.43,MASSACHUSETTS,STOW,2501775
77453,469573,-72.3524,42.3308,MASSACHUSETTS,BACONVILLE,2501007
77453,469573,-72.3534,42.3305,MASSACHUSETTS,BACONVILLE,2501007
54232,325247,-73.26,42.45,MASSACHUSETTS,PITTSFIELD,2501201
1137892,5306186,-73.33333,42.33333,MASSACHUSETTS,WEST STOCKBRIDGE,2501266
54232,325289,-73.084,42.33,MASSACHUSETTS,BECKET,2501223
1099392,5162714,-70.73333000000001,42.2,MASSACHUSETTS,SCITUATE,2502066
77453,469265,-71.23,42.28,MASSACHUSETTS,NEEDHAM,2502492
117373,705878,-71.56,42.39,MASSACHUSETTS,HUDSON,2501749
117373,705879,-71.27,42.55,MASSACHUSETTS,BILLERICA,2501821
117373,705880,-71.23,42.62,MASSACHUSETTS,TEWKSBURY,2501876
1178188,5417887,-73.2,42.71667,MASSACHUSETTS,WILLIAMSTOWN,2501267
117373,705881,-71.87,42.05,MASSACHUSETTS,WEBSTER,2501570
117373,706074,-71.99,42.24,MASSACHUSETTS,SPENCER,2501562
117373,706075,-71.9,42.25,MASSACHUSETTS,LEICESTER,2501524
1178187,5417886,-73.25,42.45,MASSACHUSETTS,PITTSFIELD,2501201
117373,709382,-71.2309,42.6107,MASSACHUSETTS,TEWKSBURY,2501876
117373,709384,-70.9353,42.5288,MASSACHUSETTS,PEABODY,2501960
31780,186612,-72.4874,42.0861,MASSACHUSETTS,EAST LONGMEADOW,2501028
1099392,5162709,-71.15,42.35,MASSACHUSETTS,BRIGHTON,2502135
19856,117810,-72.33,42.5,MASSACHUSETTS,NEW SALEM,2501355
19391,115826,-73.11,42.69,MASSACHUSETTS,NORTH ADAMS,2501247
1099392,5162707,-71.21667,42.35,MASSACHUSETTS,NEWTON,2502465
7786,44864,-72.68,42.52,MASSACHUSETTS,CONWAY,2501341
7786,44864,-72.6,42.55,MASSACHUSETTS,DEERFIELD,2501342
1099392,5162705,-70.91667,42.56667,MASSACHUSETTS,DANVERS,2501923
64695,403625,-71.27,41.83,MASSACHUSETTS,REHOBOTH,2502769
7786,44862,-72.6,42.6,MASSACHUSETTS,GREENFIELD,2501301
64695,403621,-71.44,42.31,MASSACHUSETTS,SAXONVILLE,2501701
64695,403620,-71.6,42.08,MASSACHUSETTS,LINWOOD,2501569
64695,403619,-71.87,42.12,MASSACHUSETTS,OXFORD,2501540
64695,403617,-70.99,42.42,MASSACHUSETTS,REVERE,2502151
100249,600537,-71.12,42.31,MASSACHUSETTS,FOREST HILLS,2502130
64695,403615,-71.44,42.31,MASSACHUSETTS,SAXONVILLE,2501701
55611,347334,-70.93,42.08,MASSACHUSETTS,WHITMAN,2502382
55611,347333,-70.84,42.56,MASSACHUSETTS,PRIDES CROSSING,2501915
1119889,5258408,-71.18333,42.71667,MASSACHUSETTS,LAWRENCE,2501841
7783,44852,-72.1,42.42,MASSACHUSETTS,BARRE,2501005
115945,697654,-72.62,42.07,MASSACHUSETTS,AGAWAM,2501001
7783,44851,-72.33,42.5,MASSACHUSETTS,NEW SALEM,2501355
1116140,5249789,-72.9,42.46667,MASSACHUSETTS,PLAINFIELD,2501026
41378,241200,-71.77,42.15,MASSACHUSETTS,SUTTON,2501590
115945,697657,-72.5743,42.2326,MASSACHUSETTS,SOUTH HADLEY FALLS,2501075
115945,697658,-72.87,42.07,MASSACHUSETTS,GRANVILLE,2501034
1099392,5162705,-70.86667,42.48333,MASSACHUSETTS,DANVERS,2501945
41378,241200,-71.65,42.15,MASSACHUSETTS,NORTHBRIDGE,2501534
7780,44838,-71.7,42.67,MASSACHUSETTS,TOWNSEND,2501469
115945,697652,-72.65,42.12,MASSACHUSETTS,WEST SPRINGFIELD,2501089
7780,44834,-71.8,42.58,MASSACHUSETTS,FITCHBURG,2501420
1136603,5302852,-71.51666999999999,42.15,MASSACHUSETTS,MILFORD,2501757
7790,44873,-72.13,42.55,MASSACHUSETTS,PHILLIPSTON,2501331
115945,697659,-72.4,42.27,MASSACHUSETTS,BELCHERTOWN,2501007
7790,44874,-70.77,41.88,MASSACHUSETTS,CARVER,2502330
7792,44877,-71.75,42.53,MASSACHUSETTS,LEOMINSTER,2501453
1136595,5297151,-71.3,42.66667,MASSACHUSETTS,DRACUT,2501826
1136595,5297150,-71.98333000000001,42.56667,MASSACHUSETTS,GARDNER,2501440
1099392,5162703,-71.16667,42.55,MASSACHUSETTS,WILMINGTON,2501887
64695,404372,-71.277,41.88,MASSACHUSETTS,DODGEVILLE,2502769
21313,125971,-72.57,42.18,MASSACHUSETTS,WILLIMANSETT,2501020
21313,125972,-72.57,42.18,MASSACHUSETTS,WILLIMANSETT,2501020
115945,697655,-72.67,42.34,MASSACHUSETTS,FLORENCE,2501062
1136600,5297161,-71.51666999999999,42.15,MASSACHUSETTS,SPENCER,2501757
64695,403627,-71.09,41.9,MASSACHUSETTS,TAUNTON,2502780
115945,697656,-72.53,42.26,MASSACHUSETTS,GRANBY,2501033
64695,403626,-71.09,41.9,MASSACHUSETTS,TAUNTON,2502780
117373,705863,-72.62,42.07,MASSACHUSETTS,AGAWAM,2501001
117373,705864,-72.65,42.12,MASSACHUSETTS,WEST SPRINGFIELD,2501089
89686,539935,-71.77,42.26,MASSACHUSETTS,TURNPIKE,2501604
1099392,5162704,-71.5,42.43333,MASSACHUSETTS,STOW,2501775
89686,539935,-71.8,42.24,MASSACHUSETTS,SOUTH WORCESTER,2501607
64695,404372,-71.209,41.873000000000005,MASSACHUSETTS,NORTH REHOBOTH,2502769
64695,404373,-71.13600000000001,41.863,MASSACHUSETTS,NORTH DIGHTON,2502764
64695,404373,-71.127,41.824,MASSACHUSETTS,DIGHTON,2502715
1099392,5162702,-71.43333,42.58333,MASSACHUSETTS,WESTFORD,2501886
1136600,5297161,-71.98333000000001,42.25,MASSACHUSETTS,SPENCER,2501562
100249,600561,-71.05,42.41,MASSACHUSETTS,EAST EVERETT,2502149
1099392,5162701,-71.7,42.66667,MASSACHUSETTS,TOWNSEND,2501469
64695,404374,-71.23,41.831,MASSACHUSETTS,REHOBOTH,2502769
64695,404375,-71.14399999999999,41.836999999999996,MASSACHUSETTS,SEGREGANSET,2502715
64695,404376,-71.097,41.867,MASSACHUSETTS,WEIR VLG,2502779
64695,404377,-71.23899999999999,41.875,MASSACHUSETTS,NORTH REHOBOTH,2502769
7792,44876,-71.5,42.53,MASSACHUSETTS,LITTLETON,2501460
1099392,5162708,-71.23333000000001,42.28333,MASSACHUSETTS,NEEDHAM,2502492
115945,697660,-72.76,42.14,MASSACHUSETTS,WESTFIELD,2501085
115945,697662,-72.76,42.14,MASSACHUSETTS,WESTFIELD,2501085
129188,774224,-71.8907,42.0456,MASSACHUSETTS,WEBSTER,2501571
117373,705868,-72.54,42.12,MASSACHUSETTS,EAST SPRINGFIELD,2501109
1097210,5152627,-72.33333,42.16667,MASSACHUSETTS,PALMER,2501069
117373,705869,-72.44,42.14,MASSACHUSETTS,NORTH WILBRAHAM,2501095
17756,102761,-73.27,42.22,MASSACHUSETTS,HARTSVILLE,2501245
1211814,5508558,-71.21667,42.35,MASSACHUSETTS,FRAMINGHAM,2502465
117373,705870,-71.56,42.39,MASSACHUSETTS,HUDSON,2501749
117373,705871,-71.99,42.24,MASSACHUSETTS,SPENCER,2501562
117373,705872,-71.9,42.25,MASSACHUSETTS,LEICESTER,2501524
117373,705873,-71.69,42.42,MASSACHUSETTS,CLINTON,2501510
115945,697646,-72.5,42.45,MASSACHUSETTS,LEVERETT,2501054
115945,697644,-72.68,42.33,MASSACHUSETTS,BAY STATE,2501062
115945,697641,-72.72,42.4,MASSACHUSETTS,WILLIAMSBURG,2501096
31799,186763,-71.0,41.57,MASSACHUSETTS,DARTMOUTH,2502748
31799,186762,-71.2264,41.9493,MASSACHUSETTS,CHARTLEY,2502766
64695,403612,-71.29,41.94,MASSACHUSETTS,ATTLEBORO,2502703
64695,403612,-71.25399999999999,41.891999999999996,MASSACHUSETTS,NORTH REHOBOTH,2502769
31799,186761,-71.1383,41.9389,MASSACHUSETTS,OAKLAND,2502780
64695,403628,-71.09,41.9,MASSACHUSETTS,TAUNTON,2502780
19391,115828,-73.25,42.34,MASSACHUSETTS,LENOX DALE,2501242
31799,186760,-71.22,42.02,MASSACHUSETTS,MANSFIELD,2502048
31799,186759,-71.33,42.07,MASSACHUSETTS,WRENTHAM,2502093
64695,403610,-71.24,42.28,MASSACHUSETTS,NEEDHAM,2502492
19391,115830,-73.25,42.31,MASSACHUSETTS,LEE,2501238
31799,186756,-72.92,42.52,MASSACHUSETTS,PLAINFIELD,2501070
1211823,5512491,-72.51666999999999,42.38333,MASSACHUSETTS,FRAMINGHAM,2501002
31799,186755,-71.52,42.22,MASSACHUSETTS,HOPKINTON,2501748
117373,705867,-72.44,42.14,MASSACHUSETTS,NORTH WILBRAHAM,2501095
115945,697661,-72.62,42.07,MASSACHUSETTS,AGAWAM,2501001
1097210,5152626,-72.7,42.35,MASSACHUSETTS,LEEDS,2501053
1097210,5152624,-72.63333,42.31667,MASSACHUSETTS,NORTHAMPTON,2501060
1136603,5302853,-71.3,42.18333,MASSACHUSETTS,MEDFIELD,2502052
55611,347332,-70.93,42.53,MASSACHUSETTS,PEABODY,2501960
115945,697651,-72.76,42.14,MASSACHUSETTS,WESTFIELD,2501085
115945,697663,-72.77,42.05,MASSACHUSETTS,SOUTHWICK,2501077
115945,697664,-72.76,42.14,MASSACHUSETTS,WESTFIELD,2501085
115945,697665,-72.76,42.14,MASSACHUSETTS,WESTFIELD,2501085
43573,253626,-72.88,42.57,MASSACHUSETTS,HAWLEY,2501339
115945,697667,-72.7,42.1159,MASSACHUSETTS,WEST SPRINGFIELD,2501085
115945,697667,-72.6991,42.1503,MASSACHUSETTS,(BAF)BARNES ARPT WST,2501085
115945,697668,-72.76,42.14,MASSACHUSETTS,WESTFIELD,2501085
115945,697669,-72.72,42.4,MASSACHUSETTS,WILLIAMSBURG,2501096
43575,253635,-71.0,42.83,MASSACHUSETTS,MERRIMAC,2501860
43575,253639,-71.77,42.52,MASSACHUSETTS,WHALOM,2501453
7780,44833,-72.58,42.13,MASSACHUSETTS,CHICOPEE,2501104
115945,697650,-72.57,42.18,MASSACHUSETTS,WILLIMANSETT,2501020
7780,44832,-71.98,42.57,MASSACHUSETTS,GARDNER,2501440
115945,697649,-72.8,42.2,MASSACHUSETTS,MONTGOMERY,2501085
64695,403614,-71.02,42.47,MASSACHUSETTS,SAUGUS IRON WORKS NH,2501906
115945,697648,-72.68,42.27,MASSACHUSETTS,EASTHAMPTON,2501027
1211814,5508558,-71.41667,42.28333,MASSACHUSETTS,FRAMINGHAM,2501702
115945,697647,-72.68,42.33,MASSACHUSETTS,BAY STATE,2501062
1211814,5512490,-71.88333,42.05,MASSACHUSETTS,WEBSTER,2501570
100249,600522,-71.1,42.39,MASSACHUSETTS,INMAN SQUARE,2502145
1097210,5152624,-72.4,42.28333,MASSACHUSETTS,NORTHAMPTON,2501007
129188,774224,-71.885,42.0509,MASSACHUSETTS,WEBSTER,2501571
100249,600521,-71.24,42.38,MASSACHUSETTS,BLEACHERY,2502451
117373,705865,-72.57,42.05,MASSACHUSETTS,LONGMEADOW,2501106
117373,705866,-72.54,42.12,MASSACHUSETTS,EAST SPRINGFIELD,2501109
40726,237063,-70.95,41.85,MASSACHUSETTS,LAKEVILLE,2502347
19765,117369,-71.15,42.45,MASSACHUSETTS,WEDGEMERE,2501890
108864,652126,-71.2,42.5,MASSACHUSETTS,BURLINGTON,2501803
30832,180990,-71.7,42.67,MASSACHUSETTS,TOWNSEND,2501469
1177486,5416981,-71.65,42.53333,MASSACHUSETTS,LUDLOW,2501464
1177485,5416978,-72.98333000000001,42.28333,MASSACHUSETTS,CHESTER,2501011
1179715,5421433,-71.28333,42.63333,MASSACHUSETTS,NORTHBOROUGH,2501852
1177482,5416965,-71.28333,41.93333,MASSACHUSETTS,ATTLEBORO,2502703
1177482,5416962,-70.68333,42.1,MASSACHUSETTS,MARSHFIELD,2502050
19737,117057,-72.64,42.21,MASSACHUSETTS,HIGHLANDS,2501040
1177482,5416961,-70.68333,42.1,MASSACHUSETTS,MARSHFIELD,2502050
1177482,5416959,-70.78333,42.16667,MASSACHUSETTS,NORWELL,2502061
30832,180989,-71.7,42.67,MASSACHUSETTS,TOWNSEND,2501469
30832,180988,-71.73,42.6,MASSACHUSETTS,LUNENBURG,2501462
30832,180986,-71.7,42.67,MASSACHUSETTS,TOWNSEND,2501469
30832,180982,-71.25,42.07,MASSACHUSETTS,FOXBOROUGH,2502035
30832,180952,-71.25,42.07,MASSACHUSETTS,FOXBOROUGH,2502035
1177482,5416960,-71.26666999999999,41.83333,MASSACHUSETTS,REHOBOTH,2502769
1179712,5422689,-72.73333000000001,42.23333,MASSACHUSETTS,SOUTHHAMPTON,2501073
1179715,5421434,-71.33333,42.58333,MASSACHUSETTS,MARLBOROUGH,2501824
75484,455728,-72.03,42.08,MASSACHUSETTS,SOUTHBRIDGE,2501550
42240,246605,-71.01,42.26,MASSACHUSETTS,WOLLASTON,2502170
40425,235188,-72.2416,42.3807,MASSACHUSETTS,HARDWICK,
65007,403832,-70.96,42.47,MASSACHUSETTS,LYNN,2501904
65007,403833,-70.94,41.66,MASSACHUSETTS,NORTH BRISTOL,2502746
65007,403834,-70.73,42.19,MASSACHUSETTS,SCITUATE,2502066
65007,403835,-70.68,41.96,MASSACHUSETTS,PLYMOUTH,2502360
42240,246604,-71.33,41.82,MASSACHUSETTS,SEEKONK,2502771
65007,403849,-70.5504,41.5531,MASSACHUSETTS,FALMOUTH ARPT,2502536
65007,403860,-70.5693,41.9405,MASSACHUSETTS,WHITE HORSE BEACH,2502360
74847,462103,-72.4,42.27,MASSACHUSETTS,BELCHERTOWN,2501007
51463,305933,-72.93,42.42,MASSACHUSETTS,WORTHINGTON CORNERS,2501098
54851,329577,-72.41,42.46,MASSACHUSETTS,SHUTESBURY,2501072
1179715,5422695,-71.06667,42.56667,MASSACHUSETTS,TOWNSEND,2501864
1179715,5422694,-72.58333,42.46667,MASSACHUSETTS,ASHBURNHAM,2501375
65007,403860,-70.5691,41.9406,MASSACHUSETTS,WHITE HORSE BEACH,2502360
1179715,5422702,-72.05,42.68333,MASSACHUSETTS,TEWKSBURY,2501475
1177482,5416959,-70.73333000000001,42.2,MASSACHUSETTS,NORWELL,2502066
1177482,5416957,-71.16667,42.4,MASSACHUSETTS,BELMONT,2502478
1177482,5416875,-72.31667,42.1,MASSACHUSETTS,MONSON,2501057
1177482,5416874,-71.33333,42.58333,MASSACHUSETTS,CHELMSFORD CENTER,2501824
98546,592599,-73.3805,42.2667,MASSACHUSETTS,WILLIAMSVILLE,2501236
1119891,5258419,-72.88333,42.23333,MASSACHUSETTS,HUNTINGTON,2501050
55366,337460,-72.4,42.27,MASSACHUSETTS,BELCHERTOWN,2501007
1119891,5258419,-72.73333000000001,42.23333,MASSACHUSETTS,HUNTINGTON,2501073
1177482,5416876,-71.01666999999999,42.6,MASSACHUSETTS,MIDDLETON,2501949
1119891,5258420,-72.58333,42.11667,MASSACHUSETTS,SPRINGFIELD,2501104
19289,113796,-72.68,42.58,MASSACHUSETTS,SHELBURNE,2501370
19289,113891,-72.6,42.59,MASSACHUSETTS,GREENFIELD,2501301
55366,337459,-72.58,42.05,MASSACHUSETTS,LONGMEADOW,2501106
1114378,5243505,-72.13333,42.31667,MASSACHUSETTS,NEW BRAINTREE,2501531
55366,337456,-72.4,42.27,MASSACHUSETTS,BELCHERTOWN,2501007
55366,337455,-72.52,42.38,MASSACHUSETTS,AMHERST,2501002
19289,113794,-72.9,42.7,MASSACHUSETTS,ROWE,2501367
1177482,5416958,-70.8,42.23333,MASSACHUSETTS,COHASSET,2502025
1177482,5416878,-72.21667,42.06667,MASSACHUSETTS,WALES,2501081
19749,117158,-71.6752,42.7021,MASSACHUSETTS,TOWNSEND,2501469
1142309,5312950,-73.25,42.31667,MASSACHUSETTS,LEE,2501238
21495,127096,-73.08,42.33,MASSACHUSETTS,BECKET,2501223
1119891,5258418,-72.1,42.21667,MASSACHUSETTS,WARREN,2501506
1179707,5422681,-72.43333,42.11667,MASSACHUSETTS,WILBRAHAM,2501095
1179707,5422681,-72.66667,42.1,MASSACHUSETTS,WILBRAHAM,2501089
1177482,5416882,-71.06667,42.31667,MASSACHUSETTS,BOSTON,2502125
19749,117160,-71.81,42.27,MASSACHUSETTS,WORCESTER,2501609
1119891,5258418,-72.2,42.21667,MASSACHUSETTS,WARREN,2501083
1177482,5416880,-71.23333000000001,42.45,MASSACHUSETTS,LEXINGTON,2502421
19749,117150,-72.93,42.42,MASSACHUSETTS,WORTHINGTON CORNERS,2501098
19749,117151,-72.85,42.4,MASSACHUSETTS,CHESTERFIELD,2501012
19749,117152,-72.72,42.4,MASSACHUSETTS,WILLIAMSBURG,2501096
19749,117153,-72.68,42.33,MASSACHUSETTS,BAY STATE,2501062
1177482,5416879,-70.86667,42.55,MASSACHUSETTS,BEVERLY,2501915
1177482,5416880,-71.16667,42.41667,MASSACHUSETTS,LEXINGTON,2502476
1179715,5422699,-71.55,42.35,MASSACHUSETTS,ANDOVER,2501752
9017,51304,-70.0,41.78,MASSACHUSETTS,ORLEANS,2502653
9017,51303,-71.1,41.67,MASSACHUSETTS,LAKESIDE,2502790
56119,337127,-72.58,42.12,MASSACHUSETTS,SPRINGFIELD,2501104
56119,337115,-72.48,42.1903,MASSACHUSETTS,LUDLOW,2501056
56119,337114,-72.5007,42.1854,MASSACHUSETTS,LUDLOW,2501056
56119,336939,-72.31,42.1,MASSACHUSETTS,MONSON,2501057
56119,336829,-72.44,42.14,MASSACHUSETTS,NORTH WILBRAHAM,2501095
56119,336826,-72.48,42.17,MASSACHUSETTS,LUDLOW,2501056
1215195,5521330,-72.41667,42.06667,MASSACHUSETTS,HAMPDEN,2501036
56119,336808,-72.54,42.12,MASSACHUSETTS,EAST SPRINGFIELD,2501109
119932,718806,-70.96,42.47,MASSACHUSETTS,LYNN,2501904
1215195,5521328,-72.2,42.35,MASSACHUSETTS,HARDWICK,2501037
1215195,5521327,-70.0,42.66667,MASSACHUSETTS,BOXFORD,
56119,336598,-72.57,42.18,MASSACHUSETTS,WILLIMANSETT,2501020
73661,445661,-73.4628,42.0847,MASSACHUSETTS,MT WASHINGTON,2501258
73661,445662,-73.06,42.51,MASSACHUSETTS,WINDSOR,2501226
56119,336599,-72.54,42.12,MASSACHUSETTS,EAST SPRINGFIELD,2501109
55386,332398,-72.88,42.23,MASSACHUSETTS,LITTLEVILLE,2501050
98294,591447,-73.3629,42.1951,MASSACHUSETTS,GREAT BARRINGTON,2501230
51460,305925,-71.7,42.67,MASSACHUSETTS,TOWNSEND,2501469
9017,51299,-72.62,42.7,MASSACHUSETTS,NORTHFIELD,2501337
1100633,5155163,-73.31667,42.55,MASSACHUSETTS,HANCOCK,2501237
7770,44727,-70.82,41.95,MASSACHUSETTS,PLYMPTON,2502367
1215202,5521441,-72.48333000000001,42.16667,MASSACHUSETTS,LUDLOW,2501056
1215200,5521355,-70.61667,41.55,MASSACHUSETTS,FALMOUTH,2502540
1215200,5521354,-70.68333,41.38333,MASSACHUSETTS,WEST TISBURY,2502575
51460,305924,-71.83,42.2,MASSACHUSETTS,AUBURN,2501501
98294,591453,-73.2123,42.1791,MASSACHUSETTS,MONTEREY,2501245
98294,591452,-73.0581,42.5115,MASSACHUSETTS,WINDSOR,2501226
98294,591451,-73.4064,42.1653,MASSACHUSETTS,SOUTH EGREMONT,2501230
98294,591450,-73.1665,42.4733,MASSACHUSETTS,DALTON,2501226
51460,305927,-71.29,41.94,MASSACHUSETTS,ATTLEBORO,2502703
131567,787027,-70.6627,41.5346,MASSACHUSETTS,WOODS HOLE,2502543
51460,305926,-71.35,42.28,MASSACHUSETTS,NATICK,2501760
19289,113795,-72.83,42.67,MASSACHUSETTS,HEATH,2501346
55371,332342,-72.48,42.17,MASSACHUSETTS,LUDLOW,2501056
56119,336597,-72.57,42.18,MASSACHUSETTS,WILLIMANSETT,2501020
56119,336595,-72.65,42.12,MASSACHUSETTS,WEST SPRINGFIELD,2501089
1179715,5422697,-71.78333,42.36667,MASSACHUSETTS,LOWELL,2501583
1179715,5422697,-71.63333,42.31667,MASSACHUSETTS,LOWELL,2501532
1179715,5422699,-71.56667,42.4,MASSACHUSETTS,ANDOVER,2501749
1192393,5459688,-72.88333,42.63333,MASSACHUSETTS,CHARLEMONT,2501339
19289,113795,-72.88,42.63,MASSACHUSETTS,CHARLEMONT,2501339
75484,455732,-71.29,42.3,MASSACHUSETTS,WELLESLEY,2502482
1192400,5459697,-72.61667,42.7,MASSACHUSETTS,NORTHFIELD,2501337
75484,455731,-72.03,42.08,MASSACHUSETTS,SOUTHBRIDGE,2501550
75484,455730,-71.93,42.05,MASSACHUSETTS,DUDLEY,2501571
75484,455729,-72.03,42.08,MASSACHUSETTS,SOUTHBRIDGE,2501550
55366,337462,-72.54,42.12,MASSACHUSETTS,EAST SPRINGFIELD,2501109
65007,403830,-72.11,42.42,MASSACHUSETTS,BARRE,2501005
65007,403831,-70.87,42.53,MASSACHUSETTS,SALEM CGAS,2501970
9017,51302,-70.0,41.78,MASSACHUSETTS,ORLEANS,2502653
1162101,5374554,-72.75,42.11667,MASSACHUSETTS,WESTFIELD,2501085
1192400,5459702,-72.51666999999999,42.38333,MASSACHUSETTS,AMHERST,2501002
1192401,5459779,-72.58333,42.11667,MASSACHUSETTS,SPRINGFIELD,2501104
55366,337464,-72.58,42.05,MASSACHUSETTS,LONGMEADOW,2501106
75484,455766,-72.97,42.5,MASSACHUSETTS,WEST CUMMINGTON,2501070
55369,332323,-70.84,42.83,MASSACHUSETTS,SALISBURY,2501952
55366,337492,-72.4,42.45,MASSACHUSETTS,SHUTESBURY,2501072
42240,246606,-71.0,42.2,MASSACHUSETTS,SOUTH BRAINTREE,2502184
55366,337489,-72.5,42.45,MASSACHUSETTS,LEVERETT,2501054
55366,337487,-72.4,42.6,MASSACHUSETTS,ERVING,2501344
55366,337478,-72.44,42.71,MASSACHUSETTS,EAST NORTHFIELD,2501360
55366,337477,-72.4,42.27,MASSACHUSETTS,BELCHERTOWN,2501007
55366,337476,-72.4,42.45,MASSACHUSETTS,SHUTESBURY,2501072
55366,337475,-72.31,42.1,MASSACHUSETTS,MONSON,2501057
55366,337473,-72.44,42.14,MASSACHUSETTS,NORTH WILBRAHAM,2501095
55366,337467,-72.52,42.07,MASSACHUSETTS,EAST LONGMEADOW,2501028
75484,455733,-70.96,42.47,MASSACHUSETTS,LYNN,2501904
55366,337466,-72.48,42.17,MASSACHUSETTS,LUDLOW,2501056
55366,337465,-72.54,42.12,MASSACHUSETTS,EAST SPRINGFIELD,2501109
22960,134430,-72.99,42.14,MASSACHUSETTS,BLANDFORD,2501008
22960,134428,-72.97,42.42,MASSACHUSETTS,WEST WORTHINGTON,2501098
22960,134427,-72.93,42.42,MASSACHUSETTS,WORTHINGTON CORNERS,2501098
22960,134426,-72.92,42.52,MASSACHUSETTS,PLAINFIELD,2501070
55362,337572,-71.85,42.35,MASSACHUSETTS,HOLDEN,2501520
7780,44828,-72.67,42.1,MASSACHUSETTS,WEST SPRINGFIELD,2501089
7780,44829,-72.57,42.27,MASSACHUSETTS,SOUTH HADLEY,2501075
19289,113958,-72.68,42.67,MASSACHUSETTS,COLRAIN,2501340
19765,117348,-71.56,42.39,MASSACHUSETTS,HUDSON,2501749
19765,117349,-71.69,42.42,MASSACHUSETTS,CLINTON,2501510
55362,337582,-72.9,42.7,MASSACHUSETTS,ROWE,2501367
19765,117351,-71.62,42.27,MASSACHUSETTS,WESTBOROUGH,2501581
19765,117355,-71.47,42.48,MASSACHUSETTS,ACTON,2501720
19765,117356,-71.16,42.49,MASSACHUSETTS,NORTH WOBURN,2501801
19765,117358,-71.07,42.5,MASSACHUSETTS,WAKEFIELD,2501880
19765,117367,-71.11,42.42,MASSACHUSETTS,MEDFORD,2502155
10557,58684,-72.4,42.45,MASSACHUSETTS,SHUTESBURY,2501072
19765,117374,-71.12,42.38,MASSACHUSETTS,NORTH SOMMERVILLE,2502138
19765,117353,-71.52,42.22,MASSACHUSETTS,HOPKINTON,2501748
1097210,5152628,-72.23333000000001,42.21667,MASSACHUSETTS,WEST WARREN,2501092
21585,129001,-72.64,42.21,MASSACHUSETTS,HIGHLANDS,2501040
55362,337590,-71.06,42.36,MASSACHUSETTS,CHARLESTOWN,2502108
19765,117303,-70.3,41.7,MASSACHUSETTS,BARNSTABLE,2502630
19765,117306,-70.94,41.66,MASSACHUSETTS,NORTH BRISTOL,2502746
19765,117311,-70.3,41.7,MASSACHUSETTS,BARNSTABLE,2502630
19765,117326,-70.94,41.66,MASSACHUSETTS,NORTH BRISTOL,2502746
19765,117329,-70.3,41.65,MASSACHUSETTS,HYANNIS,2502601
55362,337599,-70.96,42.47,MASSACHUSETTS,LYNN,2501904
1215208,5521466,-71.41667,42.28333,MASSACHUSETTS,FRAMINGHAM,2501702
55362,337596,-71.07,42.32,MASSACHUSETTS,BOSTON,2502125
1097222,5150735,-72.4,42.4,MASSACHUSETTS,PELHAM,2501002
1097210,5152632,-71.41667,42.28333,MASSACHUSETTS,FRAMINGHAM,2501702
55362,337591,-71.85,42.35,MASSACHUSETTS,HOLDEN,2501520
19765,117332,-71.25,42.07,MASSACHUSETTS,FOXBOROUGH,2502035
19765,117334,-71.9,42.63,MASSACHUSETTS,ASHBURNHAM,2501430
19765,117337,-71.77,42.52,MASSACHUSETTS,WHALOM,2501453
7780,44828,-72.62,42.07,MASSACHUSETTS,AGAWAM,2501001
5826,34128,-71.81,42.27,MASSACHUSETTS,WORCESTER,2501609
5826,34126,-71.99,42.58,MASSACHUSETTS,GARDNER,2501440
124787,748702,-72.77,42.05,MASSACHUSETTS,SOUTHWICK,2501077
7780,44830,-72.48,42.17,MASSACHUSETTS,LUDLOW,2501056
1114342,5242690,-73.11667,42.43333,MASSACHUSETTS,HINSDALE,2501235
42240,246587,-71.25,42.13,MASSACHUSETTS,WALPOLE,2502081
1114342,5242689,-73.33333,42.33333,MASSACHUSETTS,WEST STOCKBRIDGE,2501266
20635,122721,-73.34,42.2,MASSACHUSETTS,GREAT BARRINGTON,2501230
42236,246581,-72.23,42.22,MASSACHUSETTS,WEST WARREN,2501092
108864,652130,-71.16,42.42,MASSACHUSETTS,ARLINGTON,2502474
1135080,5294736,-71.43333,42.2,MASSACHUSETTS,HOLLISTON,2501746
1135080,5294737,-71.3,42.18333,MASSACHUSETTS,MEDFIELD,2502052
1135080,5294737,-71.28333,42.25,MASSACHUSETTS,MEDFIELD,2502030
1135080,5294738,-71.46667,42.25,MASSACHUSETTS,ASHLAND,2501721
108864,652129,-71.16,42.49,MASSACHUSETTS,NORTH WOBURN,2501801
108864,652128,-71.23,42.45,MASSACHUSETTS,LEXINGTON,2502420
21585,127670,-71.2099,41.7251,MASSACHUSETTS,OCEAN GROVE,2502777
1135080,5294736,-71.51666999999999,42.21667,MASSACHUSETTS,HOLLISTON,2501748
108864,652131,-70.99,42.42,MASSACHUSETTS,REVERE,2502151
20635,122722,-73.27,42.11,MASSACHUSETTS,MILL RIVER,2501259
31766,186502,-70.3,41.65,MASSACHUSETTS,HYANNIS,2502601
31760,186468,-70.77,41.88,MASSACHUSETTS,CARVER,2502330
98194,590541,-73.0454,42.2221,MASSACHUSETTS,ALGERIE FOUR CORNERS,2501029
31760,186469,-70.23,41.71,MASSACHUSETTS,YARMOUTH,2502675
31766,186495,-70.62,41.45,MASSACHUSETTS,TISBURY,2502568
31766,186495,-70.53,41.38,MASSACHUSETTS,EDGARTOWN,2502539
131567,787027,-70.6639,41.533,MASSACHUSETTS,WOODS HOLE,2502543
20641,122736,-73.26,42.4,MASSACHUSETTS,NEW LENOX,2501240
31766,186497,-70.62,41.45,MASSACHUSETTS,TISBURY,2502568
31766,186497,-70.57,41.45,MASSACHUSETTS,OAK BLUFFS,2502557
31766,186498,-70.68,41.38,MASSACHUSETTS,WEST TISBURY,2502575
31766,186498,-70.57,41.45,MASSACHUSETTS,OAK BLUFFS,2502557
31766,186499,-70.61,41.55,MASSACHUSETTS,FALMOUTH,2502540
31766,186499,-70.48,41.65,MASSACHUSETTS,MASHPEE,2502649
31766,186500,-70.3,41.7,MASSACHUSETTS,BARNSTABLE,2502630
20635,122723,-73.27,42.11,MASSACHUSETTS,MILL RIVER,2501259
55362,337600,-70.87,42.53,MASSACHUSETTS,SALEM CGAS,2501970
75848,460032,-71.72,42.3,MASSACHUSETTS,SHREWSBURY,2501545
55362,337602,-71.37,42.6,MASSACHUSETTS,WEST CHELMSFORD,2501824
1215203,5521451,-72.85,42.18333,MASSACHUSETTS,RUSSELL,2501071
1114378,5243503,-72.1,42.41667,MASSACHUSETTS,BARRE,2501005
17864,103627,-72.8,42.2,MASSACHUSETTS,MONTGOMERY,2501085
17864,103638,-72.5378,42.3363,MASSACHUSETTS,SOUTH AMHERST,2501002
1114378,5243502,-72.56667,42.26667,MASSACHUSETTS,SOUTH HADLEY,2501075
1114378,5243501,-72.58333,42.13333,MASSACHUSETTS,CHICOPEE,2501104
1114378,5243498,-72.61667,42.45,MASSACHUSETTS,WHATELY,2501373
1114378,5243503,-72.01666999999999,42.48333,MASSACHUSETTS,BARRE,2501452
1114378,5243498,-72.6,42.6,MASSACHUSETTS,WHATELY,2501301
1114378,5243497,-72.68333,42.51667,MASSACHUSETTS,CONWAY,2501341
1114378,5243496,-72.78333,42.53333,MASSACHUSETTS,ASHFIELD,2501330
1114378,5243495,-72.93333,42.41667,MASSACHUSETTS,WORTHINGTON CORNERS,2501098
55362,337738,-72.92,42.52,MASSACHUSETTS,PLAINFIELD,2501070
108864,653782,-71.23,42.45,MASSACHUSETTS,LEXINGTON,2502420
108864,652132,-70.84,42.83,MASSACHUSETTS,SALISBURY,2501952
1114378,5243497,-72.6,42.6,MASSACHUSETTS,CONWAY,2501301
55362,337737,-72.93,42.42,MASSACHUSETTS,WORTHINGTON CORNERS,2501098
1114378,5243504,-72.4,42.4,MASSACHUSETTS,PELHAM,2501002
55364,337509,-71.11,42.54,MASSACHUSETTS,READING,2501867
22960,134425,-72.9,42.7,MASSACHUSETTS,ROWE,2501367
22960,134424,-72.94,42.07,MASSACHUSETTS,WEST GRANVILLE,2501034
22960,134424,-72.91,42.1,MASSACHUSETTS,WEST GRANVILLE,2501034
17864,103626,-72.93,42.18,MASSACHUSETTS,BLANDFORD,2501008
22960,134422,-72.98,42.28,MASSACHUSETTS,CHESTER,2501011
22960,134421,-72.97,42.39,MASSACHUSETTS,WEST WORTHINGTON,2501098
55362,337742,-72.68,42.58,MASSACHUSETTS,SHELBURNE,2501370
55366,337454,-72.52,42.38,MASSACHUSETTS,AMHERST,2501002
55366,337452,-72.52,42.38,MASSACHUSETTS,AMHERST,2501002
55364,337522,-70.62,41.45,MASSACHUSETTS,TISBURY,2502568
55364,337516,-70.5,41.76,MASSACHUSETTS,SANDWICH,2502563
55364,337514,-70.48,41.65,MASSACHUSETTS,MASHPEE,2502649
55364,337512,-70.62,41.75,MASSACHUSETTS,BUZZARDS BAY,2502532
55364,337509,-71.07,42.57,MASSACHUSETTS,NORTH READING,2501864
55366,337453,-72.52,42.38,MASSACHUSETTS,AMHERST,2501002
22925,134284,-73.04,42.17,MASSACHUSETTS,EAST OTIS,2501029
22925,134283,-73.06,42.31,MASSACHUSETTS,BANCROFT,2501223
22925,134279,-73.04,42.17,MASSACHUSETTS,EAST OTIS,2501029
7777,44798,-71.08,42.78,MASSACHUSETTS,HAVERHILL,2501830
7777,44802,-70.87,42.72,MASSACHUSETTS,ROWLEY,2501969
19289,113893,-72.85,42.4,MASSACHUSETTS,CHESTERFIELD,2501012
19289,113894,-72.3,42.59,MASSACHUSETTS,ORANGE,2501364
19289,113895,-72.48,42.17,MASSACHUSETTS,LUDLOW,2501056
63782,381714,-73.0753,42.0937,MASSACHUSETTS,NEW BOSTON,2501255
1119896,5258431,-69.96667,41.83333,MASSACHUSETTS,EASTHAM,2502642
19289,113958,-72.6,42.55,MASSACHUSETTS,DEERFIELD,2501342
7777,44807,-70.83,42.68,MASSACHUSETTS,IPSWICH,2501938
19765,117260,-70.68,41.96,MASSACHUSETTS,PLYMOUTH,2502360
19765,117282,-71.3332,41.7941,MASSACHUSETTS,SEEKONK,2502771
19765,117284,-70.68,41.9121,MASSACHUSETTS,PLYMOUTH,2502360
19765,117291,-71.33,41.82,MASSACHUSETTS,SEEKONK,2502771
19765,117296,-71.33,41.82,MASSACHUSETTS,SEEKONK,2502771
19757,117257,-72.52,42.38,MASSACHUSETTS,AMHERST,2501002
1119894,5258429,-71.06667,42.48333,MASSACHUSETTS,BILLERICA,2501880
1119894,5258429,-71.26666999999999,42.55,MASSACHUSETTS,BILLERICA,2501821
1116140,5249789,-72.91667,42.51667,MASSACHUSETTS,PLAINFIELD,2501070
22925,134277,-73.08,42.33,MASSACHUSETTS,BECKET,2501223
22925,134276,-73.06,42.31,MASSACHUSETTS,BANCROFT,2501223
1097223,5150336,-71.0,42.01667,MASSACHUSETTS,WEST BRIDGEWATER,2502379
1097223,5150335,-71.1,41.9,MASSACHUSETTS,TAUNTON,2502780
1097223,5150249,-71.03333,42.26667,MASSACHUSETTS,QUINCY,2502171
1097223,5150248,-70.88333,42.3,MASSACHUSETTS,HULL,2502045
19616,116123,-73.11,42.23,MASSACHUSETTS,NORTH OTIS,2501253
1119891,5258421,-71.78333,42.36667,MASSACHUSETTS,WEST BOYLSTON,2501583
1097223,5150247,-71.46667,42.08333,MASSACHUSETTS,BELLINGHAM,2502019
1097223,5150245,-71.63333,42.08333,MASSACHUSETTS,UXBRIDGE,2501569
1097223,5150244,-71.03333,42.26667,MASSACHUSETTS,QUINCY,2502171
21495,127098,-73.07,42.2,MASSACHUSETTS,OTIS,2501253
7777,44788,-70.98,42.73,MASSACHUSETTS,GEORGETOWN,2501833
21509,127173,-72.88,42.57,MASSACHUSETTS,HAWLEY,2501339
1119891,5258423,-71.86667,42.11667,MASSACHUSETTS,OXFORD,2501540
1097222,5150736,-72.33333,42.5,MASSACHUSETTS,NEW SALEM,2501355
1122130,5264671,-70.91667,42.56667,MASSACHUSETTS,DANVERS,2501923
100249,600511,-71.24,42.38,MASSACHUSETTS,BLEACHERY,2502451
27838,169422,-71.83,42.2,MASSACHUSETTS,AUBURN,2501501
1135936,5298932,-73.1,42.7,MASSACHUSETTS,NORTH ADAMS,2501247
64499,386020,-72.44,42.71,MASSACHUSETTS,EAST NORTHFIELD,2501360
54736,328925,-72.77,42.05,MASSACHUSETTS,SOUTHWICK,2501077
27838,169456,-71.47,42.25,MASSACHUSETTS,ASHLAND,2501721
64499,386020,-72.5106,42.67,MASSACHUSETTS,BERNARDSTON,2501337
64499,386017,-72.95,42.72,MASSACHUSETTS,MONROE BRIDGE,2501367
64499,386021,-72.98,42.28,MASSACHUSETTS,CHESTER,2501011
1116140,5249793,-72.98333000000001,42.28333,MASSACHUSETTS,CHESTER,2501011
1116140,5249795,-72.51666999999999,42.25,MASSACHUSETTS,GRANBY,2501033
90099,541324,-70.68,41.96,MASSACHUSETTS,PLYMOUTH,2502360
20063,119613,-72.57,42.18,MASSACHUSETTS,WILLIMANSETT,2501020
90099,541323,-70.89,42.81,MASSACHUSETTS,NEWBURYPORT,2501950
98294,591444,-73.2318,42.4569,MASSACHUSETTS,PITTSFIELD,2501201
21134,125097,-71.7,42.67,MASSACHUSETTS,TOWNSEND,2501469
54736,328929,-72.42,42.07,MASSACHUSETTS,HAMPDEN,2501036
100225,600364,-71.16,41.7,MASSACHUSETTS,FALL RIVER,2502721
27838,169442,-71.52,42.15,MASSACHUSETTS,MILFORD,2501757
1171386,5401136,-73.25,42.45,MASSACHUSETTS,PITTSFIELD,2501201
44839,259956,-72.23,42.59,MASSACHUSETTS,ATHOL,2501331
29151,171021,-73.32,42.29,MASSACHUSETTS,STOCKBRIDGE,2501262
29151,171022,-73.26,42.45,MASSACHUSETTS,PITTSFIELD,2501201
29151,171023,-73.22,42.45,MASSACHUSETTS,NORTH ADAMS JCT,2501201
116152,701310,-70.89,42.24,MASSACHUSETTS,HINGHAM,2502043
54736,328911,-71.09,41.9,MASSACHUSETTS,TAUNTON,2502780
90099,541325,-72.54,42.12,MASSACHUSETTS,EAST SPRINGFIELD,2501109
98294,591446,-73.2168,42.4623,MASSACHUSETTS,COLTSVILLE,2501201
100249,600478,-72.07,42.56,MASSACHUSETTS,TEMPLETON,2501468
1139774,5306622,-72.58333,42.13333,MASSACHUSETTS,CHICOPEE,2501104
1139774,5306622,-72.58333,42.11667,MASSACHUSETTS,CHICOPEE,2501104
1139774,5306621,-72.86667,42.06667,MASSACHUSETTS,GRANVILLE,2501034
1171401,5401218,-73.36667,42.2,MASSACHUSETTS,GREAT BARRINGTON,2501230
100249,600477,-72.19,42.49,MASSACHUSETTS,PETERSHAM,2501366
100249,600476,-72.23,42.6,MASSACHUSETTS,ATHOL,2501331
27838,169458,-71.43,42.2,MASSACHUSETTS,HOLLISTON,2501746
1139777,5306627,-71.75,42.43333,MASSACHUSETTS,STERLING,2501564
1194163,5465408,-72.53333,42.2,MASSACHUSETTS,WESTOVER AFB,2501022
21134,125091,-71.87,42.12,MASSACHUSETTS,OXFORD,2501540
1192544,5459622,-73.36667,42.2,MASSACHUSETTS,GREAT BARRINGTON,2501230
41950,244637,-72.4,42.55,MASSACHUSETTS,WENDELL,2501379
1116140,5249801,-70.91667,42.53333,MASSACHUSETTS,PEABODY,2501960
90099,541318,-71.52,42.15,MASSACHUSETTS,MILFORD,2501757
90099,541317,-71.39,42.09,MASSACHUSETTS,FRANKLIN,2502038
1168179,5393097,-70.48333000000001,41.65,MASSACHUSETTS,MASHPEE,2502649
1194167,5465479,-70.2,41.73333,MASSACHUSETTS,DENNIS,2502638
1168179,5393098,-72.91667,42.51667,MASSACHUSETTS,PLAINFIELD,2501070
1168179,5393099,-72.6,42.6,MASSACHUSETTS,HAWLEY,2501301
21134,125078,-70.87,42.55,MASSACHUSETTS,BEVERLY,2501915
21134,125062,-71.69,42.42,MASSACHUSETTS,CLINTON,2501510
21134,125061,-71.62,42.27,MASSACHUSETTS,WESTBOROUGH,2501581
21134,125053,-71.16,42.49,MASSACHUSETTS,NORTH WOBURN,2501801
21134,125052,-71.67,42.45,MASSACHUSETTS,LANCASTER,2501523
1168179,5393099,-72.88333,42.56667,MASSACHUSETTS,HAWLEY,2501339
90099,541319,-71.75,42.43,MASSACHUSETTS,STERLING,2501564
41950,244638,-73.02,42.35,MASSACHUSETTS,MIDDLEFIELD,2501243
5813,34061,-72.88,42.63,MASSACHUSETTS,CHARLEMONT,2501339
90099,541322,-70.9924,42.0595,MASSACHUSETTS,BROCKTON,2502302
90099,541321,-71.87,42.45,MASSACHUSETTS,PRINCETON,2501541
1194167,5465476,-70.68333,41.96667,MASSACHUSETTS,PLYMOUTH,2502360
90099,541320,-71.22,42.02,MASSACHUSETTS,MANSFIELD,2502048
21134,125090,-71.05,42.18,MASSACHUSETTS,RANDOLPH,2502368
21134,125083,-71.33,41.97,MASSACHUSETTS,NORTH ATTLEBORO,2502760
54736,328931,-70.62,41.45,MASSACHUSETTS,TISBURY,2502568
5813,34067,-72.9,42.7,MASSACHUSETTS,ROWE,2501367
1194167,5465477,-70.68333,41.96667,MASSACHUSETTS,PLYMOUTH,2502360
1168177,5393094,-72.93333,42.18333,MASSACHUSETTS,BLANDFORD,2501008
1194167,5465478,-70.23333000000001,41.7,MASSACHUSETTS,YARMOUTH,2502675
1116140,5249801,-70.86667,42.55,MASSACHUSETTS,PEABODY,2501915
5813,34065,-72.9,42.7,MASSACHUSETTS,ROWE,2501367
5813,34063,-72.9,42.7,MASSACHUSETTS,ROWE,2501367
5813,34062,-72.4,42.4,MASSACHUSETTS,PELHAM,2501002
21134,125092,-71.55,42.35,MASSACHUSETTS,MARLBOROUGH,2501752
108697,651032,-70.91,41.89,MASSACHUSETTS,MIDDLEBORO,2502346
108697,651031,-70.91,41.89,MASSACHUSETTS,MIDDLEBORO,2502346
54736,328910,-70.94,41.66,MASSACHUSETTS,NORTH BRISTOL,2502746
21134,125100,-71.77,42.52,MASSACHUSETTS,WHALOM,2501453
88530,534031,-71.73,42.59,MASSACHUSETTS,LUNENBURG,2501462
41407,241257,-71.08,42.28,MASSACHUSETTS,DORCHESTER,2502124
21509,127272,-72.23,42.59,MASSACHUSETTS,ATHOL,2501331
100249,600480,-72.04,42.69,MASSACHUSETTS,WINCHENDON,2501475
6442,37461,-73.37,42.2,MASSACHUSETTS,GREAT BARRINGTON,2501230
27838,169437,-71.72,42.2465,MASSACHUSETTS,SHREWSBURY,2501545
1190514,5454617,-70.98333000000001,41.98333,MASSACHUSETTS,BRIDEWATER,2502324
52130,326133,-72.23,42.14,MASSACHUSETTS,BRIMFIELD,2501010
52130,326133,-72.2,42.15,MASSACHUSETTS,BRIMFIELD,2501010
52130,326129,-72.48,42.14,MASSACHUSETTS,INDIAN ORCHARD,2501095
52130,326129,-72.4,42.15,MASSACHUSETTS,NORTH WILBRAHAM,2501095
52130,326105,-72.1354,42.1107,MASSACHUSETTS,FISKDALE,2501010
52130,326105,-71.99,42.1045,MASSACHUSETTS,CHARLTON,2501507
1190514,5454616,-71.1,41.9,MASSACHUSETTS,TAUNTON,2502780
27838,169435,-71.77,42.15,MASSACHUSETTS,SUTTON,2501590
27838,169434,-71.68,42.2,MASSACHUSETTS,GRAFTON,2501519
65670,393207,-70.99,42.67,MASSACHUSETTS,EAST BOXFORD,2501921
27838,163390,-70.93,42.08,MASSACHUSETTS,WHITMAN,2502382
27838,163392,-70.67,42.04,MASSACHUSETTS,DUXBURY,2502332
27838,163393,-70.67,42.03,MASSACHUSETTS,DUXBURY,2502332
27838,163395,-70.67,42.03,MASSACHUSETTS,DUXBURY,2502332
27838,163397,-71.97,42.13,MASSACHUSETTS,CHARLTON,2501507
65676,393254,-71.08,42.28,MASSACHUSETTS,DORCHESTER,2502124
27838,163398,-71.83,42.2,MASSACHUSETTS,AUBURN,2501501
27838,163399,-71.2,42.19,MASSACHUSETTS,WINSLOWS,2502062
1122130,5264671,-70.91667,42.53333,MASSACHUSETTS,DANVERS,2501960
27838,169426,-71.68,42.2,MASSACHUSETTS,GRAFTON,2501519
21134,125103,-71.24,42.14,MASSACHUSETTS,WALPOLE,2502081
116152,701307,-71.05,42.33,MASSACHUSETTS,SOUTH BOSTON,2502127
27838,169426,-71.75,42.2,MASSACHUSETTS,MILLBURY,2501527
65670,393212,-71.24,42.28,MASSACHUSETTS,NEEDHAM,2502492
65670,393208,-71.27,42.37,MASSACHUSETTS,WESTON,2502451
52130,323440,-72.1354,42.1107,MASSACHUSETTS,HOLLAND,2501010
52130,323440,-72.75,42.1,MASSACHUSETTS,WESTFIELD,2501085
52130,323417,-71.1,42.12,MASSACHUSETTS,STOUGHTON,2502072
52130,323412,-71.43,42.48,MASSACHUSETTS,EAST ACTON,2501720
52130,323388,-72.43,42.12,MASSACHUSETTS,WILBRAHAM,2501095
52130,323387,-72.32,42.1,MASSACHUSETTS,MONSON,2501057
1139777,5306725,-70.91667,42.13333,MASSACHUSETTS,ROCKLAND,2502370
1139777,5306630,-71.05,42.16667,MASSACHUSETTS,RANDOLPH,2502368
52130,323386,-72.54,42.12,MASSACHUSETTS,EAST SPRINGFIELD,2501109
52130,323384,-72.61,42.15,MASSACHUSETTS,ALDENVILLE,2501013
52130,323382,-72.4,42.28,MASSACHUSETTS,BELCHERTOWN,2501007
52130,323380,-72.64,42.33,MASSACHUSETTS,NORTHAMPTON,2501060
52130,323379,-72.92,42.52,MASSACHUSETTS,PLAINFIELD,2501070
52130,323378,-72.85,42.4,MASSACHUSETTS,CHESTERFIELD,2501012
52130,323377,-72.88,42.24,MASSACHUSETTS,HUNTINGTON,2501050
52130,310786,-72.0677,42.1541,MASSACHUSETTS,FISKDALE,2501566
52130,310786,-72.04,42.1551,MASSACHUSETTS,GLEN GROVE,2501566
54736,328901,-72.93,42.42,MASSACHUSETTS,WORTHINGTON CORNERS,2501098
54736,328904,-72.5,42.45,MASSACHUSETTS,LEVERETT,2501054
52130,323390,-72.08,42.11,MASSACHUSETTS,STURBRIDGE,2501566
21134,125050,-71.16,42.42,MASSACHUSETTS,ARLINGTON,2502474
52130,323391,-71.76,42.15,MASSACHUSETTS,SUTTON,2501590
44839,259957,-72.18,42.48,MASSACHUSETTS,PETERSHAM,2501366
52130,323410,-71.76,42.52,MASSACHUSETTS,WHALOM,2501453
52130,323409,-72.04,42.69,MASSACHUSETTS,WINCHENDON,2501475
52130,323408,-72.0,42.58,MASSACHUSETTS,GARDNER,2501440
52130,323407,-72.04,42.69,MASSACHUSETTS,WINCHENDON,2501475
1096646,5149985,-70.38333,41.63333,MASSACHUSETTS,OSTERVILLE,2502655
52130,323406,-71.02,42.08,MASSACHUSETTS,BROCKTON,2502301
52130,323404,-72.61,42.15,MASSACHUSETTS,ALDENVILLE,2501013
27838,169440,-71.52,42.22,MASSACHUSETTS,HOPKINTON,2501748
52130,323403,-72.61,42.15,MASSACHUSETTS,ALDENVILLE,2501013
52130,323402,-71.4,42.14,MASSACHUSETTS,MEDWAY,2502053
52130,323398,-71.76,42.19,MASSACHUSETTS,MILLBURY,2501527
44839,259961,-71.81,42.27,MASSACHUSETTS,WORCESTER,2501609
44839,259960,-71.93,42.32,MASSACHUSETTS,PAXTON,2501612
1139777,5306726,-72.66667,42.35,MASSACHUSETTS,FLORENCE,2501062
44839,259959,-71.95,42.36,MASSACHUSETTS,RUTLAND,2501543
52130,323392,-71.99,42.24,MASSACHUSETTS,SPENCER,2501562
21134,125045,-71.12,42.38,MASSACHUSETTS,NORTH SOMMERVILLE,2502138
76215,461219,-72.65,42.12,MASSACHUSETTS,WEST SPRINGFIELD,2501089
76215,461220,-72.54,42.12,MASSACHUSETTS,EAST SPRINGFIELD,2501109
85904,518678,-71.97,42.13,MASSACHUSETTS,CHARLTON,2501507
85904,518679,-71.99,42.24,MASSACHUSETTS,SPENCER,2501562
76290,459945,-72.57,42.18,MASSACHUSETTS,WILLIMANSETT,2501020
1116140,5249811,-71.55,42.1,MASSACHUSETTS,MENDON,2501756
76290,459944,-72.76,42.14,MASSACHUSETTS,WESTFIELD,2501085
1138886,5309152,-73.36667,42.2,MASSACHUSETTS,GREAT BARRINGTON,2501230
1116140,5249810,-71.46667,42.08333,MASSACHUSETTS,BELLINGHAM,2502019
1116140,5249818,-71.46667,42.08333,MASSACHUSETTS,BELLINGHAM,2502019
62628,376742,-73.3643,42.1807,MASSACHUSETTS,GREAT BARRINGTON,2501230
21509,127275,-70.7781,41.4685,MASSACHUSETTS,NORTH TISBURY,2502543
21134,125018,-71.4,42.13,MASSACHUSETTS,MEDWAY,2502038
62628,374531,-73.42,42.16,MASSACHUSETTS,SOUTH EGREMONT,2501258
90099,541312,-70.73,42.19,MASSACHUSETTS,SCITUATE,2502066
1116136,5250315,-72.76666999999999,42.3,MASSACHUSETTS,CHESTERFIELD,2501027
62628,376743,-73.357,42.1951,MASSACHUSETTS,GREAT BARRINGTON,2501230
21085,124820,-71.47,42.48,MASSACHUSETTS,ACTON,2501720
22401,131545,-72.62,42.07,MASSACHUSETTS,AGAWAM,2501001
76290,459946,-72.76,42.14,MASSACHUSETTS,WESTFIELD,2501085
40166,235174,-72.93,42.42,MASSACHUSETTS,WORTHINGTON CORNERS,2501098
1168179,5393100,-72.93333,42.18333,MASSACHUSETTS,BLANDFORD,2501008
1168179,5393101,-71.98333000000001,42.56667,MASSACHUSETTS,GARDNER,2501440
1168179,5393101,-71.68333,42.41667,MASSACHUSETTS,GARDNER,2501510
22081,130112,-72.8,42.43,MASSACHUSETTS,GOSHEN,2501096
22077,130078,-71.24,42.14,MASSACHUSETTS,WALPOLE,2502081
1168179,5393102,-71.25,42.06667,MASSACHUSETTS,FOXBOROUGH,2502035
22077,130077,-71.47,42.25,MASSACHUSETTS,ASHLAND,2501721
22077,130072,-71.18,42.25,MASSACHUSETTS,STONE HAVEN,2502026
85904,518677,-71.9,42.25,MASSACHUSETTS,LEICESTER,2501524
22401,131553,-71.68,42.2,MASSACHUSETTS,GRAFTON,2501519
22401,131548,-72.57,42.18,MASSACHUSETTS,WILLIMANSETT,2501020
22401,131546,-72.64,42.21,MASSACHUSETTS,HIGHLANDS,2501040
21134,125020,-71.29,42.3,MASSACHUSETTS,WELLESLEY,2502482
1168179,5393103,-70.93333,42.1,MASSACHUSETTS,ABINGTON,2502351
90099,541316,-71.84,42.58,MASSACHUSETTS,WAITES CORNER,2501420
5773,33793,-73.08,42.2,MASSACHUSETTS,OTIS,2501253
90099,541315,-71.52,42.15,MASSACHUSETTS,MILFORD,2501757
1116136,5250314,-72.93333,42.18333,MASSACHUSETTS,BLANDFORD,2501008
77829,469239,-72.68,42.67,MASSACHUSETTS,COLRAIN,2501340
1171346,5401041,-73.15,42.18333,MASSACHUSETTS,WEST OTIS,2501245
1116131,5250299,-71.86667,42.45,MASSACHUSETTS,PRINCETON,2501541
90458,543060,-71.3,42.67,MASSACHUSETTS,DRACUT,2501826
90454,543047,-72.4,42.4,MASSACHUSETTS,PELHAM,2501002
22385,131437,-71.5,42.43,MASSACHUSETTS,STOW,2501775
22385,131436,-71.77,42.52,MASSACHUSETTS,WHALOM,2501453
22385,131434,-71.85,42.35,MASSACHUSETTS,HOLDEN,2501520
40726,237213,-72.93,42.18,MASSACHUSETTS,BLANDFORD,2501008
40726,237070,-71.68,42.2,MASSACHUSETTS,GRAFTON,2501519
40726,237070,-71.77,42.15,MASSACHUSETTS,SUTTON,2501590
40726,237062,-70.82,42.12,MASSACHUSETTS,HANOVER,2502339
40726,237068,-71.72,42.3,MASSACHUSETTS,SHREWSBURY,2501545
39552,229829,-73.32,42.54,MASSACHUSETTS,HANCOCK,2501237
40726,237066,-72.87,42.07,MASSACHUSETTS,GRANVILLE,2501034
97465,586397,-71.33,42.07,MASSACHUSETTS,WRENTHAM,2502093
40166,235175,-72.03,42.07,MASSACHUSETTS,SOUTHBRIDGE,2501550
97465,586402,-71.3245,42.067,MASSACHUSETTS,WRENTHAM,2502093
97465,586406,-71.9041,42.5119,MASSACHUSETTS,MANTYRANTA,2501473
1116131,5250300,-71.86667,42.45,MASSACHUSETTS,PRINCETON,2501541
1168179,5393103,-70.81667,42.11667,MASSACHUSETTS,ABINGTON,2502339
1153429,5360135,-70.86667,42.55,MASSACHUSETTS,BEVERLY,2501915
5773,33794,-73.23,42.1,MASSACHUSETTS,SOUTHFIELD,2501259
90099,541314,-71.68,42.2,MASSACHUSETTS,GRAFTON,2501519
90099,541313,-71.9,42.63,MASSACHUSETTS,ASHBURNHAM,2501430
22385,131427,-71.08,42.28,MASSACHUSETTS,DORCHESTER,2502124
22385,131428,-71.81,42.27,MASSACHUSETTS,WORCESTER,2501609
22385,131430,-72.62,42.07,MASSACHUSETTS,AGAWAM,2501001
18950,111527,-72.2,42.12,MASSACHUSETTS,BRIMFIELD,2501010
22385,131431,-71.81,42.27,MASSACHUSETTS,WORCESTER,2501609
1153428,5360131,-72.58333,42.11667,MASSACHUSETTS,SPRINGFIELD,2501104
22385,131433,-72.57,42.18,MASSACHUSETTS,WILLIMANSETT,2501020
40092,233235,-71.27,42.55,MASSACHUSETTS,BILLERICA,2501821
97465,586406,-71.8942,42.51,MASSACHUSETTS,WACHUSETT,2501473
97465,586402,-71.3335,42.065,MASSACHUSETTS,WRENTHAM,2502093
27838,163389,-71.02,42.08,MASSACHUSETTS,BROCKTON,2502301
22086,130153,-72.4,42.33,MASSACHUSETTS,KNIGHTS CORNER,2501007
22086,130156,-70.64,41.93,MASSACHUSETTS,PLYMOUTH,2502360
1161699,5375145,-72.33333,42.5,MASSACHUSETTS,NEW SALEM,2501355
1096643,5149918,-70.63333,41.7,MASSACHUSETTS,POCASSET,
1161696,5375138,-72.61667,42.06667,MASSACHUSETTS,AGAWAM,2501001
1161696,5375137,-72.75,42.11667,MASSACHUSETTS,WESTFIELD,2501085
21085,124806,-72.55,42.67,MASSACHUSETTS,BERNARDSTON,2501337
21085,124810,-71.81,42.27,MASSACHUSETTS,WORCESTER,2501609
1096644,5149920,-72.86667,42.06667,MASSACHUSETTS,GRANVILLE,2501034
21085,124813,-71.56,42.39,MASSACHUSETTS,HUDSON,2501749
1161692,5374759,-70.66667,42.03333,MASSACHUSETTS,DUXBURY,2502332
21085,124815,-71.5,42.43,MASSACHUSETTS,STOW,2501775
1161692,5374758,-70.68333,41.96667,MASSACHUSETTS,PLYMOUTH,2502360
22088,130170,-72.44,42.71,MASSACHUSETTS,EAST NORTHFIELD,2501360
22088,130169,-72.9,42.7,MASSACHUSETTS,ROWE,2501367
85911,518698,-71.93,42.32,MASSACHUSETTS,PAXTON,2501612
76299,460007,-71.77,42.52,MASSACHUSETTS,WHALOM,2501453
1096644,5149920,-72.76666999999999,42.05,MASSACHUSETTS,GRANVILLE,2501077
1096646,5149923,-70.56667,41.45,MASSACHUSETTS,OAK BLUFFS,2502557
1096646,5149982,-71.0,41.56667,MASSACHUSETTS,DARTMOUTH,2502748
21134,125045,-71.1,42.39,MASSACHUSETTS,INMAN SQUARE,2502145
21134,125044,-71.17,42.4,MASSACHUSETTS,BELMONT,2502478
21134,125042,-71.1,42.37,MASSACHUSETTS,CAMBRIDGE,2502139
125354,751740,-72.8081,42.5306,MASSACHUSETTS,ASHFIELD,2501330
76215,461221,-72.57,42.05,MASSACHUSETTS,LONGMEADOW,2501106
125354,751753,-72.8859,42.5347,MASSACHUSETTS,PLAINFIELD,2501070
1161699,5375148,-71.68333,42.2,MASSACHUSETTS,SHREWSBURY,2501519
1135936,5298931,-73.1,42.7,MASSACHUSETTS,NORTH ADAMS,2501247
106981,641993,-71.0,41.57,MASSACHUSETTS,DARTMOUTH,2502748
1161699,5375148,-71.71667,42.3,MASSACHUSETTS,SHREWSBURY,2501545
76299,460009,-71.08,42.28,MASSACHUSETTS,DORCHESTER,2502124
76299,460008,-71.44,42.31,MASSACHUSETTS,SAXONVILLE,2501701
21085,124806,-72.62,42.7,MASSACHUSETTS,NORTHFIELD,2501337
1096646,5149984,-71.9,42.25,MASSACHUSETTS,LEICESTER,2501524
1096646,5149983,-72.61667,42.06667,MASSACHUSETTS,AGAWAM,2501001
22086,130162,-70.03,41.93,MASSACHUSETTS,WELLFLEET,2502667
85904,518685,-71.58,42.5,MASSACHUSETTS,HARVARD,2501451
1197066,5469358,-72.48333000000001,42.16667,MASSACHUSETTS,LUDLOW,2501056
125354,751753,-72.91,42.5299,MASSACHUSETTS,PLAINFIELD,2501070
85904,518681,-71.97,42.13,MASSACHUSETTS,CHARLTON,2501507
22401,131564,-71.73,42.05,MASSACHUSETTS,DOUGLAS,2501516
22401,131562,-71.68,42.2,MASSACHUSETTS,GRAFTON,2501519
22086,130158,-70.5432,41.8027,MASSACHUSETTS,CEDARVILLE,2502562
22401,131559,-71.55,42.35,MASSACHUSETTS,MARLBOROUGH,2501752
22401,131557,-71.55,42.35,MASSACHUSETTS,MARLBOROUGH,2501752
22401,131555,-72.6,42.59,MASSACHUSETTS,GREENFIELD,2501301
22086,130158,-70.5655,41.8161,MASSACHUSETTS,NAMELOC HGTS,2502360
22401,131554,-71.56,42.39,MASSACHUSETTS,HUDSON,2501749
118179,710222,-71.52,42.15,MASSACHUSETTS,MILFORD,2501757
118179,710223,-71.12,41.82,MASSACHUSETTS,DIGHTON,2502715
118179,710224,-71.05,41.82,MASSACHUSETTS,MYRICKS,2502779
1161692,5374756,-71.26666999999999,42.55,MASSACHUSETTS,BILLERICA,2501821
41407,255304,-70.955,42.693999999999996,MASSACHUSETTS,ROOTY PLAIN,2501969
41407,241731,-72.54,42.12,MASSACHUSETTS,EAST SPRINGFIELD,2501109
85904,518682,-71.9,42.63,MASSACHUSETTS,ASHBURNHAM,2501430
22086,130154,-72.25,42.25,MASSACHUSETTS,WARE,2501082
22401,131567,-71.9,42.55,MASSACHUSETTS,WESTMINSTER,2501473
22401,131572,-72.93,42.18,MASSACHUSETTS,BLANDFORD,2501008
85904,518684,-71.59,42.56,MASSACHUSETTS,AYER,2501432
22401,131577,-72.64,42.21,MASSACHUSETTS,HIGHLANDS,2501040
22086,130161,-70.57,41.88,MASSACHUSETTS,MANOMET,2502360
22401,131575,-72.8,42.2,MASSACHUSETTS,MONTGOMERY,2501085
22401,131574,-72.8,42.43,MASSACHUSETTS,GOSHEN,2501096
41407,255308,-70.844,42.701,MASSACHUSETTS,IPSWICH,2501938
22401,131573,-72.93,42.18,MASSACHUSETTS,BLANDFORD,2501008
1197066,5469359,-72.58333,42.13333,MASSACHUSETTS,CHICOPEE,2501104
1197066,5469360,-72.58333,42.13333,MASSACHUSETTS,CHICOPEE,2501104
1197066,5469362,-72.33333,42.5,MASSACHUSETTS,NEW SALEM,2501355
41407,255307,-70.818,42.656000000000006,MASSACHUSETTS,IPSWICH,2501938
41407,255306,-70.877,42.703,MASSACHUSETTS,KENT CORNER,2501938
1197073,5469053,-72.58333,42.11667,MASSACHUSETTS,SPRINGFIELD,2501104
85904,518683,-71.59,42.67,MASSACHUSETTS,HOVEY CORNER,2501463
1197073,5469057,-72.58333,42.05,MASSACHUSETTS,LONGMEADOW,2501106
22401,131571,-72.92,42.52,MASSACHUSETTS,PLAINFIELD,2501070
100249,600481,-72.0,42.58,MASSACHUSETTS,GARDNER,2501440
9017,51301,-71.02,42.6,MASSACHUSETTS,MIDDLETON,2501949
1215375,5521036,-73.21667,42.51667,MASSACHUSETTS,LANESBOROUGH,2501237
1214348,5517097,-71.5,42.01667,MASSACHUSETTS,BLACKSTONE,
1214348,5517095,-71.9,42.25,MASSACHUSETTS,LEICESTER,2501524
1214348,5517095,-71.86667,42.11667,MASSACHUSETTS,LEICESTER,2501540
1214348,5517094,-72.31667,42.1,MASSACHUSETTS,MONSON,2501057
109727,656428,-71.3266,42.4643,MASSACHUSETTS,MERRIAMS CORNER,2501742
30526,178808,-72.44,42.14,MASSACHUSETTS,NORTH WILBRAHAM,2501095
1214348,5517098,-71.28333,41.93333,MASSACHUSETTS,ATTLEBORO,2502703
1214348,5517093,-72.58333,42.13333,MASSACHUSETTS,CHICOPEE,2501104
1214348,5517088,-72.58333,42.13333,MASSACHUSETTS,CHICOPEE,2501104
1214348,5517087,-70.03333,41.93333,MASSACHUSETTS,WELLFLEET,2502667
1214346,5517085,-72.61667,42.06667,MASSACHUSETTS,AGAWAM,2501001
100249,600495,-71.95,42.37,MASSACHUSETTS,RUTLAND,2501543
100249,600494,-72.11,42.42,MASSACHUSETTS,BARRE,2501005
100249,600493,-71.44,42.58,MASSACHUSETTS,WESTFORD,2501886
1214348,5517089,-72.58333,42.11667,MASSACHUSETTS,SPRINGFIELD,2501104
100249,600492,-71.51,42.54,MASSACHUSETTS,HARWOOD,2501460
1214350,5517104,-72.41667,42.06667,MASSACHUSETTS,HAMPDEN,2501036
1214350,5517106,-71.08333,42.28333,MASSACHUSETTS,DORCHESTER,2502124
100249,600499,-71.5565,42.3466,MASSACHUSETTS,LOWELL JCT,2501752
100249,600498,-71.57,42.39,MASSACHUSETTS,HUDSON,2501749
100249,600497,-72.01,42.47,MASSACHUSETTS,HUBBARDSTON,2501452
27838,163366,-71.1993,42.2354,MASSACHUSETTS,WESTWOOD,2502090
27838,163367,-71.08,42.24,MASSACHUSETTS,MILTON,2502186
88728,535052,-72.98,42.28,MASSACHUSETTS,CHESTER,2501011
1135936,5298934,-73.05,42.51667,MASSACHUSETTS,WINDSOR,2501270
100249,600496,-71.17,42.55,MASSACHUSETTS,WILMINGTON,2501887
10557,58679,-72.88,42.63,MASSACHUSETTS,CHARLEMONT,2501339
10557,58678,-72.95,42.72,MASSACHUSETTS,MONROE BRIDGE,2501367
10557,58677,-72.95,42.72,MASSACHUSETTS,MONROE BRIDGE,2501367
64666,386916,-71.7,42.39,MASSACHUSETTS,CLINTON JCT,2501505
1215195,5521242,-70.91667,42.53333,MASSACHUSETTS,PEABODY,2501960
1215195,5521240,-72.4,42.55,MASSACHUSETTS,WENDELL,2501379
10557,58680,-72.78,42.6,MASSACHUSETTS,BUCKLAND,2501370
1215195,5521242,-70.86667,42.48333,MASSACHUSETTS,PEABODY,2501945
100249,600491,-72.19,42.49,MASSACHUSETTS,PETERSHAM,2501366
100249,600489,-71.43,42.49,MASSACHUSETTS,EAST ACTON,2501720
1116136,5250317,-72.33333,42.16667,MASSACHUSETTS,LUDLOW,2501069
31981,187547,-73.02,42.35,MASSACHUSETTS,MIDDLEFIELD,2501243
131572,787093,-72.2267,42.339,MASSACHUSETTS,HARDWICK,2501031
131572,787093,-72.2153,42.3484,MASSACHUSETTS,HARDWICK,2501037
68675,416798,-71.06,42.45,MASSACHUSETTS,OAK GROVE,2502176
88928,536058,-70.8773,42.8126,MASSACHUSETTS,NEWBURYPORT,2501950
1116136,5250320,-71.86667,42.45,MASSACHUSETTS,PRINCETON,2501541
100249,600482,-72.19,42.68,MASSACHUSETTS,ROYALSTON,2501368
1097173,5150759,-73.11667,42.63333,MASSACHUSETTS,ADAMS,2501220
88928,536033,-72.669,42.2668,MASSACHUSETTS,EASTHAMPTON,2501027
88928,536032,-72.8328,42.1995,MASSACHUSETTS,RUSSELL,2501085
1168179,5393096,-70.68333,41.96667,MASSACHUSETTS,PLYMOUTH,2502360
1206859,5497303,-70.95,42.46667,MASSACHUSETTS,LYNN,2501902
96281,578737,-73.3677,42.3337,MASSACHUSETTS,WEST STOCKBRIDGE,2501266
88928,536041,-71.30199999999999,42.6704,MASSACHUSETTS,DRACUT,2501826
100249,600490,-71.59,42.56,MASSACHUSETTS,AYER,2501432
100249,600485,-71.8,42.58,MASSACHUSETTS,FITCHBURG,2501420
1116136,5250322,-72.31667,42.1,MASSACHUSETTS,MONSON,2501057
21509,127179,-72.93,42.18,MASSACHUSETTS,BLANDFORD,2501008
48489,283325,-72.67,42.1,MASSACHUSETTS,WEST SPRINGFIELD,2501089
88728,535058,-72.65,42.12,MASSACHUSETTS,WEST SPRINGFIELD,2501089
88728,535059,-72.62,42.07,MASSACHUSETTS,AGAWAM,2501001
48489,283322,-70.95,41.6,MASSACHUSETTS,SOUTH DARTMOUTH,2502748
88728,535060,-72.62,42.07,MASSACHUSETTS,AGAWAM,2501001
100249,600486,-71.76,42.53,MASSACHUSETTS,LEOMINSTER,2501453
100249,600488,-71.65,42.54,MASSACHUSETTS,SHIRLEY,2501464
48489,283320,-70.92,41.65,MASSACHUSETTS,FAIRHAVEN,2502740
21509,127185,-72.98,42.28,MASSACHUSETTS,CHESTER,2501011
1116140,5249788,-72.91667,42.51667,MASSACHUSETTS,PLAINFIELD,2501070
1135936,5298933,-73.05,42.51667,MASSACHUSETTS,WINDSOR,2501270
1116136,5250324,-71.5,42.43333,MASSACHUSETTS,STOW,2501775
109727,656428,-71.3398,42.4567,MASSACHUSETTS,CONCORD,2501742
100249,600487,-72.88,42.24,MASSACHUSETTS,HUNTINGTON,2501050
1215195,5521244,-71.26666999999999,42.55,MASSACHUSETTS,BILLERICA,2501821
1215195,5521322,-71.08333,42.43333,MASSACHUSETTS,WAKEFIELD,2502148
100249,600500,-71.42,42.38,MASSACHUSETTS,SUDBURY CENTER,2501776
100249,600514,-71.62,42.27,MASSACHUSETTS,WESTBOROUGH,2501581
100249,600513,-71.16,42.35,MASSACHUSETTS,BRIGHTON,2502135
115945,697632,-72.92,42.52,MASSACHUSETTS,PLAINFIELD,2501070
115945,697631,-72.9,42.7,MASSACHUSETTS,ROWE,2501367
1215314,5521364,-71.65,42.15,MASSACHUSETTS,UXBRIDGE,2501534
1211823,5513534,-70.86667,42.48333,MASSACHUSETTS,STERLING,2501945
100249,600515,-71.21,42.34,MASSACHUSETTS,NEWTON,2502460
1215314,5521364,-71.63333,42.08333,MASSACHUSETTS,UXBRIDGE,2501569
64695,403598,-70.89,42.47,MASSACHUSETTS,SWAMPSCOTT,2501907
18625,109812,-73.07,42.2,MASSACHUSETTS,OTIS,2501253
64695,403597,-70.95,42.47,MASSACHUSETTS,LYNN,2501902
64695,403595,-71.06,42.43,MASSACHUSETTS,WEST EVERETT,2502148
64695,403594,-71.1,42.47,MASSACHUSETTS,FARM HILL,2502180
64695,403593,-70.97,42.53,MASSACHUSETTS,WEST PEABODY,2501960
64695,403599,-70.92,42.42,MASSACHUSETTS,NAHANT,
42586,251472,-73.26,42.45,MASSACHUSETTS,PITTSFIELD,2501201
100249,600516,-71.88,42.45,MASSACHUSETTS,PRINCETON,2501541
100249,600518,-71.3,42.37,MASSACHUSETTS,GREEN,2502493
1122129,5264666,-72.18333,42.48333,MASSACHUSETTS,PETERSHAM,2501366
1211823,5513534,-70.91667,42.53333,MASSACHUSETTS,STERLING,2501960
64695,403602,-71.34,41.81,MASSACHUSETTS,SEEKONK,
117373,709388,-71.65,42.15,MASSACHUSETTS,NORTHBRIDGE,2501534
117373,709390,-71.67,42.11,MASSACHUSETTS,WHITINSVILLE,2501588
117373,709394,-72.93,42.18,MASSACHUSETTS,BLANDFORD,2501008
100249,600517,-71.76,42.44,MASSACHUSETTS,STERLING,2501564
64695,403601,-71.12,41.81,MASSACHUSETTS,DIGHTON,2502715
1215309,5520766,-71.16667,42.11667,MASSACHUSETTS,SHARON,2502067
43569,253599,-72.5,42.45,MASSACHUSETTS,LEVERETT,2501054
43564,253568,-71.09,42.78,MASSACHUSETTS,HAVERHILL,2501830
100249,600520,-71.18,42.4,MASSACHUSETTS,BELMONT,2502478
99052,594705,-72.86,42.19,MASSACHUSETTS,RUSSELL,2501071
100249,600519,-71.29,42.3,MASSACHUSETTS,WELLESLEY,2502482
1215309,5520760,-71.85,42.35,MASSACHUSETTS,HOLDEN,2501520
64695,403592,-71.04,42.54,MASSACHUSETTS,LYNNFIELD,2501940
64695,403591,-70.87,42.53,MASSACHUSETTS,SALEM CGAS,2501970
64695,403579,-71.3,42.67,MASSACHUSETTS,DRACUT,2501826
1215195,5521324,-70.91667,42.53333,MASSACHUSETTS,PEABODY,2501960
100249,600503,-71.36,42.36,MASSACHUSETTS,WAYLAND,2501778
100249,600502,-71.45,42.43,MASSACHUSETTS,MAYNARD,2501754
100249,600501,-71.42,42.28,MASSACHUSETTS,FRAMINGHAM,2501702
54851,329983,-70.08,41.75,MASSACHUSETTS,BREWSTER,2502631
10557,58683,-72.22,42.6,MASSACHUSETTS,ATHOL,2501331
100249,600504,-71.21,42.34,MASSACHUSETTS,NEWTON,2502460
1215195,5521324,-70.95,42.46667,MASSACHUSETTS,PEABODY,2501902
21850,129051,-72.54,42.12,MASSACHUSETTS,EAST SPRINGFIELD,2501109
131572,787081,-71.1919,41.9737,MASSACHUSETTS,NORTON,2502766
10557,58682,-72.22,42.6,MASSACHUSETTS,ATHOL,2501331
1215195,5521322,-71.06667,42.5,MASSACHUSETTS,WAKEFIELD,2501880
1119891,5258416,-72.23333000000001,42.26667,MASSACHUSETTS,WARE,2501082
10557,58681,-72.6,42.6,MASSACHUSETTS,GREENFIELD,2501301
131572,787081,-71.1987,41.9628,MASSACHUSETTS,NORTON,2502766
27838,163365,-71.28,42.25,MASSACHUSETTS,DOVER,2502030
1179717,5421441,-71.33333,42.06667,MASSACHUSETTS,FRANKLIN,2502093
1179717,5421441,-71.4,42.08333,MASSACHUSETTS,FRANKLIN,2502038
100249,600512,-71.18,42.37,MASSACHUSETTS,WATERTOWN,2502472
85904,518680,-71.93,42.05,MASSACHUSETTS,DUDLEY,2501571
1215337,5521628,-73.36667,42.25,MASSACHUSETTS,HOUSATONIC,2501236
100249,600510,-71.62,42.27,MASSACHUSETTS,WESTBOROUGH,2501581
100249,600509,-71.95,42.37,MASSACHUSETTS,RUTLAND,2501543
100249,600508,-71.23,42.61,MASSACHUSETTS,TEWKSBURY,2501876
54851,329579,-72.76,42.14,MASSACHUSETTS,WESTFIELD,2501085
1119889,5258408,-71.15,42.71667,MASSACHUSETTS,LAWRENCE,2501841
100249,600507,-71.12,42.33,MASSACHUSETTS,BROOKLINE,2502445
27838,163364,-71.24,42.28,MASSACHUSETTS,NEEDHAM,2502492
1119891,5258415,-72.5,42.35,MASSACHUSETTS,SOUTH AMHERST,2501002
42552,248265,-73.1059,42.6959,MASSACHUSETTS,NORTH ADAMS,2501247
1119891,5258415,-72.4,42.28333,MASSACHUSETTS,SOUTH AMHERST,2501007
100249,600506,-71.11,42.38,MASSACHUSETTS,INMAN SQUARE,2502138
100249,600505,-71.24,42.38,MASSACHUSETTS,BLEACHERY,2502451
131572,787099,-71.9875,42.4893,MASSACHUSETTS,HUBBARDSTON,2501452
131572,787099,-71.9972,42.4763,MASSACHUSETTS,HUBBARDSTON,2501452
88928,536057,-71.1631,42.707,MASSACHUSETTS,LAWRENCE,2501840
22504,132138,-70.03,41.93,MASSACHUSETTS,WELLFLEET,2502667
32163,188595,-73.18,42.42,MASSACHUSETTS,NORTH ADAMS JCT,2501226
75309,455024,-73.2542,42.4484,MASSACHUSETTS,PITTSFIELD,2501201
1174492,5410206,-72.6,42.6,MASSACHUSETTS,GREENFIELD,2501301
1174489,5408746,-70.8,42.06667,MASSACHUSETTS,PEMBROKE,2502359
1174489,5408745,-71.25,42.13333,MASSACHUSETTS,FRANKLIN,2502081
1174489,5408745,-71.4,42.08333,MASSACHUSETTS,FRANKLIN,2502038
1142162,5312927,-72.75,42.11667,MASSACHUSETTS,WESTFIELD,2501085
1142169,5312948,-72.13333,42.55,MASSACHUSETTS,PHILLIPSTON,2501331
21134,125103,-71.32,42.12,MASSACHUSETTS,NORFOLK,2502056
90099,541332,-70.61,41.73,MASSACHUSETTS,BOURNE,2502532
90099,541333,-70.53,41.77,MASSACHUSETTS,SAGAMORE,2502561
131572,787104,-72.0089,42.4788,MASSACHUSETTS,HUBBARDSTON,2501452
90099,541335,-70.92,42.13,MASSACHUSETTS,ROCKLAND,2502370
75439,455564,-71.0915,42.1023,MASSACHUSETTS,STOUGHTON,2502072
1215192,5521222,-72.31667,42.1,MASSACHUSETTS,MONSON,2501057
1215192,5521224,-72.2,42.21667,MASSACHUSETTS,WARREN,2501083
75439,455564,-71.0962,42.0981,MASSACHUSETTS,STOUGHTON,2502072
1215193,5521227,-71.33333,42.06667,MASSACHUSETTS,FRANKLIN,2502093
118551,713203,-72.585,42.3418,MASSACHUSETTS,HADLEY,2501035
75445,455578,-72.68,42.52,MASSACHUSETTS,CONWAY,2501341
75445,455579,-72.33,42.5,MASSACHUSETTS,NEW SALEM,2501355
61845,369862,-72.07,42.56,MASSACHUSETTS,TEMPLETON,2501468
75445,455580,-71.99,42.58,MASSACHUSETTS,GARDNER,2501440
75445,455581,-72.04,42.56,MASSACHUSETTS,EAST TEMPLETON,2501438
75445,455584,-72.78,42.53,MASSACHUSETTS,ASHFIELD,2501330
1215193,5521227,-71.4,42.08333,MASSACHUSETTS,FRANKLIN,2502038
1117336,5252523,-73.25,42.31667,MASSACHUSETTS,LEE,2501238
61845,369863,-71.9,42.55,MASSACHUSETTS,WESTMINSTER,2501473
61845,369864,-72.53,42.26,MASSACHUSETTS,GRANBY,2501033
27838,163381,-71.03,42.12,MASSACHUSETTS,AVON,2502322
90099,541326,-70.95,42.18,MASSACHUSETTS,SOUTH WEYMOUTH NAS,2502190
53738,322054,-73.26,42.45,MASSACHUSETTS,PITTSFIELD,2501201
96551,580636,-72.0,42.58,MASSACHUSETTS,GARDNER,2501440
99804,598460,-71.24,42.38,MASSACHUSETTS,BLEACHERY,2502451
53738,322057,-73.24,42.6,MASSACHUSETTS,NEW ASHFORD,2501237
53738,322058,-73.23899999999999,42.4485,MASSACHUSETTS,PITTSFIELD,2501201
90099,541327,-71.01,42.15,MASSACHUSETTS,HOLBROOK,2502343
90099,541328,-71.05,42.18,MASSACHUSETTS,RANDOLPH,2502368
90099,541329,-72.42,42.07,MASSACHUSETTS,HAMPDEN,2501036
53738,322059,-73.0834,42.3318,MASSACHUSETTS,BECKET,2501223
53738,322060,-73.26,42.45,MASSACHUSETTS,PITTSFIELD,2501201
90099,541330,-71.52,42.15,MASSACHUSETTS,MILFORD,2501757
53738,322061,-73.1676,42.4756,MASSACHUSETTS,DALTON,2501226
90099,541331,-71.54,42.13,MASSACHUSETTS,HOPEDALE,2501747
99804,598459,-70.99,42.73,MASSACHUSETTS,GEORGETOWN,2501833
99804,598458,-72.04,42.69,MASSACHUSETTS,WINCHENDON,2501475
88530,533837,-71.73,42.59,MASSACHUSETTS,LUNENBURG,2501462
1215195,5521232,-71.83333,42.2,MASSACHUSETTS,AUBURN,2501501
88530,533836,-71.77,42.52,MASSACHUSETTS,WHALOM,2501453
22159,130485,-73.07,42.2,MASSACHUSETTS,OTIS,2501253
22159,130486,-73.15,42.56,MASSACHUSETTS,CHESHIRE,2501225
96536,580527,-70.95,42.23,MASSACHUSETTS,NORTH WEYMOUTH,2502188
96536,580528,-71.02,42.22,MASSACHUSETTS,BRAINTREE,2502184
88530,533822,-71.9,42.63,MASSACHUSETTS,ASHBURNHAM,2501430
22166,130506,-73.06,42.51,MASSACHUSETTS,WINDSOR,2501226
100249,600483,-71.91,42.64,MASSACHUSETTS,ASHBURNHAM,2501430
96536,580529,-71.03,42.27,MASSACHUSETTS,QUINCY,2502170
100249,600484,-71.91,42.55,MASSACHUSETTS,WESTMINSTER,2501473
32163,188596,-73.29,42.36,MASSACHUSETTS,LENOX,2501240
96551,580635,-72.0,42.58,MASSACHUSETTS,GARDNER,2501440
27838,163386,-70.93,42.1,MASSACHUSETTS,ABINGTON,2502351
27838,163383,-71.2,42.19,MASSACHUSETTS,WINSLOWS,2502062
27838,163382,-71.0051,42.1067,MASSACHUSETTS,BROCKTON,2502302
99801,598454,-71.73,42.35,MASSACHUSETTS,BOYLSTON CENTER,2501505
1215195,5521236,-71.41667,42.28333,MASSACHUSETTS,FRAMINGHAM,2501702
53738,322056,-73.12,42.63,MASSACHUSETTS,ADAMS,2501220
22504,132142,-70.03,41.93,MASSACHUSETTS,WELLFLEET,2502667
1117336,5252519,-73.1,42.7,MASSACHUSETTS,NORTH ADAMS,2501247
22504,132151,-70.61,41.73,MASSACHUSETTS,BOURNE,2502532
53738,322062,-73.1247,42.4395,MASSACHUSETTS,HINSDALE,2501235
1101822,5169884,-71.33333,42.06667,MASSACHUSETTS,WRENTHAM,2502093
41407,241250,-71.01,42.26,MASSACHUSETTS,WOLLASTON,2502170
1117330,5252510,-73.25,42.31667,MASSACHUSETTS,LEE,2501238
32046,187918,-71.1891,42.6789,MASSACHUSETTS,SOUTH LAWRENCE,2501810
1117330,5252509,-73.36667,42.25,MASSACHUSETTS,HOUSATONIC,2501236
1101822,5169882,-70.91667,41.65,MASSACHUSETTS,FAIRHAVEN,2502719
1101822,5169881,-71.0,42.01667,MASSACHUSETTS,WEST BRIDGEWATER,2502379
40166,233631,-71.08,42.28,MASSACHUSETTS,DORCHESTER,2502124
21509,127200,-72.68,42.27,MASSACHUSETTS,EASTHAMPTON,2501027
1116136,5250317,-72.48333000000001,42.16667,MASSACHUSETTS,LUDLOW,2501056
1097164,5150633,-73.25,42.45,MASSACHUSETTS,PITTSFIELD,2501201
22504,132149,-70.76,41.7,MASSACHUSETTS,MARION,2502738
1097164,5150714,-73.35,42.1,MASSACHUSETTS,SHEFFIELD,2501257
1119086,5257766,-73.25,42.45,MASSACHUSETTS,PITTSFIELD,2501201
1116136,5250316,-72.5,42.35,MASSACHUSETTS,SOUTH AMHERST,2501002
1116136,5250316,-72.4,42.28333,MASSACHUSETTS,SOUTH AMHERST,2501007
53738,322065,-72.9857,42.4779,MASSACHUSETTS,EAST WINDSOR,2501270
40166,235173,-73.02,42.35,MASSACHUSETTS,MIDDLEFIELD,2501243
90099,541343,-70.07,41.69,MASSACHUSETTS,HARWICH,2502645
90099,541344,-71.05,42.41,MASSACHUSETTS,EAST EVERETT,2502149
15538,88317,-70.0,41.78,MASSACHUSETTS,ORLEANS,2502653
1116136,5250315,-72.85,42.4,MASSACHUSETTS,CHESTERFIELD,2501012
21509,127258,-72.58,42.47,MASSACHUSETTS,SUNDERLAND,2501375
106979,641964,-72.4,42.27,MASSACHUSETTS,BELCHERTOWN,2501007
1119891,5258417,-72.98333000000001,42.28333,MASSACHUSETTS,CHESTER,2501011
106979,641963,-72.64,42.21,MASSACHUSETTS,HIGHLANDS,2501040
96281,578736,-73.4134,42.236000000000004,MASSACHUSETTS,ALFORD,2501230
90099,541342,-70.12,41.67,MASSACHUSETTS,WEST HARWICH,2502671
99804,598461,-71.35,42.28,MASSACHUSETTS,NATICK,2501760
1096646,5149985,-70.35,41.65,MASSACHUSETTS,OSTERVILLE,2502632
1096653,5148731,-72.58333,42.11667,MASSACHUSETTS,WEST SPRINGFIELD,2501104
22504,132144,-71.0675,41.7954,MASSACHUSETTS,ASSONET,2502702
1117336,5252577,-73.13333,42.26667,MASSACHUSETTS,WEST BECKET,2501223
90099,541336,-71.9,42.25,MASSACHUSETTS,LEICESTER,2501524
22504,132145,-70.92,41.708999999999996,MASSACHUSETTS,ACUSHNET,2502743
22504,132148,-70.91,41.7,MASSACHUSETTS,SHERWOOD FOREST,2502743
90099,541337,-70.2,41.73,MASSACHUSETTS,DENNIS,2502638
118551,713057,-71.52,42.15,MASSACHUSETTS,MILFORD,2501757
118551,713054,-71.1001,42.4802,MASSACHUSETTS,FARM HILL,2502180
118551,713052,-72.9125,42.6042,MASSACHUSETTS,CHARLEMONT,2501339
118543,712171,-72.9,42.7,MASSACHUSETTS,ROWE,2501367
9017,51300,-72.43,42.12,MASSACHUSETTS,WILBRAHAM,2501095
61845,369865,-71.76,42.52,MASSACHUSETTS,WHALOM,2501453
61845,369865,-71.73,42.59,MASSACHUSETTS,LUNENBURG,2501462
90099,541338,-70.17,41.66,MASSACHUSETTS,WEST DENNIS,2502670
61845,369870,-71.58,42.55,MASSACHUSETTS,AYER,2501434
1139783,5306747,-72.15,42.23333,MASSACHUSETTS,WEST BROOKFIELD,2501585
61845,369866,-71.57,42.61,MASSACHUSETTS,GROTON,2501450
1171444,5401415,-73.25,42.45,MASSACHUSETTS,PITTSFIELD,2501201
1175834,5412781,-73.16667,42.56667,MASSACHUSETTS,CHESHIRE,2501225
88734,535097,-71.0219,42.398,MASSACHUSETTS,CHELSEA,2502150
32163,188597,-73.32,42.29,MASSACHUSETTS,STOCKBRIDGE,2501262
1139778,5306728,-72.03333,42.06667,MASSACHUSETTS,SOUTHBRIDGE,2501550
88734,535097,-71.0037,42.4225,MASSACHUSETTS,REVERE,2502151
61845,369866,-71.65,42.54,MASSACHUSETTS,SHIRLEY,2501464
61845,369867,-71.47,42.54,MASSACHUSETTS,LITTLETON COMMON,2501460
1096653,5148733,-71.1,41.66667,MASSACHUSETTS,WESTPORT,2502790
61845,369868,-71.17,42.55,MASSACHUSETTS,WILMINGTON,2501887
1096653,5148732,-72.61667,42.06667,MASSACHUSETTS,AGAWAM,2501001
1096653,5148731,-72.66667,42.1,MASSACHUSETTS,WEST SPRINGFIELD,2501089
61845,369869,-71.08,42.58,MASSACHUSETTS,NORTH READING,2501864
90099,541339,-70.23,41.71,MASSACHUSETTS,YARMOUTH,2502675
