EPISODE_ID,EVENT_ID,LONGITUDE,LATITUDE,STATE,LOCATION,ZIPCODE
63239,395855,-74.5872,40.0666,NEW JERSEY,JACOBSTOWN,3408562
111157,663099,-74.3,40.66,NEW JERSEY,CRANFORD JCT,3407016
26072,158923,-74.65,40.23,NEW JERSEY,HAMILTON SQUARE,3408690
26072,158931,-75.12,39.93,NEW JERSEY,CAMDEN,3408104
4627,40288,-74.93,38.95,NEW JERSEY,WEST CAPE MAY,3408204
26072,158931,-75.07,39.95,NEW JERSEY,PENNSAUKEN,3408110
4627,40663,-74.47,40.8,NEW JERSEY,MORRISTOWN,3407960
26072,158933,-74.865,39.9684,NEW JERSEY,LUMBERTON,3408054
4627,40664,-74.57,40.72,NEW JERSEY,BERNARDSVILLE,3407924
26072,158933,-74.6943,40.037,NEW JERSEY,JOBSTOWN ARPT,3408041
26072,158938,-74.79899999999999,39.6514,NEW JERSEY,HAMMONTON,3408037
1218227,5525997,-74.38333,41.13333,NEW JERSEY,WEST MILFORD,3407480
133959,801822,-74.62,40.78,NEW JERSEY,MENDHAM,3407945
4627,40288,-74.92,38.93,NEW JERSEY,CAPE MAY,3408204
1218239,5526098,-74.3,40.7,NEW JERSEY,SPRINGFIELD,3407083
4618,39754,-75.0673,39.23,NEW JERSEY,BIVALVE,3408349
8029,57167,-74.68,40.52,NEW JERSEY,FLAGTOWN,3408821
4627,40665,-74.85,40.5,NEW JERSEY,FLEMINGTON,3408822
4627,40665,-74.92,40.63,NEW JERSEY,CLINTON,3408801
26072,158941,-74.02,40.22,NEW JERSEY,NEPTUNE,3407712
63239,395532,-74.29,39.72,NEW JERSEY,MANAHAWKIN ARPT,3408050
26072,158939,-74.72,39.85,NEW JERSEY,TABERNACLE,3408088
1218218,5525902,-74.38333,40.63333,NEW JERSEY,FANWOOD,3407023
8029,57194,-74.65,40.5,NEW JERSEY,WOODS TAVERN,3408844
54450,327004,-75.0894,39.6577,NEW JERSEY,CLAYTON,3408312
53313,340673,-74.9328,39.8454,NEW JERSEY,GIBBSBORO,3408043
57610,345798,-74.07,40.93,NEW JERSEY,ORADELL,3407652
105591,633472,-75.01,40.75,NEW JERSEY,BRASS CASTLE,3407882
67541,405792,-74.62,40.32,NEW JERSEY,PRINCETON JCT,3408540
105591,633469,-74.59,40.96,NEW JERSEY,CALLAHANS,3407885
1103780,5157849,-74.66667,40.35,NEW JERSEY,PRINCETON,3408540
105591,633467,-74.59,40.96,NEW JERSEY,CALLAHANS,3407885
19209,133875,-74.92,39.73,NEW JERSEY,FLORENCE,3408081
19209,133875,-74.79,39.71,NEW JERSEY,WATERFORD WORKS,3408089
79298,475647,-73.97,40.85,NEW JERSEY,FT LEE,3407024
8029,57155,-74.93,40.73,NEW JERSEY,CHANGEWATER,3408826
80291,480928,-74.0926,40.9317,NEW JERSEY,PASSAIC JCT,3407410
1095440,5146758,-74.81667,39.63333,NEW JERSEY,HAMMONTON,3408037
80291,480928,-74.0779,40.9459,NEW JERSEY,ORADELL,3407652
19209,133878,-75.0383,39.4098,NEW JERSEY,MILLVILLE,3408332
8029,57142,-74.85,40.5,NEW JERSEY,FLEMINGTON,3408822
1174021,5409003,-74.1,41.03333,NEW JERSEY,SADDLE RIVER,3407458
1174021,5409002,-74.13333,41.03333,NEW JERSEY,ALLENDALE,3407401
62626,394281,-74.77,40.62,NEW JERSEY,WHITEHOUSE STATION,3408889
62626,394280,-74.92,40.63,NEW JERSEY,CLINTON,3408801
62626,394279,-74.83,40.63,NEW JERSEY,LEBANON,3408833
67541,405791,-74.78,40.33,NEW JERSEY,PENNINGTON,3408534
67541,405790,-74.62,40.32,NEW JERSEY,PRINCETON JCT,3408540
67541,405789,-74.67,40.35,NEW JERSEY,PRINCETON,3408540
8029,57142,-75.07,40.53,NEW JERSEY,FRENCHTOWN,
19209,133878,-75.1925,39.4513,NEW JERSEY,CARLIS CORNER,3408302
1174129,5408079,-74.66667,40.35,NEW JERSEY,PRINCETON,3408540
1174106,5407986,-75.46667,39.53333,NEW JERSEY,HARMERSVILLE,3408079
1174090,5407968,-75.03333,39.4,NEW JERSEY,MILLVILLE,3408332
53313,340675,-74.9745,39.9222,NEW JERSEY,CHERRY HILL,3408054
53313,340677,-75.05,39.95,NEW JERSEY,MERCHANTVILLE,3408109
53313,340679,-74.9209,39.8891,NEW JERSEY,MARLTON,3408053
53313,340681,-75.23,39.73,NEW JERSEY,MULLICA HILL,3408062
53313,340683,-74.87,39.65,NEW JERSEY,WINSLOW,3408095
53313,340684,-75.05,39.57,NEW JERSEY,MALAGA,3408328
19209,133792,-75.05,39.77,NEW JERSEY,TURNERSVILLE,3408012
19209,133799,-75.02,39.6,NEW JERSEY,JANVIER,3408322
19209,133799,-74.98,39.58,NEW JERSEY,BLUE BELL,3408344
19209,133832,-75.0,39.68,NEW JERSEY,WILLIAMSTOWN,3408094
19209,133866,-75.52,39.65,NEW JERSEY,PENNSVILLE,3408070
19209,133867,-74.9058,39.2128,NEW JERSEY,ELDORA,3408270
19209,133868,-74.6586,39.2642,NEW JERSEY,MARMORA,3408223
26072,158916,-74.8,40.8,NEW JERSEY,SCHOOLEYS MTN,3407853
19209,133869,-74.5742,39.3428,NEW JERSEY,LINWOOD,3408221
19209,133869,-74.6,39.32,NEW JERSEY,SOMERS PT,3408244
19209,133874,-75.23,39.73,NEW JERSEY,MULLICA HILL,3408062
19209,133874,-74.97,39.65,NEW JERSEY,CECIL,3408094
43081,260784,-74.49,40.06,NEW JERSEY,NEW EGYPT,3408533
43081,260784,-74.45,40.07,NEW JERSEY,ARCHERS CORNER,3408527
1095440,5146759,-74.48333000000001,39.45,NEW JERSEY,ABSECON,3408205
1174079,5407888,-74.75,41.35,NEW JERSEY,COLESVILLE,
1174080,5407889,-74.5,41.2,NEW JERSEY,VERNON,3407462
1174085,5407962,-75.05,39.56667,NEW JERSEY,MALAGA,3408328
1174088,5407966,-74.61667,40.61667,NEW JERSEY,GREEN KNOLL,3408807
53313,340672,-74.9614,39.8519,NEW JERSEY,GIBBSBORO,3408043
55557,349128,-74.48,41.18,NEW JERSEY,HIGHLAND LAKES,3407462
62771,394314,-74.5,39.43,NEW JERSEY,ABSECON,3408201
44216,265882,-74.5,40.55,NEW JERSEY,SOUTH BOUND BROOK,3408854
94618,578619,-74.35,40.47,NEW JERSEY,SAYREVILLE,3408872
64383,405200,-74.8053,41.2147,NEW JERSEY,LAYTON,3407826
64383,405199,-74.82,41.25,NEW JERSEY,HAINESVILLE,3407827
21253,125707,-74.37,40.63,NEW JERSEY,FANWOOD,3407076
76587,472233,-74.2223,39.7133,NEW JERSEY,MANAHAWKIN,3408050
76587,472233,-74.2688,39.6849,NEW JERSEY,CEDAR RUN,3408092
41504,256715,-74.4265,40.3445,NEW JERSEY,JAMESBURG,3408831
26545,162855,-74.7367,39.9198,NEW JERSEY,VINCENTOWN,3408088
88620,542198,-74.7,39.97,NEW JERSEY,PEMBERTON,3408068
74636,467414,-74.65,40.88,NEW JERSEY,LEDGEWOOD,3407852
1116561,5251256,-74.28333,40.81667,NEW JERSEY,WEST CALDWELL,3407068
74636,471117,-74.5955,40.8772,NEW JERSEY,HOPATCONG JCT,3407803
1161403,5333145,-74.46667,40.8,NEW JERSEY,MORRISTOWN,3407960
1161368,5333809,-74.01666999999999,40.21667,NEW JERSEY,NEPTUNE,3407712
1161366,5333806,-74.53333,39.81667,NEW JERSEY,CHATSWORTH,3408019
1161350,5333511,-74.46667,40.56667,NEW JERSEY,MILLTOWN,3408854
1161350,5333511,-74.43333,40.45,NEW JERSEY,MILLTOWN,3408850
1161348,5333428,-74.71667,40.5,NEW JERSEY,NESHANIC,3408844
1161348,5333428,-74.65,40.5,NEW JERSEY,NESHANIC,3408844
7394,42420,-74.12,40.9,NEW JERSEY,SADDLE BROOK,3407407
1161347,5333427,-74.85,40.5,NEW JERSEY,FLEMINGTON,3408822
1161343,5333422,-74.33333,40.53333,NEW JERSEY,METUCHEN,3408837
53053,336370,-74.58,39.97,NEW JERSEY,BROWNS MILLS,3408015
1123183,5268748,-74.65,40.5,NEW JERSEY,WOODS TAVERN,3408844
1116561,5251254,-74.21667,40.66667,NEW JERSEY,ELIZABETH,3407202
34315,201726,-74.9815,40.8549,NEW JERSEY,PEQUEST,3407823
32338,189309,-74.2401,41.0279,NEW JERSEY,OAKLAND,3407436
1137365,5300727,-74.56667,40.81667,NEW JERSEY,MT FREEDOM,3407869
1137362,5300724,-74.86667,40.96667,NEW JERSEY,JOHNSONBURG,3407860
1137346,5300661,-75.01666999999999,39.83333,NEW JERSEY,SOMERDALE,3408084
1137345,5300660,-74.91667,39.88333,NEW JERSEY,MARLTON,3408053
1137345,5300660,-74.9,39.93333,NEW JERSEY,MARLTON,3408054
1191053,5456647,-74.11667,40.81667,NEW JERSEY,RUTHERFORD,3407071
1134890,5296852,-74.21667,40.9,NEW JERSEY,TOTOWA,3407512
1134890,5296853,-74.11667,40.86667,NEW JERSEY,GARFIELD,3407055
1134890,5296853,-74.11667,40.81667,NEW JERSEY,GARFIELD,3407071
38430,231430,-74.65,40.23,NEW JERSEY,HAMILTON SQUARE,3408690
1134890,5296856,-74.15,41.05,NEW JERSEY,RAMSEY,3407446
1212718,5515089,-74.11667,40.66667,NEW JERSEY,BAYONNE,3407002
1120578,5260084,-75.15,40.58333,NEW JERSEY,HOLLAND,3408848
32348,189421,-74.0614,41.0214,NEW JERSEY,HILLSDALE MANOR,3407677
26273,162212,-74.9455,39.8503,NEW JERSEY,GIBBSBORO,3408043
86442,534400,-74.82,40.27,NEW JERSEY,WEST TRENTON,3408628
86442,534401,-74.72,39.85,NEW JERSEY,TABERNACLE,3408088
4359,39595,-75.08,40.9445,NEW JERSEY,COLUMBIA,3407832
4359,39588,-75.08,40.93,NEW JERSEY,COLUMBIA,3407832
1137344,5300659,-75.01666999999999,39.91667,NEW JERSEY,CAMDEN,3408002
50939,327104,-74.0145,40.1785,NEW JERSEY,SOUTH BELMAR,3407719
18758,132956,-74.8172,40.0134,NEW JERSEY,TIMBUCTOO,3408060
26273,162211,-75.03,39.48,NEW JERSEY,VINELAND,3408360
26273,162210,-75.03,39.48,NEW JERSEY,VINELAND,3408360
7394,42420,-74.1,41.03,NEW JERSEY,SADDLE RIVER,3407458
1152009,5357075,-74.43333,40.5,NEW JERSEY,NEW BRUNSWICK,3408904
1152009,5357075,-74.48333000000001,40.5,NEW JERSEY,NEW BRUNSWICK,3408873
56340,337909,-74.22,40.8445,NEW JERSEY,MONTCLAIR,3407009
19154,113159,-74.15,40.8,NEW JERSEY,BELLEVILLE,3407109
19154,112955,-74.26,40.79,NEW JERSEY,WEST ORANGE,3407052
29946,186479,-74.9104,40.6366,NEW JERSEY,CLINTON,3408809
56340,337907,-74.28,40.82,NEW JERSEY,WEST CALDWELL,3407021
51608,333697,-74.6,41.12,NEW JERSEY,FRANKLIN,3407416
51608,333701,-74.65,41.03,NEW JERSEY,SPARTA,3407871
51608,333751,-74.35,40.23,NEW JERSEY,SMITHBURG,3407726
73799,462768,-74.83,40.57,NEW JERSEY,STANTON,3408822
51608,333753,-74.3294,40.1081,NEW JERSEY,VAN HISEVILLE,3408527
1137341,5300655,-74.96667,39.83333,NEW JERSEY,SOMERDALE,3408026
29950,186341,-74.8282,39.0712,NEW JERSEY,MAYVILLE,3408210
29946,186479,-74.959,40.5817,NEW JERSEY,PITTSTOWN,3408867
29946,186489,-74.18,40.35,NEW JERSEY,HOLMDEL,3407733
29946,186522,-74.64699999999999,40.229,NEW JERSEY,HAMILTON SQUARE,3408690
29950,186341,-74.899,38.9965,NEW JERSEY,WILDWOOD MAY CO ARPT,3408204
1137317,5300591,-74.58333,39.28333,NEW JERSEY,OCEAN CITY,3408226
1137336,5300649,-74.88333,40.03333,NEW JERSEY,WILLINGBORO,3408046
1137336,5300649,-74.81667,40.0,NEW JERSEY,WILLINGBORO,3408060
1137336,5300648,-74.96667,40.03333,NEW JERSEY,DELRAN,3408075
73738,459152,-74.58,39.35,NEW JERSEY,LINWOOD,3408221
1178784,5419042,-74.38333,40.1,NEW JERSEY,CASSVILLE,3408527
33585,195157,-74.0328,40.744,NEW JERSEY,WEEHAWKEN,3407030
1178432,5417621,-73.96667,40.85,NEW JERSEY,FT LEE,3407024
7430,42651,-74.18,40.73,NEW JERSEY,NEWARK,3407102
7430,42651,-74.18,40.73,NEW JERSEY,NEWARK,3407102
23014,134622,-74.6441,39.5036,NEW JERSEY,COLOGNE,3408330
32378,189613,-74.3642,40.7167,NEW JERSEY,SUMMIT,3407901
32378,189615,-74.32,40.7,NEW JERSEY,SPRINGFIELD,3407081
32378,189619,-74.26,40.79,NEW JERSEY,WEST ORANGE,3407052
32378,189620,-74.26899999999999,40.7344,NEW JERSEY,MAPLEWOOD,3407040
32378,189623,-74.26,40.79,NEW JERSEY,WEST ORANGE,3407052
32378,189626,-74.26,40.79,NEW JERSEY,WEST ORANGE,3407052
1137344,5300659,-75.11667,39.93333,NEW JERSEY,CAMDEN,3408103
1137341,5300655,-75.01666999999999,39.83333,NEW JERSEY,SOMERDALE,3408084
116648,701636,-75.22,39.74,NEW JERSEY,JEFFERSON,3408062
116648,701634,-74.64,39.36,NEW JERSEY,SCULLVILLE,3408234
1177234,5417026,-74.21667,40.1,NEW JERSEY,LAKEWOOD,3408701
1177235,5417027,-74.13333,40.06667,NEW JERSEY,BRICK TOWN,3408724
1177242,5417035,-74.66667,40.18333,NEW JERSEY,YARDVILLE,3408620
116648,701633,-74.72,39.45,NEW JERSEY,MAYS LNDG,3408330
116648,701632,-74.75,39.5,NEW JERSEY,LAURELDALE,3408330
116648,701631,-74.88,39.54,NEW JERSEY,NEWTONVILLE,3408310
56168,336930,-74.13,40.07,NEW JERSEY,BRICK TOWN,3408724
28264,179770,-74.67,40.97,NEW JERSEY,BYRAM CAVE,3407821
88882,537214,-74.476,41.0592,NEW JERSEY,OAK RIDGE,3407438
15818,91254,-74.77,41.05,NEW JERSEY,NEWTON,3407860
1137365,5300727,-74.48333000000001,40.93333,NEW JERSEY,MT FREEDOM,3407866
63239,395530,-74.25,39.7,NEW JERSEY,MANAHAWKIN,3408050
19209,132992,-74.8763,39.0155,NEW JERSEY,WHITESBORO,3408242
19209,132998,-75.13,39.73,NEW JERSEY,PITMAN,3408071
51160,327919,-74.73,40.3,NEW JERSEY,LAWRENCEVILLE,3408648
51160,327914,-74.09,40.07,NEW JERSEY,METEDECONK,3408724
51115,327848,-74.8801,41.0375,NEW JERSEY,MIDDLEVILLE,3407860
51111,327171,-74.38,39.95,NEW JERSEY,WHITING,3408759
51111,327168,-74.38,39.95,NEW JERSEY,WHITING,3408759
8788,50232,-74.87,40.43,NEW JERSEY,RINGOES,3408551
64383,405231,-74.9122,41.1256,NEW JERSEY,WALLPACK CENTER,3407881
64383,405228,-74.56,40.62,NEW JERSEY,MT HOREB,3407059
64383,405226,-74.55,40.7,NEW JERSEY,BASKING RIDGE,3407920
1137409,5301501,-74.15,40.86667,NEW JERSEY,CLIFTON,3407011
1180209,5422003,-74.68333,40.26667,NEW JERSEY,LAWRENCEVILLE,3408619
64383,405225,-74.64,40.68,NEW JERSEY,BEDMINSTER,3407921
40361,249000,-74.4,40.52,NEW JERSEY,EDISON,3408817
22669,133141,-74.45,41.05,NEW JERSEY,NEWFOUNDLAND,3407435
64383,405223,-74.77,40.78,NEW JERSEY,LONG VLY,3407853
83818,522216,-74.87,40.07,NEW JERSEY,BURLINGTON,3408016
83818,522217,-74.82,40.12,NEW JERSEY,FLORENCE,3408518
64383,405216,-74.68,40.78,NEW JERSEY,CHESTER,3407930
64383,405213,-74.8,40.8,NEW JERSEY,SCHOOLEYS MTN,3407853
1135608,5300089,-74.7,40.15,NEW JERSEY,BORDENTOWN,3408505
95710,586680,-75.0,40.8,NEW JERSEY,OXFORD,3407863
1135615,5300097,-74.75,40.61667,NEW JERSEY,WHITEHOUSE,3408889
16160,113152,-74.73,40.88,NEW JERSEY,BUDD LAKE,3407828
1135618,5300100,-74.65,40.5,NEW JERSEY,WOODS TAVERN,3408844
1180208,5422002,-74.73333000000001,40.3,NEW JERSEY,LAWRENCEVILLE,3408648
8788,50228,-75.18,40.7,NEW JERSEY,PHILLIPSBURG,3408865
44216,264116,-74.77,40.62,NEW JERSEY,WHITEHOUSE STATION,3408889
1203496,5486627,-74.83333,39.96667,NEW JERSEY,LUMBERTON,3408036
29380,186170,-74.68,40.17,NEW JERSEY,GROVEVILLE,3408620
67541,405793,-74.7,39.97,NEW JERSEY,PEMBERTON,3408068
50020,311462,-75.1,40.57,NEW JERSEY,MILFORD,3408848
67541,405794,-74.25,40.32,NEW JERSEY,MARLBORO,3407746
67541,405795,-74.08,40.28,NEW JERSEY,EATONTOWN,3407724
63239,395528,-74.3,39.63,NEW JERSEY,WEST CREEK,3408092
125935,765475,-74.95,40.01,NEW JERSEY,RIVERSIDE,3408075
1135605,5299990,-74.53333,40.06667,NEW JERSEY,NEW EGYPT,3408533
64388,405291,-74.83,39.08,NEW JERSEY,CAPE MAY COURT HOUSE,3408210
63239,395527,-74.25,39.7,NEW JERSEY,MANAHAWKIN,3408050
66253,412950,-75.0975,39.8772,NEW JERSEY,GLOUCESTER HGTS,3408059
1135606,5299991,-74.51666999999999,40.13333,NEW JERSEY,CREAM RIDGE,3408514
63239,395504,-74.22,39.75,NEW JERSEY,BARNEGAT,3408005
1180106,5421923,-74.58333,39.38333,NEW JERSEY,BARGAINTOWN,3408234
1180130,5421948,-74.58333,39.88333,NEW JERSEY,FOUR MILE,3408088
1180130,5421948,-74.53333,39.88333,NEW JERSEY,FOUR MILE,3408015
1180141,5422170,-74.56667,39.9,NEW JERSEY,PRESIDENTIAL LAKES,3408015
1180190,5421777,-74.61667,40.78333,NEW JERSEY,MENDHAM,3407945
1180193,5421781,-74.76666999999999,40.61667,NEW JERSEY,WHITEHOUSE STATION,3408889
36342,211409,-74.87,39.17,NEW JERSEY,GOSHEN,3408210
66253,412950,-75.0965,39.8794,NEW JERSEY,GLOUCESTER HGTS,3408059
64383,405210,-74.77,41.15,NEW JERSEY,BRANCHVILLE,3407826
64383,405208,-74.8763,41.0356,NEW JERSEY,MIDDLEVILLE,3407860
64383,405205,-74.8399,41.1243,NEW JERSEY,MYRTLE GROVE,3407860
1135661,5300234,-74.86667,39.73333,NEW JERSEY,CHESILHURST,3408089
1135661,5300234,-74.9,39.76667,NEW JERSEY,CHESILHURST,3408004
1113024,5240652,-74.65,41.03333,NEW JERSEY,SPARTA,3407871
1135662,5300236,-74.53333,39.81667,NEW JERSEY,CHATSWORTH,3408019
1154973,5365438,-74.76666999999999,41.15,NEW JERSEY,BRANCHVILLE,3407826
1135663,5300238,-74.16667,39.9,NEW JERSEY,BAYVILLE,3408721
19209,133300,-75.5042,39.6929,NEW JERSEY,DEEPWATER,3408023
65412,409663,-74.0335,40.4114,NEW JERSEY,ATLANTIC HIGHLANDS,3407716
65412,409662,-74.47,41.01,NEW JERSEY,GREEN POND,3407435
20306,121029,-74.13,41.01,NEW JERSEY,WALDWICK,3407463
130601,781726,-74.11,40.98,NEW JERSEY,RIDGEWOOD,3407450
19209,133300,-75.3026,39.6445,NEW JERSEY,WOODSTOWN,3408098
19209,133003,-74.82,39.63,NEW JERSEY,ROSEDALE,3408037
19209,133001,-74.93,39.7221,NEW JERSEY,BERLIN,3408081
65412,409661,-74.65,41.03,NEW JERSEY,SPARTA,3407871
65412,409660,-74.17,40.4,NEW JERSEY,MIDDLETOWN,3407733
6679,53646,-74.37,39.42,NEW JERSEY,BRIGANTINE,3408203
32208,188700,-74.04,41.01,NEW JERSEY,HILLSDALE MANOR,3407642
6678,54242,-74.6,40.83,NEW JERSEY,IRONIA,3407869
22773,133583,-74.37,41.02,NEW JERSEY,APSHAWA,3407480
22773,133584,-74.17,41.0,NEW JERSEY,WORTENDYKE,3407481
19209,132998,-75.0924,39.73,NEW JERSEY,PITMAN,3408080
1135663,5300238,-74.18333,39.83333,NEW JERSEY,BAYVILLE,3408731
19209,133302,-74.9014,39.0539,NEW JERSEY,GREEN CREEK,3408210
62798,394344,-74.572,40.8399,NEW JERSEY,DOVER,3407869
62771,394319,-74.82,38.98,NEW JERSEY,WILDWOOD,3408260
1113023,5240651,-74.65,41.01667,NEW JERSEY,LAKE MOHAWK,3407871
35781,206999,-74.03,41.03,NEW JERSEY,WOODCLIFF LAKE,3407656
35781,206997,-74.3,40.85,NEW JERSEY,CALDWELL,3407006
22764,133523,-74.233,40.6805,NEW JERSEY,HILLSIDE,3407083
22764,133524,-73.97,40.85,NEW JERSEY,FT LEE,3407024
19209,133792,-75.27,39.68,NEW JERSEY,HARRISONVILLE,3408098
1218663,5529443,-75.1,39.86667,NEW JERSEY,WESTVILLE,3408031
1218664,5529494,-75.08333,39.8,NEW JERSEY,HADDON HGTS,3408096
1218664,5529494,-75.05,39.86667,NEW JERSEY,HADDON HGTS,3408007
1218665,5529495,-74.85,39.71667,NEW JERSEY,GLENDALE,3408089
1218665,5529495,-74.96667,39.83333,NEW JERSEY,GLENDALE,3408026
19209,133776,-75.3336,39.7527,NEW JERSEY,SWEDESBORO,3408085
19209,133650,-74.25,39.7,NEW JERSEY,MANAHAWKIN,3408050
19209,133649,-75.1584,39.6201,NEW JERSEY,ELMER,3408343
19209,133648,-74.83,39.25,NEW JERSEY,WOODBINE,3408270
19209,133303,-74.82,39.63,NEW JERSEY,HAMMONTON,3408037
19209,133302,-74.92,38.98,NEW JERSEY,ERMA,3408204
130601,781727,-74.13,40.96,NEW JERSEY,GLEN ROCK,3407452
62771,394304,-74.67,39.53,NEW JERSEY,EGG HARBOR CITY,3408215
62771,394310,-74.53,39.49,NEW JERSEY,PORT REPUBLIC,3408240
62771,394313,-74.6,39.48,NEW JERSEY,POMONA,3408215
8029,55997,-74.02,40.27,NEW JERSEY,OAKHURST,3407755
62771,394316,-74.82,38.98,NEW JERSEY,WILDWOOD,3408260
19209,132997,-75.1,39.67,NEW JERSEY,CLAYTON,3408312
63239,395857,-74.25,39.55,NEW JERSEY,BEACH HAVEN,3408008
27929,178072,-75.1036,39.8951,NEW JERSEY,GLOUCESTER CITY,3408030
30114,186816,-74.67,41.2408,NEW JERSEY,LIBERTYVILLE,3407461
1142946,5318055,-74.15,40.41667,NEW JERSEY,HAZLET,3407733
38971,240687,-75.18,39.3,NEW JERSEY,NEWPORT,3408311
38971,240686,-75.33,39.4,NEW JERSEY,GREENWICH,3408323
134578,806391,-74.11,40.98,NEW JERSEY,RIDGEWOOD,3407450
134578,806390,-74.15,40.94,NEW JERSEY,PROSPECT PARK,3407524
1159584,5334539,-74.31667,40.71667,NEW JERSEY,MILLBURN,3407081
1159584,5329388,-74.25,40.7,NEW JERSEY,NEW PROVIDENCE,3407083
1122866,5268806,-74.2,39.95,NEW JERSEY,TOMS RIVER,3408757
28510,167774,-74.1,41.0,NEW JERSEY,RIDGEWOOD,3407423
61502,367807,-74.9271,39.219,NEW JERSEY,ELDORA,3408314
134578,806392,-74.13,40.96,NEW JERSEY,GLEN ROCK,3407452
62290,382883,-74.87,39.67,NEW JERSEY,BLUE ANCHOR,3408037
62290,382885,-75.05,39.81,NEW JERSEY,BLENHEIM,3408012
62290,382886,-74.75,39.93,NEW JERSEY,VINCENTOWN,3408088
62290,382887,-74.82,39.83,NEW JERSEY,TAUNTON LAKE,3408055
50316,322712,-74.1035,40.1245,NEW JERSEY,RIVIERA BEACH,3408724
50316,322715,-74.0888,40.1642,NEW JERSEY,NEW BEDFORD,3407719
50316,322717,-74.2236,39.7534,NEW JERSEY,BARNEGAT,3408005
1170711,5398873,-74.68333,40.73333,NEW JERSEY,CHESTER,3407931
1170720,5398031,-74.6,40.58333,NEW JERSEY,ROYCE,3408807
1170720,5398031,-74.63333,40.51667,NEW JERSEY,ROYCE,3408844
1170721,5398032,-75.01666999999999,40.46667,NEW JERSEY,KINGWOOD,3408559
62290,382884,-75.0639,39.8018,NEW JERSEY,BLACKWOOD,3408012
19855,117806,-74.2537,41.1081,NEW JERSEY,RINGWOOD,3407456
134578,806393,-74.26,40.79,NEW JERSEY,WEST ORANGE,3407052
1092095,5134823,-75.01666999999999,39.91667,NEW JERSEY,BLACKWOOD,3408002
85029,513499,-74.229,40.7731,NEW JERSEY,AMPERE,3407050
85029,513498,-74.2389,40.7985,NEW JERSEY,BLOOMFIELD,3407052
28503,181873,-74.9366,40.0069,NEW JERSEY,RIVERSIDE,3408057
28503,181874,-74.9458,39.9567,NEW JERSEY,RAMBLEWOOD,3408057
1181374,5427468,-75.01666999999999,39.91667,NEW JERSEY,CHERRY HILL,3408002
28503,181926,-74.2,39.95,NEW JERSEY,TOMS RIVER,3408757
117250,705232,-74.71,40.15,NEW JERSEY,BORDENTOWN,3408505
117250,705230,-74.48,40.89,NEW JERSEY,MT TABOR,3407834
109149,653724,-74.05,40.89,NEW JERSEY,MAYWOOD,3407601
50636,325518,-75.23,39.43,NEW JERSEY,BRIDGETON,3408302
50316,322709,-74.25,40.32,NEW JERSEY,MARLBORO,3407746
50636,325521,-74.7281,39.4503,NEW JERSEY,MAYS LNDG,3408330
50636,325527,-75.03,39.48,NEW JERSEY,VINELAND,3408360
50636,325528,-74.8,39.52,NEW JERSEY,WEYMOUTH,3408330
50636,325530,-74.83,39.25,NEW JERSEY,WOODBINE,3408270
50636,325534,-74.906,39.215,NEW JERSEY,ELDORA,3408270
1142979,5318157,-75.05,39.75,NEW JERSEY,BELLS LAKE,3408012
1142979,5318156,-75.15,39.78333,NEW JERSEY,WENONAH,3408080
50316,322706,-74.4,40.27,NEW JERSEY,MANALAPAN,3407726
63666,403077,-74.82,40.12,NEW JERSEY,FLORENCE,3408518
50316,322707,-74.2907,40.4779,NEW JERSEY,SOUTH AMBOY JCT,3408879
1092095,5134823,-75.08333,39.8,NEW JERSEY,BLACKWOOD,3408096
50636,325526,-74.88,39.5,NEW JERSEY,RICHLAND,3408310
19855,117804,-74.0548,40.708,NEW JERSEY,GREENVILLE,3407305
19855,117802,-74.11,40.67,NEW JERSEY,BAYONNE,3407002
19855,117800,-74.17,40.7,NEW JERSEY,NEWARK ARPT,3407114
45882,266170,-74.13,40.79,NEW JERSEY,NORTH ARLINGTON,3407031
1216847,5522796,-74.58333,40.66667,NEW JERSEY,LIBERTY CORNER,3407920
1216846,5522795,-74.46667,40.78333,NEW JERSEY,MORRISTOWN,3407960
1216842,5522791,-74.83333,40.73333,NEW JERSEY,CALIFON,3407830
1132657,5289804,-74.25,40.93333,NEW JERSEY,WAYNE,3407470
1170722,5398033,-74.65,40.5,NEW JERSEY,WOODS TAVERN,3408844
1170723,5398034,-74.55,40.38333,NEW JERSEY,MONMOUTH JCT,3408852
1133832,5292616,-74.8,39.51667,NEW JERSEY,WEYMOUTH,3408330
1133820,5292602,-74.36667,40.83333,NEW JERSEY,EAST HANOVER,3407936
45882,266169,-74.12,40.75,NEW JERSEY,EAST NEWARK,3407032
45882,266171,-74.02,40.77,NEW JERSEY,WEEHAWKEN,3407086
37822,234142,-74.83,39.18,NEW JERSEY,SOUTH DENNIS,3408210
37822,234140,-74.13,40.07,NEW JERSEY,BRICK TOWN,3408724
37822,234139,-75.03,39.48,NEW JERSEY,VINELAND,3408360
37822,234137,-75.2454,39.4035,NEW JERSEY,BRIDGETON CALZI ARPT,3408302
37822,234137,-75.23,39.43,NEW JERSEY,BRIDGETON,3408302
45882,266168,-74.15,40.74,NEW JERSEY,EAST NEWARK,3407029
86796,534499,-75.18,40.6,NEW JERSEY,RIEGELSVILLE,3408865
45882,266167,-74.28,40.84,NEW JERSEY,CALDWELL,3407006
1133818,5292530,-74.41667,40.83333,NEW JERSEY,WHIPPANY,3407981
27345,160470,-75.1585,40.6638,NEW JERSEY,ALPHA,3408865
54099,341917,-74.42,40.75,NEW JERSEY,MADISON,3407940
37822,234141,-75.12,39.72,NEW JERSEY,GLASSBORO,3408028
1132657,5289805,-73.98333000000001,40.93333,NEW JERSEY,SADDLE BROOK,3407621
1132657,5289805,-74.11667,40.9,NEW JERSEY,SADDLE BROOK,3407407
1132657,5289806,-74.28333,40.81667,NEW JERSEY,WEST CALDWELL,3407068
10368,58333,-74.25,40.87,NEW JERSEY,NORTH CALDWELL,3407006
21788,134379,-74.64,39.33,NEW JERSEY,SCULLVILLE,3408234
21788,134376,-75.03,39.48,NEW JERSEY,VINELAND,3408360
21788,134376,-75.03,39.4,NEW JERSEY,MILLVILLE,3408332
10312,57362,-74.38,41.13,NEW JERSEY,WEST MILFORD,3407480
19855,117799,-74.1354,40.7186,NEW JERSEY,BRILLS JCT,3407105
62370,383501,-74.62,41.2,NEW JERSEY,SUSSEX,3407461
27453,161091,-74.25,40.95,NEW JERSEY,PACKANACK LAKE,3407470
27453,161090,-74.24,41.03,NEW JERSEY,OAKLAND,3407436
1216915,5523018,-74.71667,39.85,NEW JERSEY,TABERNACLE,3408088
1216891,5522920,-74.88333,40.03333,NEW JERSEY,WILLINGBORO,3408046
1216864,5522814,-74.53333,40.06667,NEW JERSEY,NEW EGYPT,3408533
27453,161089,-74.29,41.01,NEW JERSEY,BLOOMINGDALE,3407442
105417,632245,-74.35,39.78,NEW JERSEY,BROOKVILLE,3408005
105417,632247,-74.19,39.79,NEW JERSEY,WARETOWN,3408758
105417,632250,-74.31,39.78,NEW JERSEY,BROOKVILLE,3408005
63239,395997,-74.88,40.03,NEW JERSEY,WILLINGBORO,3408046
105417,632254,-74.22,40.1,NEW JERSEY,LAKEWOOD,3408701
105417,632257,-74.3,39.87,NEW JERSEY,CEDAR CREST,3408731
45882,266174,-74.3,40.85,NEW JERSEY,CALDWELL,3407006
45882,266173,-74.03,40.74,NEW JERSEY,WEEHAWKEN,3407030
45882,266172,-74.39,40.64,NEW JERSEY,FANWOOD,3407023
1132657,5289810,-74.21667,40.66667,NEW JERSEY,ELIZABETH,3407202
1120579,5260085,-74.15,40.41667,NEW JERSEY,WICKATUNK,3407733
54099,341916,-74.47,40.8,NEW JERSEY,MORRISTOWN,3407960
1120579,5260085,-74.25,40.35,NEW JERSEY,WICKATUNK,3407751
1120600,5260197,-74.18333,40.35,NEW JERSEY,HOLMDEL,3407733
64146,405060,-74.3054,40.1884,NEW JERSEY,FT PLAINS,3407728
1117670,5253831,-75.0,39.95,NEW JERSEY,MAPLE SHADE,3408052
1117671,5253835,-75.2,39.33333,NEW JERSEY,CEDARVILLE,3408311
1117709,5254063,-74.66667,39.65,NEW JERSEY,BATSTO,3408037
64146,405062,-74.07,40.33,NEW JERSEY,RED BANK,3407702
64146,405110,-74.4,40.4739,NEW JERSEY,NORTH BRUNSWICK,3408816
1120617,5260497,-74.6,39.31667,NEW JERSEY,SOMERS PT,3408244
1120617,5260497,-74.56667,39.33333,NEW JERSEY,SOMERS PT,3408221
1157987,5376589,-74.88333,39.13333,NEW JERSEY,GOSHEN,3408210
1092934,5138569,-74.76666999999999,40.61667,NEW JERSEY,WHITEHOUSE STATION,3408889
1117669,5253830,-75.05,39.95,NEW JERSEY,MERCHANTVILLE,3408109
63271,395055,-74.35,39.65,NEW JERSEY,WEST CREEK ARPT,3408087
84174,519264,-75.03,39.4,NEW JERSEY,MILLVILLE,3408332
63503,394926,-75.33,39.65,NEW JERSEY,WOODSTOWN,3408098
39182,240959,-74.5,39.43,NEW JERSEY,ABSECON,3408201
1112989,5239859,-74.15,40.86667,NEW JERSEY,CLIFTON,3407011
1112989,5239860,-74.11667,40.81667,NEW JERSEY,LYNDHURST,3407071
1112989,5239862,-74.08333,40.71667,NEW JERSEY,JERSEY CITY,3407304
39182,240959,-74.6,39.48,NEW JERSEY,POMONA,3408215
39182,240958,-74.4224,39.3623,NEW JERSEY,ATLANTIC CITY,3408401
67260,403332,-74.16,40.75,NEW JERSEY,EAST NEWARK,3407029
67260,403331,-74.02,40.77,NEW JERSEY,WEEHAWKEN,3407086
1137318,5300593,-74.38333,39.95,NEW JERSEY,WHITING,3408759
63271,395042,-74.38,40.45,NEW JERSEY,GILLESPIE,3408882
64146,405056,-74.6473,40.5106,NEW JERSEY,WOODS TAVERN,3408844
30614,179292,-74.3456,40.6506,NEW JERSEY,SCOTCH PLAINS,3407090
30593,179215,-74.4,41.11,NEW JERSEY,PINECREST LAKE,3407480
18500,125187,-74.17,40.28,NEW JERSEY,COLTS NECK,3407722
18500,125183,-74.43,40.23,NEW JERSEY,PERRINEVILLE,3408535
18500,125181,-74.28,40.27,NEW JERSEY,FREEHOLD,3407728
18500,125176,-75.05,39.88,NEW JERSEY,MT EPHRAIM,3408035
18500,125176,-75.12,39.88,NEW JERSEY,BROOKLAWN,3408030
18500,125173,-75.1419,39.8635,NEW JERSEY,VERGA,3408096
30599,179233,-74.23,40.86,NEW JERSEY,UPPER MONTCLAIR,3407009
30593,179212,-74.07,41.0,NEW JERSEY,WESTWOOD,3407676
30593,179209,-74.07,40.99,NEW JERSEY,WESTWOOD,3407676
30614,179293,-74.4149,40.6152,NEW JERSEY,PLAINFIELD,3407060
18500,125153,-74.08,40.33,NEW JERSEY,TINTON FALLS,3407724
18500,124994,-74.6373,39.2768,NEW JERSEY,WEST OCEAN CITY,3408223
96237,596056,-74.73,39.45,NEW JERSEY,MAYS LNDG,3408330
96237,596055,-74.6166,39.3823,NEW JERSEY,BARGAINTOWN,3408234
18500,124994,-74.5862,39.2679,NEW JERSEY,OCEAN CITY MUNI ARPT,3408226
18500,125210,-74.3,40.57,NEW JERSEY,WOODBRIDGE,3408830
18500,125226,-74.7067,39.2091,NEW JERSEY,SEAVILLE,3408230
1120634,5260319,-74.2,39.78333,NEW JERSEY,WARETOWN,3408758
64146,405052,-74.62,41.2,NEW JERSEY,SUSSEX,3407461
64146,405053,-74.75,40.98,NEW JERSEY,ANDOVER,3407821
32901,197912,-74.65,40.23,NEW JERSEY,HAMILTON SQUARE,3408690
18500,125030,-74.0118,40.18,NEW JERSEY,SOUTH BELMAR,3407719
1170672,5398547,-74.8,41.16667,NEW JERSEY,CULVERS LAKE,3407860
17077,115610,-74.92,38.93,NEW JERSEY,CAPE MAY,3408204
19932,132104,-74.38,40.98,NEW JERSEY,KINNELON,3407405
1170686,5398847,-74.41667,40.58333,NEW JERSEY,SOUTH PLAINFIELD,3407080
16723,114314,-74.14,40.15,NEW JERSEY,SQUANKUM,3407731
78083,470263,-74.3786,40.7223,NEW JERSEY,SUMMIT,3407901
78083,470263,-74.4528,40.6822,NEW JERSEY,BERKELEY HGTS,3407922
54776,342208,-75.0149,40.0115,NEW JERSEY,RIVERTON,3408077
54782,345532,-74.4756,39.4883,NEW JERSEY,SMITHVILLE ARPT,3408205
63566,394592,-74.33,39.6,NEW JERSEY,TUCKERTON,3408087
63576,402051,-74.9573,40.9826,NEW JERSEY,BLAIRSTOWN,3407825
71975,446134,-74.8,41.3,NEW JERSEY,MONTAGUE,3407827
71975,446135,-75.18,40.6,NEW JERSEY,RIEGELSVILLE,3408865
1170685,5398846,-74.56667,40.6,NEW JERSEY,MARTINSVILLE,3408836
63576,402060,-74.73,39.27,NEW JERSEY,PETERSBURG,3408270
63576,402070,-74.5664,39.278,NEW JERSEY,OCEAN CITY,3408226
54807,345238,-74.5517,40.2383,NEW JERSEY,HIGHTSTOWN,3408691
54807,345238,-74.5409,40.2357,NEW JERSEY,HIGHTSTOWN,3408520
68783,412624,-73.98,40.99,NEW JERSEY,NORTHVALE,3407640
67054,402236,-74.25,41.03,NEW JERSEY,OAKLAND,3407436
38323,234151,-75.18,40.6,NEW JERSEY,RIEGELSVILLE,3408865
38323,234155,-75.175,40.641,NEW JERSEY,CARPENTERVILLE,3408865
38323,234156,-75.18,40.7,NEW JERSEY,PHILLIPSBURG,3408865
67054,402234,-74.28,41.0,NEW JERSEY,POMPTON LAKES,3407442
1112989,5239864,-74.28333,40.81667,NEW JERSEY,WEST CALDWELL,3407068
63576,402067,-74.68,39.23,NEW JERSEY,PALERMO,3408230
63566,394585,-74.67,39.53,NEW JERSEY,EGG HARBOR CITY,3408215
63566,394583,-74.64,39.36,NEW JERSEY,SCULLVILLE,3408234
63566,394579,-74.5,39.43,NEW JERSEY,ABSECON,3408201
1142979,5318158,-75.0,39.68333,NEW JERSEY,WILLIAMSTOWN,3408094
1170677,5398554,-74.95,40.98333,NEW JERSEY,BLAIRSTOWN,3407825
1191999,5455803,-74.73333000000001,41.35,NEW JERSEY,MONTAGUE,
1192022,5456069,-74.71667,39.85,NEW JERSEY,MEDFORD,3408088
17082,114948,-74.4229,40.5008,NEW JERSEY,HIGHLAND PARK,3408904
17082,114948,-74.4392,40.4882,NEW JERSEY,HIGHLAND PARK,3408901
1192022,5456069,-74.81667,39.9,NEW JERSEY,MEDFORD,3408055
1192025,5456073,-74.56667,40.71667,NEW JERSEY,BERNARDSVILLE,3407924
1192026,5456074,-74.1,39.91667,NEW JERSEY,SEASIDE PARK,3408721
1192029,5456078,-74.73333000000001,41.35,NEW JERSEY,MONTAGUE,
1192037,5456087,-74.18333,39.83333,NEW JERSEY,FORKED RIVER,3408731
39182,240957,-74.73,39.45,NEW JERSEY,MAYS LNDG,3408330
63503,394927,-74.99,39.8,NEW JERSEY,CLEMENTON,3408021
84174,519263,-75.14,39.45,NEW JERSEY,CARMEL,3408302
84174,519262,-75.13,39.48,NEW JERSEY,ROSENHAYN,3408302
84174,519261,-75.18,39.47,NEW JERSEY,WOODRUFFS,3408302
84174,519260,-75.2,39.52,NEW JERSEY,HUSTED,3408302
84174,519259,-75.3268,39.6512,NEW JERSEY,WOODSTOWN,3408098
84174,519258,-75.2255,39.7384,NEW JERSEY,MULLICA HILL,3408062
84174,519256,-75.32,39.73,NEW JERSEY,SWEDESBORO,3408085
42827,260639,-74.8,41.3,NEW JERSEY,MONTAGUE,3407827
42827,260640,-74.62,41.2,NEW JERSEY,SUSSEX,3407461
63503,394931,-74.9,38.94,NEW JERSEY,CAPE MAY,3408204
1120584,5260090,-74.21667,40.4,NEW JERSEY,STRATHMORE,3407747
54099,341915,-74.4,40.45,NEW JERSEY,EAST BRUNSWICK,3408816
1216858,5522808,-74.61667,40.03333,NEW JERSEY,WRIGHTSTOWN,3408562
54099,341914,-74.97,40.77,NEW JERSEY,WASHINGTON,3407882
58339,349928,-73.97,40.9,NEW JERSEY,ENGLEWOOD CLIFFS,3407631
1148882,5347382,-74.95,40.05,NEW JERSEY,DELANCO,3408075
1148884,5347384,-74.73333000000001,40.3,NEW JERSEY,EWING TOWNSHIP,3408648
1148884,5347384,-74.78333,40.28333,NEW JERSEY,EWING TOWNSHIP,3408638
1148885,5347385,-74.65,40.46667,NEW JERSEY,SKILLMAN,3408502
1148885,5347385,-74.7,40.41667,NEW JERSEY,SKILLMAN,3408558
1148886,5347752,-74.51666999999999,40.4,NEW JERSEY,DEANS,3408852
1148887,5347753,-74.5,40.55,NEW JERSEY,SOUTH BOUND BROOK,3408854
1148888,5347754,-74.46667,40.56667,NEW JERSEY,MIDDLESEX,3408854
1148888,5347754,-74.43333,40.58333,NEW JERSEY,MIDDLESEX,3407080
1148889,5347755,-74.46667,40.61667,NEW JERSEY,GREEN BROOK,3408812
1148890,5347756,-74.41667,40.75,NEW JERSEY,MADISON,3407940
30114,186813,-74.4147,40.577,NEW JERSEY,SOUTH PLAINFIELD,3407080
1216842,5522791,-74.71667,40.71667,NEW JERSEY,CALIFON,3407934
1216841,5522790,-74.95,40.71667,NEW JERSEY,HAMPTON,3408827
1216837,5522741,-75.18333,40.7,NEW JERSEY,PHILLIPSBURG,3408865
1159584,5329388,-74.38333,40.7,NEW JERSEY,NEW PROVIDENCE,3407901
30114,186814,-74.7,40.42,NEW JERSEY,SKILLMAN,3408558
30114,186816,-74.5726,41.3012,NEW JERSEY,OWENS,3407461
58339,349927,-74.08,40.92,NEW JERSEY,BERGENFIELD,3407652
53727,340719,-74.432,40.2515,NEW JERSEY,PERRINEVILLE,3408535
1213703,5518472,-74.88333,40.0,NEW JERSEY,RANCOCAS,3408057
1100079,5163232,-75.11667,39.71667,NEW JERSEY,GLASSBORO,3408028
1213655,5518368,-75.05,39.76667,NEW JERSEY,TURNERSVILLE,3408012
129369,775177,-74.05,41.05,NEW JERSEY,MONTVALE,3407645
1180086,5422365,-75.46667,39.56667,NEW JERSEY,SALEM,3408079
1114982,5244852,-74.33333,40.35,NEW JERSEY,GORDONS CORNER,3408857
1176221,5413572,-74.43333,40.61667,NEW JERSEY,PLAINFIELD,3407060
1176221,5413573,-74.21667,40.66667,NEW JERSEY,ELIZABETH,3407202
1180105,5421919,-75.33333,39.4,NEW JERSEY,GREENWICH,3408323
1180105,5421919,-75.13333,39.48333,NEW JERSEY,GREENWICH,3408302
1148807,5346715,-74.25,40.7,NEW JERSEY,NEW PROVIDENCE,3407083
1148807,5346715,-74.38333,40.7,NEW JERSEY,NEW PROVIDENCE,3407901
1148807,5347399,-74.33333,40.71667,NEW JERSEY,SHORT HILLS,3407081
1148807,5347399,-74.28333,40.81667,NEW JERSEY,SHORT HILLS,3407068
53727,340719,-74.4119,40.2709,NEW JERSEY,MANALAPAN,3408535
1148807,5347400,-74.16667,40.9,NEW JERSEY,WEST PATERSON,3407503
1148807,5347401,-74.28333,40.81667,NEW JERSEY,WEST CALDWELL,3407068
1148807,5347401,-74.28333,40.76667,NEW JERSEY,WEST CALDWELL,3407052
1148807,5347402,-74.16667,40.9,NEW JERSEY,WEST PATERSON,3407503
1148807,5347402,-74.15,40.86667,NEW JERSEY,WEST PATERSON,3407011
1148807,5347403,-74.25,40.86667,NEW JERSEY,NORTH CALDWELL,3407006
1114982,5244852,-74.3,40.36667,NEW JERSEY,GORDONS CORNER,3408857
1213639,5517776,-75.23333000000001,39.8,NEW JERSEY,PAULSBORO,3408020
129369,775174,-73.97,41.0,NEW JERSEY,NORTHVALE,3407640
129369,775175,-74.05,41.05,NEW JERSEY,MONTVALE,3407645
129369,775176,-74.01,41.01,NEW JERSEY,RIVER VALE,3407675
1148807,5347400,-74.25,40.93333,NEW JERSEY,WEST PATERSON,3407470
1216799,5522638,-74.95,40.7,NEW JERSEY,GLEN GARDNER,3408826
1216792,5522631,-74.85,40.5,NEW JERSEY,FLEMINGTON,3408822
1216786,5522625,-74.35,41.0,NEW JERSEY,BUTLER,3407405
61281,379199,-74.95,40.03,NEW JERSEY,RIVERSIDE,3408075
89858,543315,-74.13,40.07,NEW JERSEY,BRICK TOWN,3408724
1216775,5522612,-74.08333,40.18333,NEW JERSEY,GLENDOLA,3407719
1216770,5524173,-75.05,39.88333,NEW JERSEY,COLLINGSWOOD,3408035
1216770,5524173,-75.08333,39.91667,NEW JERSEY,COLLINGSWOOD,3408107
1095356,5144700,-74.01666999999999,40.26667,NEW JERSEY,OAKHURST,3407755
103881,621330,-74.62,40.21,NEW JERSEY,ROBBINSVILLE,3408691
1095372,5144786,-74.76666999999999,41.05,NEW JERSEY,NEWTON,3407860
1095413,5146307,-74.71667,40.5,NEW JERSEY,NESHANIC,3408844
1095432,5146747,-75.15,40.66667,NEW JERSEY,PHILLIPSBURG,3408865
85610,529459,-74.47,40.57,NEW JERSEY,PISATAWAY,3408854
1095432,5146747,-75.18333,40.7,NEW JERSEY,PHILLIPSBURG,3408865
1095434,5146751,-74.46667,40.48333,NEW JERSEY,HIGHLAND PARK,3408901
1095438,5146755,-74.9,39.76667,NEW JERSEY,CAMDEN,3408004
1095438,5146755,-75.11667,39.93333,NEW JERSEY,CAMDEN,3408103
1095439,5146756,-75.08333,39.75,NEW JERSEY,GLASSBORO,3408080
63239,396351,-74.22,39.75,NEW JERSEY,BARNEGAT,3408005
67541,405787,-74.88,40.32,NEW JERSEY,TITUSVILLE,3408560
1174021,5408997,-74.38333,41.13333,NEW JERSEY,WEST MILFORD,3407480
1174021,5408998,-74.15,41.05,NEW JERSEY,RAMSEY,3407446
1174021,5409001,-74.08333,40.96667,NEW JERSEY,CENTRAL PORTION,3407652
67541,405788,-74.67,40.35,NEW JERSEY,PRINCETON,3408540
1095433,5146748,-74.95,40.7,NEW JERSEY,GLEN GARDNER,3408826
1114975,5244843,-74.61667,40.28333,NEW JERSEY,DUTCH NECK,3408550
85618,532962,-74.63,40.93,NEW JERSEY,MT ARLINGTON,3407856
67541,405785,-74.82,40.85,NEW JERSEY,HACKETTSTOWN,3407840
1142032,5313017,-74.16667,40.7,NEW JERSEY,(EWR)NEWARK INTL ARP,3407114
1195321,5468079,-74.46667,40.16667,NEW JERSEY,RED VLY,3408514
1195318,5463263,-74.81667,39.9,NEW JERSEY,MEDFORD,3408055
55163,331416,-73.97,40.98,NEW JERSEY,HARRINGTON PARK,3407624
55163,331417,-73.95,41.0,NEW JERSEY,NORWOOD,3407647
1159584,5329387,-74.06667,40.73333,NEW JERSEY,HOBOKEN,3407306
16397,117755,-74.08,40.38,NEW JERSEY,FAIRVIEW,3407748
16397,117755,-74.4,40.26,NEW JERSEY,MANALAPAN,3408535
16397,117406,-74.7208,40.902,NEW JERSEY,BUDD LAKE,3407828
16397,117390,-75.1319,39.48,NEW JERSEY,ROSENHAYN,3408302
67541,405786,-75.18,39.58,NEW JERSEY,ELMER,3408318
75112,471553,-74.22,39.75,NEW JERSEY,BARNEGAT,3408005
1209571,5506704,-74.3,41.03333,NEW JERSEY,WANAQUE,3407420
1209629,5507004,-74.35,41.0,NEW JERSEY,BUTLER,3407405
1209630,5507005,-74.58333,41.16667,NEW JERSEY,HAMBURG,3407419
55317,349063,-74.83,39.98,NEW JERSEY,HAINESPORT,3408048
55317,349064,-74.7,39.97,NEW JERSEY,PEMBERTON,3408068
55317,349065,-74.62,40.03,NEW JERSEY,WRIGHTSTOWN,3408640
55317,349066,-74.62,40.02,NEW JERSEY,FT DIX,3408640
55317,349069,-74.6685,40.014,NEW JERSEY,JULIUSTOWN,3408022
85618,532976,-74.82,40.85,NEW JERSEY,HACKETTSTOWN,3407840
85618,532963,-74.4857,41.0464,NEW JERSEY,GREEN POND,3407438
1209567,5506695,-74.08333,40.71667,NEW JERSEY,JERSEY CITY,3407304
1114972,5244840,-74.51666999999999,41.0,NEW JERSEY,WOODSTOCK,3407438
1137318,5300592,-74.26666999999999,39.68333,NEW JERSEY,CEDAR RUN,3408092
1141276,5309741,-74.21667,40.66667,NEW JERSEY,ELIZABETH,3407202
1162620,5371966,-74.81667,40.11667,NEW JERSEY,FLORENCE,3408518
1133813,5292523,-74.7,41.1,NEW JERSEY,LAFAYETTE,3407848
1141276,5309740,-74.1,40.88333,NEW JERSEY,GARFIELD,3407026
1132657,5289803,-74.38333,41.13333,NEW JERSEY,WEST MILFORD,3407480
1133816,5292526,-74.71667,40.96667,NEW JERSEY,BYRAM CAVE,3407821
51827,335259,-74.77,40.62,NEW JERSEY,WHITEHOUSE STATION,3408889
1197621,5473155,-74.85,39.9,NEW JERSEY,MEDFORD,3408055
1163346,5371877,-74.63333,40.66667,NEW JERSEY,BEDMINSTER,3407921
1170723,5398035,-74.43333,40.46667,NEW JERSEY,NORTH BRUNSWICK,3408901
1163343,5371873,-74.83333,39.98333,NEW JERSEY,HAINESPORT,3408060
1098479,5153679,-74.76666999999999,40.61667,NEW JERSEY,WHITEHOUSE STATION,3408889
103355,618181,-74.73,40.29,NEW JERSEY,LAWRENCEVILLE,3408648
103355,618180,-74.98,39.69,NEW JERSEY,WILLIAMSTOWN,3408094
74272,455807,-74.3,39.63,NEW JERSEY,WEST CREEK,3408092
93476,569666,-74.12,40.33,NEW JERSEY,LINCROFT,3407738
18216,124449,-74.8517,40.062,NEW JERSEY,BURLINGTON,3408016
53988,341451,-75.1,39.87,NEW JERSEY,WESTVILLE,3408031
54099,341910,-75.02,39.92,NEW JERSEY,CHERRY HILL,3408002
53988,341453,-74.8649,39.9684,NEW JERSEY,LUMBERTON,3408054
1141278,5309812,-74.06667,40.86667,NEW JERSEY,TETERBORO,3407604
1162621,5372298,-74.73333000000001,40.26667,NEW JERSEY,TRENTON,3408648
1162621,5372298,-74.75,40.21667,NEW JERSEY,TRENTON,3408609
54099,341909,-75.0,39.8,NEW JERSEY,CLEMENTON,3408021
103355,618177,-75.18,39.3,NEW JERSEY,NEWPORT,3408311
51833,335332,-74.37,40.42,NEW JERSEY,OLD BRIDGE,3408816
27345,160470,-75.1894,40.6931,NEW JERSEY,PHILLIPSBURG,3408865
1172266,5404691,-74.31667,40.78333,NEW JERSEY,LIVINGSTON,3407039
1141278,5309812,-74.06667,40.85,NEW JERSEY,TETERBORO,3407608
51821,333811,-74.82,40.12,NEW JERSEY,FLORENCE,3408518
1162620,5371966,-74.78333,40.11667,NEW JERSEY,FLORENCE,3408554
1162618,5371530,-74.91667,40.45,NEW JERSEY,SERGEANTSVILLE,3408559
1197619,5473152,-75.0,39.95,NEW JERSEY,MAPLE SHADE,3408052
1162559,5371731,-74.61667,40.03333,NEW JERSEY,WRIGHTSTOWN,3408562
1172266,5404621,-74.11667,40.81667,NEW JERSEY,LYNDHURST,3407071
42932,250280,-74.3033,40.9935,NEW JERSEY,POMPTON JCT,3407457
1133806,5292513,-74.6,39.31667,NEW JERSEY,SOMERS PT,3408244
1172266,5404619,-74.25,41.03333,NEW JERSEY,OAKLAND,3407436
1133811,5292521,-74.66667,41.28333,NEW JERSEY,COLESVILLE,3407461
64833,408428,-74.4,40.12,NEW JERSEY,JACKSON,3408527
64833,408427,-74.22,40.1,NEW JERSEY,LAKEWOOD,3408701
1162618,5371530,-74.85,40.48333,NEW JERSEY,SERGEANTSVILLE,3408822
1162548,5371718,-74.75,40.56667,NEW JERSEY,READINGTON,3408889
1162556,5371728,-74.55,39.93333,NEW JERSEY,COUNTRY LAKE ESTATES,3408015
1162557,5371729,-74.53333,40.06667,NEW JERSEY,NEW EGYPT,3408533
74267,458321,-74.22,40.42,NEW JERSEY,MATAWAN,3407747
74267,458318,-74.7801,39.9236,NEW JERSEY,VINCENTOWN,3408088
1162547,5371717,-74.75,40.66667,NEW JERSEY,OLDWICK,3408889
54099,341912,-75.07,39.95,NEW JERSEY,PENNSAUKEN,3408110
1114919,5245605,-74.25,40.93333,NEW JERSEY,WAYNE,3407470
1114919,5245604,-74.1,40.88333,NEW JERSEY,LODI,3407026
1141276,5309740,-74.11667,40.86667,NEW JERSEY,GARFIELD,3407055
1141276,5309742,-74.31667,40.63333,NEW JERSEY,CLARK,3407066
1172266,5404617,-74.28333,41.0,NEW JERSEY,POMPTON LAKES,3407442
18227,124802,-74.78,40.33,NEW JERSEY,PENNINGTON,3408534
1132657,5289803,-74.28333,41.0,NEW JERSEY,WEST MILFORD,3407442
1163351,5371882,-74.4,40.5,NEW JERSEY,HIGHLAND PARK,3408817
54099,341913,-74.9779,39.8104,NEW JERSEY,KIRKWOOD,3408021
