EPISODE_ID,EVENT_ID,LONGITUDE,LATITUDE,STATE,LOCATION,ZIPCODE
7946,45804,-71.3,42.8,NEW HAMPSHIRE,WINDHAM,3303087
1101818,5169868,-72.28333,42.86667,NEW HAMPSHIRE,SWANZEY,3303446
10716,59551,-72.35,43.38,NEW HAMPSHIRE,CLAREMONT,3303743
76053,458839,-71.02,43.49,NEW HAMPSHIRE,UNION,3303887
7946,45796,-71.35,42.8,NEW HAMPSHIRE,WEST WINDHAM,3303087
7946,45794,-70.88,43.2,NEW HAMPSHIRE,DOVER,3303820
7946,45808,-71.3223,44.0478,NEW HAMPSHIRE,JACKSON,3303812
76053,458838,-71.0,43.4634,NEW HAMPSHIRE,MILTON,3303851
7946,45795,-70.88,43.2,NEW HAMPSHIRE,DOVER,3303820
21921,129409,-71.22,43.15,NEW HAMPSHIRE,DEERFIELD,3303037
7946,45806,-70.88,43.2,NEW HAMPSHIRE,DOVER,3303820
21921,129406,-71.41,43.16,NEW HAMPSHIRE,ALLENSTOWN,3303275
1101818,5169869,-71.48333000000001,42.86667,NEW HAMPSHIRE,MERRIMACK,3303052
10556,58671,-71.83,42.82,NEW HAMPSHIRE,TEMPLE,3303084
7946,45797,-70.88,43.27,NEW HAMPSHIRE,SOMERSWORTH,3303878
76053,458842,-71.492,44.2368,NEW HAMPSHIRE,MT WASHINGTON,3303574
19342,114038,-71.47,43.29,NEW HAMPSHIRE,LOUDON,3303307
19342,114037,-71.82,43.18,NEW HAMPSHIRE,HENNIKER,3303242
7946,45798,-70.88,43.2,NEW HAMPSHIRE,DOVER,3303820
7946,45800,-71.32,42.87,NEW HAMPSHIRE,DERRY,3303038
79499,478415,-71.28,44.38,NEW HAMPSHIRE,RANDOLPH HILLS,3303593
10716,59553,-71.48,44.88,NEW HAMPSHIRE,COLEBROOK,3303576
85909,518691,-71.68,42.97,NEW HAMPSHIRE,NEW BOSTON,3303070
51461,305930,-71.49,42.75,NEW HAMPSHIRE,PINE HILL,3303060
51461,305929,-71.49,42.75,NEW HAMPSHIRE,PINE HILL,3303060
51461,305928,-71.62,42.87,NEW HAMPSHIRE,AMHERST,3303031
64665,386904,-72.28,42.93,NEW HAMPSHIRE,KEENE,3303431
85909,518690,-71.73,43.1,NEW HAMPSHIRE,WEARE,3303281
64665,386903,-72.45,42.97,NEW HAMPSHIRE,WESTMORELAND,3303467
64665,386902,-72.43,43.08,NEW HAMPSHIRE,WALPOLE,3303608
64665,386900,-72.43,43.08,NEW HAMPSHIRE,WALPOLE,3303608
64665,386898,-72.43,43.08,NEW HAMPSHIRE,WALPOLE,3303608
64665,386897,-72.27,43.05,NEW HAMPSHIRE,GILSUM,3303448
7946,46094,-71.27,43.87,NEW HAMPSHIRE,TAMWORTH,3303886
7787,44866,-72.28,42.93,NEW HAMPSHIRE,KEENE,3303431
85909,518692,-71.62,42.87,NEW HAMPSHIRE,AMHERST,3303031
21914,129345,-71.33,43.22,NEW HAMPSHIRE,EPSOM,3303234
7946,45814,-71.55,43.13,NEW HAMPSHIRE,BOW CENTER,3303304
76017,458706,-71.39,43.03,NEW HAMPSHIRE,SEVERANCE,3303032
76017,458707,-71.1,43.148999999999994,NEW HAMPSHIRE,NOTTINGHAM,3303290
7946,45813,-70.85,43.03,NEW HAMPSHIRE,GREENLAND,3303840
7795,44887,-72.22,42.9,NEW HAMPSHIRE,MARLBOROUGH,3303455
7946,45812,-70.98,43.3,NEW HAMPSHIRE,ROCHESTER,3303867
42147,245982,-70.87,43.2,NEW HAMPSHIRE,DOVER,3303820
1116135,5250313,-71.95,43.03333,NEW HAMPSHIRE,ANTRIM,3303440
1116135,5250312,-71.73333000000001,43.1,NEW HAMPSHIRE,WEARE,3303281
1116135,5250311,-72.36667,43.15,NEW HAMPSHIRE,ALSTEAD,3303602
79499,478416,-71.69,43.98,NEW HAMPSHIRE,WOODSTOCK,3303262
7946,45810,-71.47,43.7,NEW HAMPSHIRE,CENTER HARBOR,3303226
7946,45811,-71.68,44.28,NEW HAMPSHIRE,BETHLEHEM,3303574
64665,386896,-72.37,43.15,NEW HAMPSHIRE,ALSTEAD,3303602
85909,518693,-71.67,42.73,NEW HAMPSHIRE,BROOKLINE,3303033
51461,305931,-71.43,42.76,NEW HAMPSHIRE,HUDSON,3303051
64665,386905,-72.45,42.97,NEW HAMPSHIRE,WESTMORELAND,3303467
10716,59554,-72.18,43.37,NEW HAMPSHIRE,NEWPORT,3303773
7946,45809,-71.12,42.92,NEW HAMPSHIRE,DANVILLE,3303819
10716,59555,-71.73,43.6,NEW HAMPSHIRE,BRISTOL,3303222
10716,59556,-71.63,43.7,NEW HAMPSHIRE,ASHLAND,3303217
10716,59557,-72.35,43.38,NEW HAMPSHIRE,CLAREMONT,3303743
119985,719030,-71.09,43.87,NEW HAMPSHIRE,EAST MADISON,3303832
107569,644678,-71.5,43.65,NEW HAMPSHIRE,MEREDITH,3303253
107569,644679,-70.85,42.9,NEW HAMPSHIRE,SEABROOK,3303874
64665,386913,-72.28,42.93,NEW HAMPSHIRE,KEENE,3303431
7946,45793,-70.88,43.2,NEW HAMPSHIRE,DOVER,3303820
7959,45898,-71.55,43.2,NEW HAMPSHIRE,CONCORD,3303301
67176,402980,-70.99,43.41,NEW HAMPSHIRE,MILTON,3303851
67125,405917,-71.7585,43.6406,NEW HAMPSHIRE,BRIDGEWATER,3303222
7959,45897,-71.55,43.2,NEW HAMPSHIRE,CONCORD,3303301
7956,45887,-72.3097,43.3,NEW HAMPSHIRE,UNITY,3303743
7781,44845,-71.48,42.87,NEW HAMPSHIRE,MERRIMACK,3303052
67125,405917,-71.7492,43.6408,NEW HAMPSHIRE,BRIDGEWATER,3303222
67125,402634,-71.47,43.53,NEW HAMPSHIRE,LACONIA,3303246
7781,44845,-71.47,42.83,NEW HAMPSHIRE,LITCHFIELD,3303052
7781,44846,-71.42,42.77,NEW HAMPSHIRE,HUDSON,3303051
76017,458702,-71.78,43.43,NEW HAMPSHIRE,ANDOVER,3303216
76017,458703,-71.67,43.46,NEW HAMPSHIRE,FRANKLIN,3303235
76017,458704,-71.4317,43.0245,NEW HAMPSHIRE,SOUTH HOOKSETT,3303106
119985,719031,-71.08,43.91,NEW HAMPSHIRE,EATON CENTER,3303832
7785,44858,-71.85,42.75,NEW HAMPSHIRE,NEW IPSWICH,3303071
85909,518694,-71.67,42.73,NEW HAMPSHIRE,BROOKLINE,3303033
64665,386912,-72.32,42.87,NEW HAMPSHIRE,WEST SWANZEY,3303446
64665,386910,-71.95,43.03,NEW HAMPSHIRE,ANTRIM,3303440
64665,386906,-72.3,42.95,NEW HAMPSHIRE,KEENE,3303431
10716,59552,-72.35,43.38,NEW HAMPSHIRE,CLAREMONT,3303743
7946,45792,-70.88,43.2,NEW HAMPSHIRE,DOVER,3303820
19334,113996,-72.29,43.7,NEW HAMPSHIRE,HANOVER,3303755
7946,45787,-70.98,43.3,NEW HAMPSHIRE,ROCHESTER,3303867
126725,759670,-72.447,43.1461,NEW HAMPSHIRE,NORTH WALPOLE,3303609
126725,759670,-72.4319,43.1548,NEW HAMPSHIRE,NORTH WALPOLE,3303602
75488,455758,-72.07,42.94,NEW HAMPSHIRE,EASTVIEW,3303450
75488,455759,-71.98,42.97,NEW HAMPSHIRE,HANCOCK,3303449
75488,455760,-72.1,42.95,NEW HAMPSHIRE,HARRISVILLE,3303450
75488,455761,-72.07,42.92,NEW HAMPSHIRE,DUBLIN,3303444
109529,655580,-72.28,42.91,NEW HAMPSHIRE,NORTH SWANZEY,3303431
109529,655577,-72.28,42.89,NEW HAMPSHIRE,(EEN)DILLANT FLD ARP,3303446
109529,655576,-72.3,42.95,NEW HAMPSHIRE,KEENE,3303431
109529,655575,-72.3,42.95,NEW HAMPSHIRE,KEENE,3303431
119985,719029,-71.04,43.81,NEW HAMPSHIRE,EFFINGHAM FALLS,3303836
31426,184653,-71.24,43.18,NEW HAMPSHIRE,DEERFIELD,3303037
126725,759673,-72.4319,43.1548,NEW HAMPSHIRE,SOUTH CHARLESTOWN,3303602
31426,184654,-71.24,43.43,NEW HAMPSHIRE,ALTON,3303809
31426,184656,-70.99,43.54,NEW HAMPSHIRE,SANBORNVILLE,3303872
31427,184660,-71.4764,43.4459,NEW HAMPSHIRE,BELMONT,3303220
119985,719028,-71.57,43.34,NEW HAMPSHIRE,CANTERBURY,3303224
1154633,5363192,-70.98333000000001,43.3,NEW HAMPSHIRE,ROCHESTER,3303867
5816,34073,-71.32,42.73,NEW HAMPSHIRE,PELHAM,3303076
19196,113472,-70.85,43.25,NEW HAMPSHIRE,ROLLINSFORD,3303878
19196,113463,-71.12,43.98,NEW HAMPSHIRE,CONWAY,3303818
19196,113462,-71.12,43.98,NEW HAMPSHIRE,CONWAY,3303818
19196,113450,-71.13,44.05,NEW HAMPSHIRE,NORTH CONWAY,3303860
19196,113449,-71.12,43.98,NEW HAMPSHIRE,CONWAY,3303818
19196,113448,-71.13,44.05,NEW HAMPSHIRE,NORTH CONWAY,3303860
19196,113447,-71.13,44.05,NEW HAMPSHIRE,NORTH CONWAY,3303860
31426,184655,-71.17,43.31,NEW HAMPSHIRE,STRAFFORD,3303884
126725,759673,-72.0432,43.2369,NEW HAMPSHIRE,EAST WASHINGTON,3303221
126725,759676,-71.73,43.2913,NEW HAMPSHIRE,DINGIT CORNER,3303303
126725,759676,-72.0432,43.2369,NEW HAMPSHIRE,BOX CORNER,3303221
19322,113939,-71.97,43.65,NEW HAMPSHIRE,ORANGE,3303741
19322,113936,-71.94,43.56,NEW HAMPSHIRE,EAST GRAFTON,3303240
19321,113926,-71.08,43.03,NEW HAMPSHIRE,EPPING,3303042
19285,113773,-72.37,43.15,NEW HAMPSHIRE,ALSTEAD,3303602
1100554,5173397,-71.4,43.75,NEW HAMPSHIRE,MOULTONBORO,3303254
1100554,5173398,-71.4,43.75,NEW HAMPSHIRE,MOULTONBORO,3303254
1100554,5173399,-71.18333,43.03333,NEW HAMPSHIRE,RAYMOND,3303077
1100556,5173404,-71.9,43.86667,NEW HAMPSHIRE,WENTWORTH,3303282
1120885,5262497,-70.88333,43.2,NEW HAMPSHIRE,DOVER,3303820
7946,45763,-71.82,43.43,NEW HAMPSHIRE,ANDOVER,3303216
7946,45762,-71.07,43.03,NEW HAMPSHIRE,EPPING,3303042
1120879,5262412,-71.5,44.6,NEW HAMPSHIRE,GROVETON,3303582
1210628,5509455,-71.35,43.0,NEW HAMPSHIRE,AUBURN,3303032
1210628,5509456,-71.28333,43.08333,NEW HAMPSHIRE,CANDIA,3303034
1210629,5509457,-70.85,42.91667,NEW HAMPSHIRE,HAMPTON FALLS,3303844
7946,45760,-71.18,43.03,NEW HAMPSHIRE,RAYMOND,3303077
7946,45759,-71.18,43.03,NEW HAMPSHIRE,RAYMOND,3303077
7946,45758,-71.28,43.08,NEW HAMPSHIRE,CANDIA,3303034
7946,45757,-71.22,43.45,NEW HAMPSHIRE,ALTON,3303809
7946,45754,-71.32,42.87,NEW HAMPSHIRE,DERRY,3303038
7946,45752,-71.37,42.87,NEW HAMPSHIRE,LONDONDERRY,3303053
7946,45751,-71.37,42.87,NEW HAMPSHIRE,LONDONDERRY,3303053
7946,45749,-71.25,42.95,NEW HAMPSHIRE,CHESTER,3303036
7946,45746,-71.37,42.87,NEW HAMPSHIRE,LONDONDERRY,3303053
7946,45734,-71.22,43.45,NEW HAMPSHIRE,ALTON,3303809
57982,347660,-71.18,44.57,NEW HAMPSHIRE,MILAN,3303588
57986,347676,-71.33,43.22,NEW HAMPSHIRE,EPSOM,3303234
116737,702097,-71.35,43.91,NEW HAMPSHIRE,WONALANCET,3303818
116737,702096,-71.41,42.78,NEW HAMPSHIRE,HUDSON CENTER,3303051
116737,702095,-71.04,43.81,NEW HAMPSHIRE,EFFINGHAM FALLS,3303836
116737,702094,-71.15,43.9,NEW HAMPSHIRE,MADISON,3303849
7876,45318,-71.0,42.92,NEW HAMPSHIRE,EAST KINGSTON,3303827
7876,45317,-71.05,42.93,NEW HAMPSHIRE,KINGSTON,3303848
7876,45315,-71.13,42.98,NEW HAMPSHIRE,FREMONT,3303044
7876,45314,-71.13,42.98,NEW HAMPSHIRE,FREMONT,3303044
7876,45312,-71.18,42.92,NEW HAMPSHIRE,SANDOWN,3303873
19164,113063,-71.18,44.14,NEW HAMPSHIRE,JACKSON,3303846
19164,113062,-71.17,44.39,NEW HAMPSHIRE,GORHAM,3303581
7876,45310,-71.13,42.98,NEW HAMPSHIRE,FREMONT,3303044
7876,45309,-71.13,42.98,NEW HAMPSHIRE,FREMONT,3303044
7876,45308,-71.18,43.03,NEW HAMPSHIRE,RAYMOND,3303077
7876,45301,-71.18,43.03,NEW HAMPSHIRE,RAYMOND,3303077
7876,45298,-71.28,43.08,NEW HAMPSHIRE,CANDIA,3303034
39972,232482,-72.01,43.65,NEW HAMPSHIRE,CANAAN STREET,3303741
39972,232483,-72.14,43.64,NEW HAMPSHIRE,ENFIELD,3303748
39972,232486,-71.99,43.41,NEW HAMPSHIRE,NEW LONDON,3303257
39972,232492,-72.4,43.22,NEW HAMPSHIRE,CHARLESTOWN,3303603
39972,232494,-72.37,43.2,NEW HAMPSHIRE,LANGDON,3303602
39972,232495,-71.59,43.43,NEW HAMPSHIRE,NORTHFIELD,3303276
39972,232497,-71.65,43.44,NEW HAMPSHIRE,FRANKLIN,3303235
39972,232498,-72.01,43.65,NEW HAMPSHIRE,CANAAN STREET,3303741
1177262,5417109,-71.13333,44.78333,NEW HAMPSHIRE,ERROL,3303579
19164,113058,-71.41,43.79,NEW HAMPSHIRE,SANDWICH,3303227
33604,195265,-70.94,43.08,NEW HAMPSHIRE,NEWMARKET,3303857
19159,113035,-72.1,43.58,NEW HAMPSHIRE,GRAFTON CENTER,3303748
19159,113028,-72.14,43.64,NEW HAMPSHIRE,CANAAN STREET,3303748
76304,460057,-71.44,42.98,NEW HAMPSHIRE,MANCHESTER,3303103
33449,194465,-71.12,42.91,NEW HAMPSHIRE,SOUTH DANVILLE,3303819
9021,51328,-71.85,42.95,NEW HAMPSHIRE,GREENFIELD,3303047
19322,113942,-71.79,43.61,NEW HAMPSHIRE,ALEXANDRIA,3303222
9021,51329,-71.9906,42.82,NEW HAMPSHIRE,JAFFREY,3303452
7876,45319,-71.32,42.87,NEW HAMPSHIRE,DERRY,3303038
116737,702093,-71.18,43.89,NEW HAMPSHIRE,SILVER LAKE,3303875
116737,702092,-71.2,43.84,NEW HAMPSHIRE,WEST OSSIPEE,3303817
116737,702091,-71.15,43.9,NEW HAMPSHIRE,MADISON,3303849
116737,702090,-71.42,44.08,NEW HAMPSHIRE,WATERVILLE VLY,
116737,702089,-72.29,43.7,NEW HAMPSHIRE,HANOVER,3303755
116737,702088,-71.77,44.31,NEW HAMPSHIRE,LITTLETON,3303561
19196,113446,-71.12,43.98,NEW HAMPSHIRE,CONWAY,3303818
19196,113445,-71.12,43.98,NEW HAMPSHIRE,CONWAY,3303818
19196,113444,-71.13,44.05,NEW HAMPSHIRE,NORTH CONWAY,3303860
19196,113443,-71.12,43.98,NEW HAMPSHIRE,CONWAY,3303818
19196,113442,-71.15,44.08,NEW HAMPSHIRE,INTERVALE,3303845
19196,113439,-71.32,43.98,NEW HAMPSHIRE,WONALANCET,3303818
19195,113234,-71.52,44.6,NEW HAMPSHIRE,GROVETON,3303582
7876,45325,-71.15,42.83,NEW HAMPSHIRE,ATKINSON,3303811
7876,45324,-70.85,42.9,NEW HAMPSHIRE,SEABROOK,3303874
1118298,5256277,-71.03333,43.21667,NEW HAMPSHIRE,BARRINGTON,3303825
7876,45323,-71.32,42.87,NEW HAMPSHIRE,DERRY,3303038
7876,45322,-71.13,42.98,NEW HAMPSHIRE,FREMONT,3303044
9024,51347,-72.37,43.15,NEW HAMPSHIRE,ALSTEAD,3303602
9024,51346,-71.93,42.87,NEW HAMPSHIRE,PETERBOROUGH,3303458
9024,51345,-72.18,42.83,NEW HAMPSHIRE,TROY,3303465
1118298,5256273,-71.45,43.13333,NEW HAMPSHIRE,SUNCOOK,3303275
1118298,5256272,-71.4,43.16667,NEW HAMPSHIRE,ALLENSTOWN,3303275
1118298,5256271,-71.55,43.13333,NEW HAMPSHIRE,BOW CENTER,3303304
1118298,5256270,-71.46667,43.1,NEW HAMPSHIRE,HOOKSETT,3303106
1118298,5256269,-71.83333,43.18333,NEW HAMPSHIRE,HENNIKER,3303242
7876,45321,-70.93,42.97,NEW HAMPSHIRE,EXETER,3303833
9021,51330,-71.85,42.75,NEW HAMPSHIRE,NEW IPSWICH,3303071
7946,45791,-70.88,43.2,NEW HAMPSHIRE,DOVER,3303820
19322,113943,-71.74,43.59,NEW HAMPSHIRE,BRISTOL,3303222
19322,113946,-71.5,43.66,NEW HAMPSHIRE,MEREDITH,3303253
7946,45766,-70.93,43.17,NEW HAMPSHIRE,MADBURY,3303823
53923,323054,-71.39,43.84,NEW HAMPSHIRE,NORTH SANDWICH,3303259
53923,323053,-71.14,44.78,NEW HAMPSHIRE,ERROL,3303579
53923,323052,-71.19,44.47,NEW HAMPSHIRE,BERLIN,3303570
7946,45764,-71.03,43.22,NEW HAMPSHIRE,BARRINGTON,3303825
1161687,5374747,-72.43333,43.08333,NEW HAMPSHIRE,WALPOLE,3303608
1161687,5374746,-72.45,42.96667,NEW HAMPSHIRE,WESTMORELAND,3303467
100152,599882,-71.55,43.13,NEW HAMPSHIRE,BOW CENTER,3303304
100148,599871,-71.61,43.28,NEW HAMPSHIRE,PENACOOK,3303303
100147,599860,-72.38,42.97,NEW HAMPSHIRE,EAST WESTMORELAND,3303431
100147,599859,-71.4,43.75,NEW HAMPSHIRE,MOULTONBORO,3303254
100147,599858,-71.81,42.99,NEW HAMPSHIRE,FRANCESTOWN,3303043
30841,180998,-71.67,42.73,NEW HAMPSHIRE,BROOKLINE,3303033
100147,599857,-71.05,43.64,NEW HAMPSHIRE,GRANITE,3303872
100139,599831,-71.34,44.89,NEW HAMPSHIRE,UPPER KIDDERVILLE,3303576
100139,599829,-71.77,44.31,NEW HAMPSHIRE,LITTLETON,3303561
53923,323051,-71.6386,43.857,NEW HAMPSHIRE,PLYMOUTH,3303223
53923,323050,-71.81,43.81,NEW HAMPSHIRE,RUMNEY,3303266
53923,323049,-71.5075,44.4311,NEW HAMPSHIRE,JEFFERSON,3303583
53923,323048,-70.89,43.18,NEW HAMPSHIRE,DOVER,3303820
53923,323047,-70.87,43.2,NEW HAMPSHIRE,DOVER,3303820
53923,323046,-71.35,42.84,NEW HAMPSHIRE,LONDONDERRY,3303053
53923,323045,-71.18,42.87,NEW HAMPSHIRE,HAMPSTEAD,3303841
53923,323038,-71.1628,43.0174,NEW HAMPSHIRE,RAYMOND,3303077
53923,323036,-71.37,42.87,NEW HAMPSHIRE,LONDONDERRY,3303053
53923,323035,-71.18,44.14,NEW HAMPSHIRE,JACKSON,3303846
100147,599856,-72.01,42.75,NEW HAMPSHIRE,RINDGE,3303461
7946,45770,-71.03,43.22,NEW HAMPSHIRE,BARRINGTON,3303825
7946,45773,-71.03,43.22,NEW HAMPSHIRE,BARRINGTON,3303825
7946,45776,-71.18,43.03,NEW HAMPSHIRE,RAYMOND,3303077
7946,45786,-70.88,43.27,NEW HAMPSHIRE,SOMERSWORTH,3303878
7946,45785,-70.88,43.27,NEW HAMPSHIRE,SOMERSWORTH,3303878
7946,45783,-70.93,43.13,NEW HAMPSHIRE,DURHAM,3303824
65636,392955,-71.91,43.87,NEW HAMPSHIRE,WENTWORTH,3303282
65636,392956,-71.1871,43.8889,NEW HAMPSHIRE,MADISON,3303875
7946,45782,-70.88,43.27,NEW HAMPSHIRE,SOMERSWORTH,3303878
65636,392957,-71.17,43.44,NEW HAMPSHIRE,NEW DURHAM,3303855
65640,392976,-71.97,44.15,NEW HAMPSHIRE,BATH,3303740
66882,401239,-71.3119,43.6497,NEW HAMPSHIRE,WEST ALTON,3303816
65640,392977,-71.97,44.17,NEW HAMPSHIRE,BATH,3303740
65640,392978,-71.18,43.04,NEW HAMPSHIRE,RAYMOND,3303077
1135081,5294746,-71.41667,42.76667,NEW HAMPSHIRE,HUDSON,3303051
1135083,5294750,-72.0,42.8,NEW HAMPSHIRE,JAFFREY,3303452
1135083,5294750,-72.03333,42.81667,NEW HAMPSHIRE,JAFFREY,3303452
19336,114021,-71.33,42.88,NEW HAMPSHIRE,DERRY,3303038
1135083,5294752,-71.5,42.95,NEW HAMPSHIRE,BEDFORD,3303110
7946,45780,-71.47,43.7,NEW HAMPSHIRE,CENTER HARBOR,3303226
7946,45779,-70.98,43.3,NEW HAMPSHIRE,ROCHESTER,3303867
7946,45778,-70.98,43.3,NEW HAMPSHIRE,ROCHESTER,3303867
7946,45777,-70.88,43.2,NEW HAMPSHIRE,DOVER,3303820
53974,323375,-72.3,42.95,NEW HAMPSHIRE,KEENE,3303431
53974,323374,-72.28,42.93,NEW HAMPSHIRE,KEENE,3303431
53974,323373,-72.28,42.93,NEW HAMPSHIRE,KEENE,3303431
53974,323372,-72.28,42.87,NEW HAMPSHIRE,SWANZEY,3303446
53952,323187,-72.1,43.18,NEW HAMPSHIRE,WASHINGTON,3303280
64894,408496,-71.73,43.1,NEW HAMPSHIRE,WEARE,3303281
1168180,5393109,-71.45,42.98333,NEW HAMPSHIRE,MANCHESTER,3303103
52468,313445,-71.57,44.49,NEW HAMPSHIRE,LANCASTER,3303584
52468,313454,-71.7,44.42,NEW HAMPSHIRE,DALTON,
52468,313455,-71.57,44.49,NEW HAMPSHIRE,LANCASTER,3303584
19336,114020,-71.33,42.88,NEW HAMPSHIRE,DERRY,3303038
19336,114011,-71.57,43.34,NEW HAMPSHIRE,CANTERBURY,3303224
19334,114001,-71.3,42.8,NEW HAMPSHIRE,WINDHAM,3303087
20059,119601,-72.43,43.08,NEW HAMPSHIRE,WALPOLE,3303608
20059,119609,-72.43,43.08,NEW HAMPSHIRE,WALPOLE,3303608
52475,313488,-71.28,44.38,NEW HAMPSHIRE,RANDOLPH HILLS,3303593
52475,313491,-71.5827,44.3824,NEW HAMPSHIRE,WHITEFIELD,3303598
52475,313494,-71.54,44.27,NEW HAMPSHIRE,TWIN MTN ARPT,3303595
108760,651397,-71.31,45.02,NEW HAMPSHIRE,PITTSBURG,3303592
108760,651398,-71.54,44.86,NEW HAMPSHIRE,COLUMBIA,3303590
108760,651399,-71.92,44.34,NEW HAMPSHIRE,PATTENVILLE,3303561
108760,653509,-71.3427,45.0685,NEW HAMPSHIRE,PITTSBURG,3303592
108760,653509,-71.3014,45.07,NEW HAMPSHIRE,PITTSBURG,3303592
21095,124826,-72.45,42.97,NEW HAMPSHIRE,WESTMORELAND,3303467
108768,651479,-70.87,42.89,NEW HAMPSHIRE,SEABROOK,3303874
19334,113999,-71.35,43.0,NEW HAMPSHIRE,AUBURN,3303032
19334,113997,-71.37,42.87,NEW HAMPSHIRE,LONDONDERRY,3303053
9778,54647,-71.1,43.12,NEW HAMPSHIRE,NOTTINGHAM,3303290
9778,54646,-71.55,43.2,NEW HAMPSHIRE,CONCORD,3303301
9778,54645,-71.4,43.25,NEW HAMPSHIRE,CHICHESTER,3303258
9778,54644,-71.47,43.28,NEW HAMPSHIRE,LOUDON,3303307
9778,54643,-71.92,43.45,NEW HAMPSHIRE,WILMOT,3303287
9778,54642,-72.25,43.65,NEW HAMPSHIRE,LEBANON,3303766
9764,54586,-72.18,43.37,NEW HAMPSHIRE,NEWPORT,3303773
9764,54584,-72.27,43.3,NEW HAMPSHIRE,UNITY,3303743
54427,326900,-71.41,43.79,NEW HAMPSHIRE,SANDWICH,3303227
19322,113948,-71.54,43.21,NEW HAMPSHIRE,CONCORD,3303301
19322,113947,-71.55,43.13,NEW HAMPSHIRE,BOW CENTER,3303304
19336,114012,-71.33,42.88,NEW HAMPSHIRE,DERRY,3303038
19322,113945,-71.5,43.66,NEW HAMPSHIRE,MEREDITH,3303253
19336,114013,-71.33,42.88,NEW HAMPSHIRE,DERRY,3303038
9821,54840,-72.426,43.2464,NEW HAMPSHIRE,CLAREMONT,3303603
52468,313457,-71.57,44.49,NEW HAMPSHIRE,LANCASTER,3303584
5625,32896,-71.3,42.8,NEW HAMPSHIRE,WINDHAM,3303087
52468,313458,-71.57,44.49,NEW HAMPSHIRE,LANCASTER,3303584
52468,313460,-71.91,44.21,NEW HAMPSHIRE,LISBON,3303585
52468,313461,-71.91,44.21,NEW HAMPSHIRE,LISBON,3303585
52468,313462,-71.91,44.21,NEW HAMPSHIRE,LISBON,3303585
52475,313479,-71.23,44.4,NEW HAMPSHIRE,GORHAM STATION,3303581
76834,463799,-71.43,42.76,NEW HAMPSHIRE,HUDSON,3303051
52475,313482,-71.52,44.6,NEW HAMPSHIRE,GROVETON,3303582
52475,313484,-71.57,44.49,NEW HAMPSHIRE,LANCASTER,3303584
52475,313486,-71.57,44.49,NEW HAMPSHIRE,LANCASTER,3303584
19336,114019,-71.15,42.84,NEW HAMPSHIRE,ATKINSON,3303811
19336,114018,-71.33,42.88,NEW HAMPSHIRE,DERRY,3303038
19336,114017,-71.15,42.84,NEW HAMPSHIRE,ATKINSON,3303811
79834,478471,-71.17,42.89,NEW HAMPSHIRE,HAMPSTEAD,3303841
79834,478473,-71.1649,42.8967,NEW HAMPSHIRE,HAMPSTEAD,3303841
19336,114016,-71.2,42.79,NEW HAMPSHIRE,MILLVILLE,3303079
19336,114015,-71.3,42.8,NEW HAMPSHIRE,WINDHAM,3303087
9824,54888,-71.67,43.43,NEW HAMPSHIRE,FRANKLIN,3303235
9824,54887,-71.7699,43.6,NEW HAMPSHIRE,BRISTOL,3303222
9824,54886,-71.73,43.6,NEW HAMPSHIRE,BRISTOL,3303222
9824,54885,-72.35,43.38,NEW HAMPSHIRE,CLAREMONT,3303743
9824,54884,-72.15,44.82,NEW HAMPSHIRE,LYME,
9824,54883,-72.0238,44.1101,NEW HAMPSHIRE,HAVERHILL,3303774
9824,54882,-72.05,44.15,NEW HAMPSHIRE,WOODSVILLE,
9821,54844,-72.08,43.4,NEW HAMPSHIRE,SUNAPEE,3303782
9821,54841,-72.18,43.37,NEW HAMPSHIRE,NEWPORT,3303773
19336,114014,-71.15,42.84,NEW HAMPSHIRE,ATKINSON,3303811
54427,326901,-72.32,43.48,NEW HAMPSHIRE,CORNISH CENTER,3303745
1116135,5250313,-71.93333,43.0,NEW HAMPSHIRE,ANTRIM,3303442
43023,251927,-72.2764,43.4022,NEW HAMPSHIRE,CLAREMONT,3303743
1216423,5524451,-70.93333,42.96667,NEW HAMPSHIRE,EXETER,3303833
29039,170441,-71.53,44.61,NEW HAMPSHIRE,GROVETON,3303582
20724,123001,-71.57,43.34,NEW HAMPSHIRE,CANTERBURY,3303224
20724,123000,-71.15,43.9,NEW HAMPSHIRE,MADISON,3303849
1213932,5518127,-71.76666999999999,44.31667,NEW HAMPSHIRE,LITTLETON,3303561
20724,122999,-71.12,43.98,NEW HAMPSHIRE,CONWAY,3303818
57040,345323,-71.9939,43.648999999999994,NEW HAMPSHIRE,ORANGE,3303741
20724,122998,-71.15,43.9,NEW HAMPSHIRE,MADISON,3303849
20724,122996,-71.91,44.21,NEW HAMPSHIRE,LISBON,3303585
20724,122995,-72.04,44.27,NEW HAMPSHIRE,MONROE,3303771
19753,117169,-71.85,42.75,NEW HAMPSHIRE,NEW IPSWICH,3303071
20724,122993,-71.5,43.66,NEW HAMPSHIRE,MEREDITH,3303253
1216425,5524455,-72.05,44.26667,NEW HAMPSHIRE,MONROE,3303771
20724,122992,-71.0,43.72,NEW HAMPSHIRE,SOUTH EFFINGHAM,3303882
1179734,5421586,-71.46667,43.63333,NEW HAMPSHIRE,SANBORNTON,3303253
1179734,5421586,-71.55,43.53333,NEW HAMPSHIRE,SANBORNTON,3303269
20724,123003,-71.08,43.91,NEW HAMPSHIRE,EATON CENTER,3303832
8326,47757,-71.55,43.2,NEW HAMPSHIRE,CONCORD,3303301
8326,47748,-71.58,43.48,NEW HAMPSHIRE,SANBORNTON,3303276
8326,47749,-71.47,43.52,NEW HAMPSHIRE,LACONIA,3303246
20724,123004,-72.25,43.64,NEW HAMPSHIRE,LEBANON,3303766
8326,47750,-71.4,43.55,NEW HAMPSHIRE,GILFORD,3303249
57040,345323,-72.0252,43.6173,NEW HAMPSHIRE,GRAFTON CENTER,3303741
8326,47751,-71.98,43.42,NEW HAMPSHIRE,NEW LONDON,3303257
8326,47752,-71.55,43.2,NEW HAMPSHIRE,CONCORD,3303301
8326,47753,-71.55,43.2,NEW HAMPSHIRE,CONCORD,3303301
20750,123218,-71.51,43.49,NEW HAMPSHIRE,WINNISQUAM,3303220
20750,123219,-72.26,43.28,NEW HAMPSHIRE,UNITY,3303603
8326,47754,-71.55,43.2,NEW HAMPSHIRE,CONCORD,3303301
29039,170442,-71.19,44.57,NEW HAMPSHIRE,(BML)BERLIN MUNI ARP,3303588
22406,131591,-72.28,42.87,NEW HAMPSHIRE,SWANZEY,3303446
8326,47755,-71.5103,43.2,NEW HAMPSHIRE,CONCORD,3303301
8326,47756,-71.22,43.15,NEW HAMPSHIRE,DEERFIELD,3303037
20724,122990,-71.63,43.7,NEW HAMPSHIRE,ASHLAND,3303217
43023,251926,-71.29,43.33,NEW HAMPSHIRE,BARNSTEAD,3303218
1216423,5524437,-71.25,42.95,NEW HAMPSHIRE,CHESTER,3303036
43023,251928,-71.59,43.73,NEW HAMPSHIRE,HOLDERNESS,3303245
1216423,5524440,-71.13333,42.98333,NEW HAMPSHIRE,FREMONT,3303044
43217,251831,-71.03,42.87,NEW HAMPSHIRE,NEWTON,3303858
55149,338149,-71.5081,44.8967,NEW HAMPSHIRE,COLEBROOK ARPT,3303576
43217,251841,-71.22,42.78,NEW HAMPSHIRE,SALEM,3303079
22568,132592,-71.07,43.39,NEW HAMPSHIRE,FARMINGTON,3303835
56863,340708,-71.01,43.12,NEW HAMPSHIRE,LEE,3303861
56863,340705,-71.05,43.22,NEW HAMPSHIRE,BARRINGTON,3303825
1216423,5524441,-71.05,42.93333,NEW HAMPSHIRE,KINGSTON,3303848
22085,130149,-71.68,42.97,NEW HAMPSHIRE,NEW BOSTON,3303070
56863,340695,-71.57,44.48,NEW HAMPSHIRE,LANCASTER,3303584
56860,340671,-71.38,44.27,NEW HAMPSHIRE,MT WASHINGTON,
41055,238823,-70.77,43.06,NEW HAMPSHIRE,PORTSMOUTH,3303801
20772,123353,-71.2784,43.2224,NEW HAMPSHIRE,EPSOM,3303261
20772,123353,-71.2463,43.2947,NEW HAMPSHIRE,PITTSFIELD,3303218
41056,247094,-71.22,44.3996,NEW HAMPSHIRE,GORHAM STATION,3303581
55149,338149,-71.5019,44.898999999999994,NEW HAMPSHIRE,COLEBROOK ARPT,3303576
8326,47747,-71.7,43.52,NEW HAMPSHIRE,HILL,3303243
55149,337407,-71.22,43.45,NEW HAMPSHIRE,ALTON,3303809
20679,122806,-71.47,43.53,NEW HAMPSHIRE,LACONIA,3303246
8326,47758,-71.07,43.03,NEW HAMPSHIRE,EPPING,3303042
8327,47767,-72.15,43.5,NEW HAMPSHIRE,GRANTHAM,3303753
43023,251929,-71.91,43.87,NEW HAMPSHIRE,WENTWORTH,3303282
8327,47768,-72.08,43.4,NEW HAMPSHIRE,SUNAPEE,3303782
8331,47776,-70.98,43.3,NEW HAMPSHIRE,ROCHESTER,3303867
8331,47777,-70.98,43.3,NEW HAMPSHIRE,ROCHESTER,3303867
8331,47778,-70.98,43.3,NEW HAMPSHIRE,ROCHESTER,3303867
8331,47779,-71.03,43.22,NEW HAMPSHIRE,BARRINGTON,3303825
8331,47780,-71.67,43.43,NEW HAMPSHIRE,FRANKLIN,3303235
8331,47781,-71.48,43.43,NEW HAMPSHIRE,BELMONT,3303220
20724,122989,-71.69,43.76,NEW HAMPSHIRE,RIVERSIDE ARPT,3303264
55149,337393,-71.5,43.66,NEW HAMPSHIRE,MEREDITH,3303253
55149,337396,-71.51,43.49,NEW HAMPSHIRE,WINNISQUAM,3303220
55149,337397,-71.51,43.49,NEW HAMPSHIRE,WINNISQUAM,3303220
55149,337401,-71.38,43.57,NEW HAMPSHIRE,GILFORD,3303249
55149,337403,-71.86,43.48,NEW HAMPSHIRE,SOUTH DANBURY,3303230
64547,386198,-72.29,43.7,NEW HAMPSHIRE,HANOVER,3303755
64544,386191,-71.54,43.21,NEW HAMPSHIRE,CONCORD,3303301
1196007,5471080,-71.03333,43.21667,NEW HAMPSHIRE,BARRINGTON,3303825
20724,123012,-71.05,43.22,NEW HAMPSHIRE,BARRINGTON,3303825
1216423,5524443,-70.93333,42.96667,NEW HAMPSHIRE,EXETER,3303833
1216423,5524444,-71.0,42.91667,NEW HAMPSHIRE,EAST KINGSTON,3303827
20724,123011,-70.92,43.17,NEW HAMPSHIRE,MADBURY,3303820
20724,123010,-71.05,43.22,NEW HAMPSHIRE,BARRINGTON,3303825
1216423,5524445,-70.81667,42.96667,NEW HAMPSHIRE,NORTH HAMPTON,3303862
1216423,5524446,-70.81667,42.93333,NEW HAMPSHIRE,HAMPTON,3303842
20724,123009,-71.18,43.33,NEW HAMPSHIRE,STRAFFORD,3303884
20724,123008,-71.91,43.45,NEW HAMPSHIRE,WILMOT,3303287
1216423,5524447,-70.93333,43.01667,NEW HAMPSHIRE,STRATHAM,3303885
8305,47665,-71.9493,44.15,NEW HAMPSHIRE,WOODSVILLE,3303740
19854,117790,-72.49,42.79,NEW HAMPSHIRE,HINSDALE,3303451
19854,117791,-71.43,42.76,NEW HAMPSHIRE,HUDSON,3303051
1216423,5524448,-70.85,42.91667,NEW HAMPSHIRE,HAMPTON FALLS,3303844
128015,767802,-71.19,44.57,NEW HAMPSHIRE,(BML)BERLIN MUNI ARP,3303588
1119888,5258312,-72.28333,42.75,NEW HAMPSHIRE,RICHMOND,3303470
19854,117793,-71.32,42.72,NEW HAMPSHIRE,PELHAM,3303076
1216420,5524430,-71.9,43.86667,NEW HAMPSHIRE,WENTWORTH,3303282
20724,123013,-70.93,43.13,NEW HAMPSHIRE,DURHAM,3303824
1216423,5524436,-71.35,43.0,NEW HAMPSHIRE,AUBURN,3303032
45145,261900,-71.37,42.87,NEW HAMPSHIRE,LONDONDERRY,3303053
45145,261901,-71.3,42.8,NEW HAMPSHIRE,WINDHAM,3303087
20724,123017,-70.77,43.01,NEW HAMPSHIRE,RYE HARBOR,3303870
8305,47664,-71.77,44.32,NEW HAMPSHIRE,LITTLETON,3303561
20724,123016,-70.83,43.04,NEW HAMPSHIRE,GREENLAND,3303840
20724,123015,-70.87,43.2,NEW HAMPSHIRE,DOVER,3303820
1216421,5524432,-71.53333,44.36667,NEW HAMPSHIRE,WHITEFIELD,3303598
1216420,5524431,-71.86667,43.85,NEW HAMPSHIRE,WENTWORTH,3303282
20724,123014,-71.18,43.33,NEW HAMPSHIRE,STRAFFORD,3303884
128007,769548,-71.83,44.1,NEW HAMPSHIRE,BENTON,3303580
128007,769548,-72.0,44.15,NEW HAMPSHIRE,BATH,3303740
128007,769470,-71.72,44.08,NEW HAMPSHIRE,LINCOLN,3303251
45145,261902,-71.22,42.78,NEW HAMPSHIRE,SALEM,3303079
1216423,5524442,-71.06667,42.96667,NEW HAMPSHIRE,BRENTWOOD,3303833
1119888,5258313,-71.45,42.98333,NEW HAMPSHIRE,MANCHESTER,3303103
1213932,5518128,-71.76666999999999,44.31667,NEW HAMPSHIRE,LITTLETON,3303561
19854,117794,-71.67,42.9,NEW HAMPSHIRE,MT VERNON,3303057
19854,117796,-71.43,42.76,NEW HAMPSHIRE,HUDSON,3303051
1213930,5517988,-72.25,43.65,NEW HAMPSHIRE,LEBANON,3303766
55128,331251,-71.01,42.91,NEW HAMPSHIRE,EAST KINGSTON,3303827
1213930,5517990,-72.25,43.65,NEW HAMPSHIRE,LEBANON,3303766
8305,47669,-70.8496,43.2534,NEW HAMPSHIRE,DOVER,3303878
8305,47670,-70.88,43.2,NEW HAMPSHIRE,DOVER,3303820
1213930,5517997,-72.21667,43.25,NEW HAMPSHIRE,LEMPSTER,3303605
1213932,5518124,-71.76666999999999,44.31667,NEW HAMPSHIRE,LITTLETON,3303561
1213932,5518125,-71.76666999999999,44.31667,NEW HAMPSHIRE,LITTLETON,3303561
8305,47671,-70.82,42.97,NEW HAMPSHIRE,NORTH HAMPTON,3303862
1213932,5518126,-71.76666999999999,44.31667,NEW HAMPSHIRE,LITTLETON,3303561
20724,123006,-71.4,43.75,NEW HAMPSHIRE,MOULTONBORO,3303254
8305,47672,-70.85,43.03,NEW HAMPSHIRE,GREENLAND,3303840
8305,47673,-70.78,43.02,NEW HAMPSHIRE,RYE,3303801
8326,47746,-72.25,43.65,NEW HAMPSHIRE,LEBANON,3303766
64544,386190,-71.54,43.21,NEW HAMPSHIRE,CONCORD,3303301
29039,170443,-72.29,43.7,NEW HAMPSHIRE,HANOVER,3303755
19854,117795,-71.5,42.95,NEW HAMPSHIRE,BEDFORD,3303110
20724,123007,-72.14,43.6,NEW HAMPSHIRE,LEBANON,3303748
55128,331213,-71.02,42.93,NEW HAMPSHIRE,EAST KINGSTON,3303827
128015,767804,-71.19,44.47,NEW HAMPSHIRE,BERLIN,3303570
1216423,5524449,-70.85,42.9,NEW HAMPSHIRE,SEABROOK,3303874
1095085,5145407,-71.8,43.61667,NEW HAMPSHIRE,ALEXANDRIA,3303222
1216423,5524450,-70.81667,42.93333,NEW HAMPSHIRE,HAMPTON,3303842
55128,331211,-71.12,43.98,NEW HAMPSHIRE,CONWAY,3303818
8305,47666,-71.17,43.43,NEW HAMPSHIRE,NEW DURHAM,3303855
8305,47667,-71.0,43.77,NEW HAMPSHIRE,EFFINGHAM,3303882
22386,131497,-71.49,42.75,NEW HAMPSHIRE,PINE HILL,3303060
20750,123217,-71.58,43.49,NEW HAMPSHIRE,SANBORNTON,3303269
22386,131499,-71.48,42.87,NEW HAMPSHIRE,MERRIMACK,3303052
22386,131503,-71.48,42.87,NEW HAMPSHIRE,MERRIMACK,3303052
57037,341777,-70.82,42.93,NEW HAMPSHIRE,HAMPTON,3303842
29040,170461,-71.39,45.05,NEW HAMPSHIRE,PITTSBURG,3303592
55128,331212,-71.06,43.94,NEW HAMPSHIRE,SNOWVILLE,3303832
1142789,5317222,-72.08333,43.4,NEW HAMPSHIRE,SUNAPEE,3303782
8305,47668,-70.88,43.2,NEW HAMPSHIRE,DOVER,3303820
20772,123354,-71.1818,43.4599,NEW HAMPSHIRE,ALTON,3303855
22085,130151,-71.5,42.95,NEW HAMPSHIRE,BEDFORD,3303110
20772,123355,-71.1818,43.46,NEW HAMPSHIRE,NEW DURHAM,3303855
67357,403829,-71.6,43.02,NEW HAMPSHIRE,GOFFSTOWN,3303045
89019,536432,-70.91,43.02,NEW HAMPSHIRE,STRATHAM,3303885
44840,259964,-71.7212,43.0743,NEW HAMPSHIRE,SOUTH WEARE,3303281
54427,326902,-70.98,43.3,NEW HAMPSHIRE,ROCHESTER,3303867
22566,132568,-71.41,43.55,NEW HAMPSHIRE,GILFORD,3303249
31785,186655,-71.43,42.76,NEW HAMPSHIRE,HUDSON,3303051
44840,259965,-71.5,42.95,NEW HAMPSHIRE,BEDFORD,3303110
31785,186654,-71.49,42.75,NEW HAMPSHIRE,PINE HILL,3303060
22566,132567,-71.47,43.53,NEW HAMPSHIRE,LACONIA,3303246
88919,535985,-71.44,42.98,NEW HAMPSHIRE,MANCHESTER,3303103
1213933,5518232,-71.58333,43.48333,NEW HAMPSHIRE,SANBORNTON,3303269
1213933,5518233,-71.66667,43.43333,NEW HAMPSHIRE,FRANKLIN,3303235
1136140,5298491,-72.08333,43.4,NEW HAMPSHIRE,SUNAPEE,3303782
1213933,5518234,-71.65,43.6,NEW HAMPSHIRE,NEW HAMPTON,3303256
88989,536204,-71.77,44.31,NEW HAMPSHIRE,LITTLETON,3303561
64511,386023,-71.9,43.11,NEW HAMPSHIRE,HILLSBOROUGH,3303244
89863,540576,-70.95,43.24,NEW HAMPSHIRE,SKYHAVEN ARPT,3303867
89863,540577,-70.83,43.04,NEW HAMPSHIRE,GREENLAND,3303840
31917,187304,-71.12,43.99,NEW HAMPSHIRE,CONWAY,3303818
1213932,5518137,-71.21667,43.58333,NEW HAMPSHIRE,WOLFEBORO,3303894
1213932,5518226,-71.0,43.7,NEW HAMPSHIRE,EFFINGHAM,3303882
1213932,5518227,-71.23333000000001,43.46667,NEW HAMPSHIRE,ALTON BAY,3303809
1213932,5518229,-71.76666999999999,44.31667,NEW HAMPSHIRE,LITTLETON,3303561
1213933,5518230,-72.15,43.3,NEW HAMPSHIRE,GOSHEN,3303752
1213933,5518231,-71.58333,43.48333,NEW HAMPSHIRE,SANBORNTON,3303269
77882,469456,-71.22,43.15,NEW HAMPSHIRE,DEERFIELD,3303037
89048,536603,-71.41,43.79,NEW HAMPSHIRE,SANDWICH,3303227
20772,123354,-71.2471,43.294,NEW HAMPSHIRE,SOUTH BARNSTEAD,3303218
89019,536438,-70.91,43.02,NEW HAMPSHIRE,STRATHAM,3303885
89019,536435,-70.83,42.97,NEW HAMPSHIRE,CEMETERY CORNERS,3303862
89019,536434,-70.91,43.02,NEW HAMPSHIRE,STRATHAM,3303885
89019,536433,-70.83,43.02,NEW HAMPSHIRE,GREENLAND,3303840
89863,540579,-70.9,42.9,NEW HAMPSHIRE,EASTMAN CORNERS,3303874
22566,132566,-71.47,43.53,NEW HAMPSHIRE,LACONIA,3303246
43219,251865,-71.81,43.81,NEW HAMPSHIRE,RUMNEY,3303266
44840,259963,-71.68,42.97,NEW HAMPSHIRE,NEW BOSTON,3303070
89854,540570,-70.93,43.13,NEW HAMPSHIRE,DURHAM,3303824
22566,132558,-71.55,43.13,NEW HAMPSHIRE,BOW CENTER,3303304
22566,132557,-71.62,43.1,NEW HAMPSHIRE,DUNBARTON,3303046
22565,132556,-71.33,42.88,NEW HAMPSHIRE,DERRY,3303038
57037,341775,-71.62,43.1,NEW HAMPSHIRE,DUNBARTON,3303046
57037,341774,-70.93,42.97,NEW HAMPSHIRE,EXETER,3303833
22565,132555,-71.29,42.88,NEW HAMPSHIRE,DERRY VLG,3303038
7781,44844,-71.45,42.98,NEW HAMPSHIRE,MANCHESTER,3303103
22565,132554,-71.36,42.85,NEW HAMPSHIRE,LONDONDERRY,3303053
31891,187224,-71.59,43.44,NEW HAMPSHIRE,TILTON,3303276
31891,187225,-71.67,43.45,NEW HAMPSHIRE,FRANKLIN,3303235
57037,341773,-70.93,42.97,NEW HAMPSHIRE,EXETER,3303833
57037,341770,-71.35,43.0,NEW HAMPSHIRE,AUBURN,3303032
57037,341768,-71.77,44.31,NEW HAMPSHIRE,LITTLETON,3303561
31891,187226,-71.59,43.43,NEW HAMPSHIRE,NORTHFIELD,3303276
22562,132547,-71.65,43.61,NEW HAMPSHIRE,NEW HAMPTON,3303256
7781,44844,-71.63,42.83,NEW HAMPSHIRE,MILFORD,3303055
22566,132559,-71.55,43.13,NEW HAMPSHIRE,BOW CENTER,3303304
22566,132560,-71.36,42.85,NEW HAMPSHIRE,LONDONDERRY,3303053
55368,337482,-72.3,42.95,NEW HAMPSHIRE,KEENE,3303431
31900,187235,-72.04,43.97,NEW HAMPSHIRE,PIERMONT,3303779
86561,522289,-71.69,43.18,NEW HAMPSHIRE,HOPKINTON,3303229
86561,522288,-71.67,43.16,NEW HAMPSHIRE,HOPKINTON,3303229
22566,132565,-71.47,43.53,NEW HAMPSHIRE,LACONIA,3303246
22566,132564,-72.34,43.38,NEW HAMPSHIRE,CLAREMONT,3303743
22566,132563,-72.35,43.36,NEW HAMPSHIRE,CLAREMONT MUNI ARPT,3303743
88773,535290,-71.3521,43.5868,NEW HAMPSHIRE,GILFORD,3303249
88773,535290,-71.3449,43.5873,NEW HAMPSHIRE,WEST ALTON,3303249
88775,535296,-71.3051,43.687,NEW HAMPSHIRE,CENTER HARBOR,3303850
88775,535296,-71.3048,43.6869,NEW HAMPSHIRE,CENTER HARBOR,3303850
43574,253629,-71.86,42.88,NEW HAMPSHIRE,RUSSELL,3303084
22566,132562,-71.36,42.85,NEW HAMPSHIRE,LONDONDERRY,3303053
43219,251867,-72.12,43.9,NEW HAMPSHIRE,ORFORD,3303777
22566,132561,-71.33,42.88,NEW HAMPSHIRE,DERRY,3303038
1221583,5533887,-71.0,43.71667,NEW HAMPSHIRE,EFFINGHAM,3303882
89863,540580,-72.02,43.93,NEW HAMPSHIRE,GILMANS CORNER,3303777
89048,536601,-71.41,43.55,NEW HAMPSHIRE,GILFORD,3303249
1221577,5533836,-71.21667,43.45,NEW HAMPSHIRE,ALTON,3303809
64547,386206,-71.84,43.7,NEW HAMPSHIRE,GROTON,3303241
98094,589824,-71.67,43.73,NEW HAMPSHIRE,RIVERSIDE ARPT,3303264
1216423,5524439,-71.18333,43.03333,NEW HAMPSHIRE,RAYMOND,3303077
90098,541310,-71.44,42.98,NEW HAMPSHIRE,MANCHESTER,3303103
90098,541309,-72.43,43.08,NEW HAMPSHIRE,WALPOLE,3303608
90098,541308,-72.43,43.08,NEW HAMPSHIRE,WALPOLE,3303608
64547,386203,-72.0572,43.8923,NEW HAMPSHIRE,ORFORD,3303777
1216423,5524438,-71.18333,42.91667,NEW HAMPSHIRE,SANDOWN,3303873
22568,132585,-71.74,43.59,NEW HAMPSHIRE,BRISTOL,3303222
1221577,5533837,-70.98333000000001,43.71667,NEW HAMPSHIRE,SOUTH EFFINGHAM,3303882
22568,132583,-71.72,43.44,NEW HAMPSHIRE,EAST ANDOVER,3303216
1197176,5469465,-71.08333,43.58333,NEW HAMPSHIRE,WOLFEBORO,3303872
1197179,5469468,-71.7,44.0,NEW HAMPSHIRE,PLYMOUTH,3303262
22566,132577,-71.13,44.05,NEW HAMPSHIRE,NORTH CONWAY,3303860
22568,132586,-71.2,42.79,NEW HAMPSHIRE,MILLVILLE,3303079
1140987,5309625,-72.35,43.38333,NEW HAMPSHIRE,CLAREMONT,3303743
64547,386202,-72.09,43.9,NEW HAMPSHIRE,ORFORD,3303777
64547,386201,-72.08,43.89,NEW HAMPSHIRE,ORFORD,3303777
1213932,5518129,-71.8,43.7,NEW HAMPSHIRE,HEBRON,3303241
22568,132591,-70.81,42.9,NEW HAMPSHIRE,HAMPTON BEACH,
22568,132590,-71.1,42.84,NEW HAMPSHIRE,WESTVILLE,3303865
20772,123355,-71.1234,43.5746,NEW HAMPSHIRE,MIDDLETON CORNERS,3303872
20772,123359,-71.1233,43.5746,NEW HAMPSHIRE,SOUTH WOLFEBORO,3303872
22568,132589,-71.04,42.87,NEW HAMPSHIRE,SARGENT CORNERS,3303858
20772,123359,-70.9937,43.8484,NEW HAMPSHIRE,EFFINGHAM FALLS,3303836
20772,123372,-71.2789,43.2221,NEW HAMPSHIRE,NORTHWOOD NARROWS,3303234
20772,123372,-71.3073,43.1549,NEW HAMPSHIRE,LEAVITTS HILL,3303037
1114379,5243506,-72.38333,42.78333,NEW HAMPSHIRE,HINSDALE,3303470
1114379,5243506,-72.48333000000001,42.78333,NEW HAMPSHIRE,HINSDALE,3303451
1213932,5518130,-71.13333,44.05,NEW HAMPSHIRE,NORTH CONWAY,3303860
22568,132588,-71.55,43.13,NEW HAMPSHIRE,BOW CENTER,3303304
64547,386200,-71.79,44.03,NEW HAMPSHIRE,LOST RIVER,3303262
22568,132587,-71.15,42.84,NEW HAMPSHIRE,ATKINSON,3303811
22566,132576,-71.5486,43.778999999999996,NEW HAMPSHIRE,CHICKS CORNER,3303245
43023,251931,-71.6968,43.9177,NEW HAMPSHIRE,WEST THORNTON,3303285
22568,132584,-71.74,43.59,NEW HAMPSHIRE,BRISTOL,3303222
22566,132575,-71.86,43.53,NEW HAMPSHIRE,DANBURY,3303230
1216425,5524458,-71.66667,44.31667,NEW HAMPSHIRE,LITTLETON,3303574
1221577,5533831,-71.63333,43.7,NEW HAMPSHIRE,ASHLAND,3303217
22566,132570,-71.47,43.53,NEW HAMPSHIRE,LACONIA,3303246
1114591,5244987,-72.28333,43.7,NEW HAMPSHIRE,HANOVER,3303755
43219,251846,-71.28,43.08,NEW HAMPSHIRE,CANDIA,3303034
89863,540585,-71.1,43.18,NEW HAMPSHIRE,NORTH NOTTINGHAM,3303290
1213932,5518136,-71.21667,43.45,NEW HAMPSHIRE,ALTON,3303809
77900,469538,-71.3,42.8,NEW HAMPSHIRE,WINDHAM,3303087
1221577,5533834,-71.63333,43.7,NEW HAMPSHIRE,ASHLAND,3303217
77900,469537,-71.33,42.89,NEW HAMPSHIRE,DERRY,3303038
1221577,5533835,-71.25,43.65,NEW HAMPSHIRE,CENTER TUFTONBORO,3303816
89863,540584,-70.9,42.9,NEW HAMPSHIRE,EASTMAN CORNERS,3303874
89863,540583,-71.02,42.93,NEW HAMPSHIRE,EAST KINGSTON,3303827
43219,251864,-71.69,43.76,NEW HAMPSHIRE,RIVERSIDE ARPT,3303264
22566,132569,-71.53,43.53,NEW HAMPSHIRE,WINNISQUAM,3303269
89863,540582,-72.32,43.44,NEW HAMPSHIRE,SOUTH CORNISH,3303745
89863,540581,-71.76,44.13,NEW HAMPSHIRE,EASTON,3303580
22566,132571,-71.82,43.44,NEW HAMPSHIRE,ANDOVER,3303216
22566,132572,-71.5,43.66,NEW HAMPSHIRE,MEREDITH,3303253
57037,341778,-71.55,43.13,NEW HAMPSHIRE,BOW CENTER,3303304
22566,132573,-71.59,43.73,NEW HAMPSHIRE,HOLDERNESS,3303245
43023,251932,-71.89,43.92,NEW HAMPSHIRE,WARREN,3303279
1221577,5533829,-72.15,44.65,NEW HAMPSHIRE,ENFIELD,
64547,386211,-72.38,43.13,NEW HAMPSHIRE,LANGDON,3303604
1099391,5163820,-72.01666999999999,42.75,NEW HAMPSHIRE,RINDGE,3303461
1099391,5163821,-71.85,42.75,NEW HAMPSHIRE,NEW IPSWICH,3303071
1099391,5163822,-71.45,42.75,NEW HAMPSHIRE,NASHUA,3303060
1216425,5524457,-71.68333,44.28333,NEW HAMPSHIRE,BETHLEHEM,3303574
43023,251933,-71.89,43.92,NEW HAMPSHIRE,WARREN,3303279
43219,251845,-71.28,43.08,NEW HAMPSHIRE,CANDIA,3303034
22566,132574,-71.86,43.53,NEW HAMPSHIRE,DANBURY,3303230
64547,386212,-72.38,43.17,NEW HAMPSHIRE,LANGDON,3303602
64547,386215,-72.3953,43.4267,NEW HAMPSHIRE,WEST CLAREMONT,3303743
