EPISODE_ID,EVENT_ID,LONGITUDE,LATITUDE,STATE,LOCATION,ZIPCODE
1178946,5418804,-104.95,36.48333,NEW MEXICO,CIMARRON,3587714
95621,574366,-106.3,35.16,NEW MEXICO,SANDIA PARK,3587047
95621,574367,-106.44,35.86,NEW MEXICO,FRIJOLES,
1178945,5418803,-106.18333,35.0,NEW MEXICO,MORIARTY,3587015
95621,574380,-106.72,35.83,NEW MEXICO,JEMEZ SPGS,3587024
3567,19509,-103.3668,33.4893,NEW MEXICO,CROSSROADS,3588114
1178943,5418795,-105.23333000000001,35.51667,NEW MEXICO,ROMEROVILLE,3587701
1178943,5418796,-104.83333,35.11667,NEW MEXICO,COLONIAS,3588435
1178944,5418801,-105.16667,33.58333,NEW MEXICO,ARABELA,3588351
1178939,5418719,-103.73333000000001,35.1,NEW MEXICO,TUCUMCARI,3588401
62892,376837,-103.5309,34.2418,NEW MEXICO,FLOYD,3588130
1178939,5418718,-103.81667,34.98333,NEW MEXICO,QUAY,3588401
1178943,5418797,-105.13333,35.2,NEW MEXICO,ANTON CHICO,3587711
1155186,5365050,-103.96667,36.36667,NEW MEXICO,GLADSTONE,3588422
62892,376837,-103.5228,34.2274,NEW MEXICO,BETHEL,3588130
1155187,5365053,-105.4,35.61667,NEW MEXICO,MINERAL HILL,3587701
1178943,5418798,-104.7,34.93333,NEW MEXICO,SANTA ROSA,3588435
1178944,5418800,-105.2,33.61667,NEW MEXICO,ARABELA,3588351
1178943,5418799,-105.45,35.36667,NEW MEXICO,RIBERA,3587560
3554,19478,-104.23,32.42,NEW MEXICO,CARLSBAD,3588220
1155185,5365049,-107.23333000000001,33.96667,NEW MEXICO,MAGDALENA,3587825
95621,574972,-106.6431,35.8781,NEW MEXICO,JEMEZ SPGS,3587025
95621,574365,-106.33,35.11,NEW MEXICO,CEDAR CREST,3587059
1178949,5418813,-104.53333,36.48333,NEW MEXICO,MAXWELL,3587747
95456,576819,-103.13,32.7,NEW MEXICO,HOBBS,3588240
1178941,5418790,-104.9,36.51667,NEW MEXICO,CIMARRON,3587714
3567,19506,-103.4495,33.13,NEW MEXICO,MC DONALD,3588262
1155187,5365056,-105.35,35.0,NEW MEXICO,CLINES CORNERS,3588321
3567,19507,-103.33,33.4116,NEW MEXICO,CROSSROADS,3588267
1178942,5418791,-104.7,36.0,NEW MEXICO,WAGON MOUND,3587752
1155187,5365060,-105.36667,35.48333,NEW MEXICO,LAS VEGAS,3587701
1178942,5418792,-104.51666999999999,36.83333,NEW MEXICO,RATON,3587740
62892,376222,-103.2,34.3521,NEW MEXICO,CLOVIS,3588101
1178941,5418789,-105.08333,36.9,NEW MEXICO,RATON,
3554,19477,-104.0587,32.42,NEW MEXICO,CARLSBAD,3588220
3554,19476,-103.32,33.4524,NEW MEXICO,TATUM,3588114
3554,19475,-104.1004,32.82,NEW MEXICO,LOCO HILLS,3588210
3554,19474,-104.4,32.83,NEW MEXICO,ARTESIA,3588210
3554,19473,-104.4,32.83,NEW MEXICO,ARTESIA,3588210
3554,19473,-104.4,32.6854,NEW MEXICO,ARTESIA,3588210
3554,19454,-104.4,32.7577,NEW MEXICO,ARTESIA,3588210
3554,19453,-104.23,32.3333,NEW MEXICO,CARLSBAD,3588220
1101916,5172131,-106.61667,31.83333,NEW MEXICO,SUNLAND PARK,3588008
3554,19477,-104.23,32.3477,NEW MEXICO,CARLSBAD,3588220
1178940,5418788,-106.23333000000001,34.51667,NEW MEXICO,MOUNTAINAIR,3587036
1178940,5418787,-106.03333,34.63333,NEW MEXICO,WILLARD,3587063
3567,19506,-103.4324,33.25,NEW MEXICO,TATUM,3588267
1178943,5418794,-105.21667,34.93333,NEW MEXICO,SANTA ROSA,3588321
95621,574364,-106.29,35.15,NEW MEXICO,SANDIA PARK,3587047
95444,573516,-104.59,36.57,NEW MEXICO,MAXWELL,3587728
1178943,5418794,-104.68333,34.88333,NEW MEXICO,SANTA ROSA,3588435
73812,446574,-103.5665,35.1146,NEW MEXICO,TUCUMCARI,3588401
1178942,5418793,-104.36667,36.36667,NEW MEXICO,SPRINGER,3587747
63701,390985,-106.87,34.03,NEW MEXICO,(ONM)SOCORRO ARPT,3587801
63701,390985,-106.8698,34.0282,NEW MEXICO,(ONM)SOCORRO ARPT,3587801
3554,19479,-104.37,32.63,NEW MEXICO,LAKEWOOD,3588254
63701,381169,-106.29,35.16,NEW MEXICO,SANDIA PARK,3587047
1178939,5418720,-104.83333,34.26667,NEW MEXICO,YESO,3588119
62892,376218,-103.3547,34.1595,NEW MEXICO,PORTALES,3588130
62892,376219,-103.33,33.9445,NEW MEXICO,DORA,3588130
1178940,5418721,-106.35,35.61667,NEW MEXICO,COCHITI PUEBLO,3587072
62892,376220,-103.2,34.41,NEW MEXICO,CLOVIS,3588101
1155186,5365052,-103.73333000000001,36.3,NEW MEXICO,PASAMONTE,3588424
1155186,5365051,-103.95,36.15,NEW MEXICO,ROY,3587743
1178940,5418722,-106.18333,35.05,NEW MEXICO,EDGEWOOD,3587015
1178940,5418786,-106.28333,34.81667,NEW MEXICO,TAJIQUE,3587016
3554,19478,-104.2529,32.33,NEW MEXICO,(CNM)CARLSBAD ARPT,3588220
95621,574363,-106.44,35.85,NEW MEXICO,FRIJOLES,3587025
85220,514756,-103.8785,36.9302,NEW MEXICO,FOLSOM,3588419
3554,19480,-104.37,32.63,NEW MEXICO,LAKEWOOD,3588254
1178950,5418819,-103.46667,35.36667,NEW MEXICO,LOGAN,3588426
1178952,5418895,-106.8,34.66667,NEW MEXICO,BELEN,3587002
3554,19513,-104.2115,32.5747,NEW MEXICO,LAKEWOOD,3588220
3554,19515,-104.1957,32.42,NEW MEXICO,CARLSBAD,3588220
1178948,5418812,-103.35,33.83333,NEW MEXICO,PEP,3588126
62892,376217,-103.3053,34.1595,NEW MEXICO,PORTALES,3588130
3567,19505,-103.5091,32.8747,NEW MEXICO,LOVINGTON,3588260
1178950,5418818,-103.21667,35.5,NEW MEXICO,NARA VISA,3588426
62892,376212,-103.63,34.43,NEW MEXICO,MELROSE,3588124
3567,19507,-103.33,33.3971,NEW MEXICO,CROSSROADS,3588267
62883,376181,-103.91,34.66,NEW MEXICO,HOUSE,3588121
1178933,5418707,-104.8,34.58333,NEW MEXICO,YESO,3588136
1178932,5418706,-103.2,34.46667,NEW MEXICO,CLOVIS,3588101
3554,19484,-104.1957,32.42,NEW MEXICO,CARLSBAD,3588220
1178931,5418705,-106.56667,35.08333,NEW MEXICO,ALBUQUERQUE,3587108
1178929,5418702,-103.13333,34.11667,NEW MEXICO,ARCH,3588130
85221,514761,-103.31,34.38,NEW MEXICO,(CVS)CANNON AFB,3588103
1178929,5418701,-103.33333,34.18333,NEW MEXICO,PORTALES,3588130
1178934,5418708,-103.33333,33.88333,NEW MEXICO,CAUSEY,3588132
1178937,5418713,-104.8,34.58333,NEW MEXICO,YESO,3588136
62892,376214,-103.4315,34.2879,NEW MEXICO,(CVS)CANNON AFB,3588130
62892,376215,-103.4315,34.2879,NEW MEXICO,(CVS)CANNON AFB,3588130
62892,376216,-103.475,34.22,NEW MEXICO,FLOYD,3588130
62883,376195,-103.9,34.6645,NEW MEXICO,HOUSE,3588121
62883,376194,-103.9,34.65,NEW MEXICO,HOUSE,3588121
3554,19512,-103.3668,33.4893,NEW MEXICO,CROSSROADS,3588114
3554,19512,-103.32,33.4524,NEW MEXICO,TATUM,3588114
1178937,5418712,-104.68333,34.9,NEW MEXICO,SANTA ROSA,3588435
1178950,5418814,-104.18333,35.36667,NEW MEXICO,CONCHAS DAM,3588416
1178950,5418815,-103.58333,35.46667,NEW MEXICO,MOSQUERO,3588426
3554,19487,-103.2151,32.7716,NEW MEXICO,HOBBS,3588240
1178950,5418816,-103.31667,35.45,NEW MEXICO,LOGAN,3588426
1178950,5418817,-103.25,35.5,NEW MEXICO,LOGAN,3588426
3554,19486,-103.32,33.25,NEW MEXICO,TATUM,3588267
1178938,5418715,-103.28333,36.15,NEW MEXICO,SEDAN,3588415
1178938,5418714,-103.18333,36.45,NEW MEXICO,CLAYTON,3588415
1178939,5418717,-104.61667,34.41667,NEW MEXICO,YESO,3588136
1178929,5418700,-103.33333,34.2,NEW MEXICO,PORTALES,3588130
1178929,5418699,-103.38333,34.18333,NEW MEXICO,PORTALES,3588130
1178928,5418698,-104.26666999999999,35.06667,NEW MEXICO,NEWKIRK,3588431
62892,376203,-104.71,36.0,NEW MEXICO,WAGON MOUND,3587752
3567,19505,-103.5409,32.8636,NEW MEXICO,LOVINGTON,3588260
18828,110887,-106.53399999999999,35.089,NEW MEXICO,ALBUQUERQUE,3587112
18828,110884,-106.5327,35.0876,NEW MEXICO,ALBUQUERQUE,3587112
95456,576838,-103.13,32.7,NEW MEXICO,HOBBS,3588240
95456,576834,-103.13,32.7,NEW MEXICO,HOBBS,3588240
1178945,5418802,-105.4,35.61667,NEW MEXICO,MINERAL HILL,3587701
62892,376205,-104.1189,34.7107,NEW MEXICO,FT SUMNER,3588121
1155187,5365055,-105.58333,35.0,NEW MEXICO,CLINES CORNERS,3588321
1178947,5418807,-103.03333,34.18333,NEW MEXICO,GLENRIO,
1178947,5418805,-103.26666999999999,34.15,NEW MEXICO,SAN JON,3588130
1155187,5365054,-105.45,35.36667,NEW MEXICO,RIBERA,3587560
62892,376838,-103.3363,33.9607,NEW MEXICO,DORA,3588130
3554,19483,-103.3811,33.3011,NEW MEXICO,TATUM,3588267
3554,19481,-104.23,32.3043,NEW MEXICO,CARLSBAD,3588220
3554,19481,-104.23,32.42,NEW MEXICO,CARLSBAD,3588220
62892,376202,-104.4705,34.7072,NEW MEXICO,PUERTO DE LUNA,3588435
1178947,5418808,-103.08333,34.1,NEW MEXICO,SAN JON,3588130
1178947,5418810,-103.03333,34.18333,NEW MEXICO,GLENRIO,
1155184,5365046,-103.43333,34.48333,NEW MEXICO,CANNON AFB,3588101
1178928,5418698,-104.26666999999999,35.08333,NEW MEXICO,NEWKIRK,3588431
95474,580531,-103.5486,33.2367,NEW MEXICO,CAPROCK,3588267
1155184,5365039,-103.73333000000001,35.1,NEW MEXICO,TUCUMCARI,3588401
95463,579500,-103.13,32.7,NEW MEXICO,HOBBS,3588240
95463,577598,-103.35,32.93,NEW MEXICO,LOVINGTON,3588260
95456,576847,-103.13,32.7,NEW MEXICO,HOBBS,3588240
95456,576844,-103.13,32.7,NEW MEXICO,HOBBS,3588240
95456,576843,-103.13,32.7,NEW MEXICO,HOBBS,3588240
1155184,5365042,-103.61667,34.58333,NEW MEXICO,MELROSE,3588124
1155184,5365045,-103.75,35.16667,NEW MEXICO,TUCUMCARI,3588401
1178945,5418802,-105.56667,35.46667,NEW MEXICO,MINERAL HILL,3587538
62892,376210,-103.63,34.43,NEW MEXICO,MELROSE,3588124
62892,376208,-103.2,34.41,NEW MEXICO,CLOVIS,3588101
62892,376196,-104.4793,36.7701,NEW MEXICO,RATON CREWS ARPT,3587740
62892,376199,-104.71,36.0434,NEW MEXICO,WAGON MOUND,3587752
62892,376207,-104.0232,34.65,NEW MEXICO,HOUSE,3588121
1155184,5365037,-103.65,33.93333,NEW MEXICO,ELIDA,3588116
62892,376838,-103.3273,33.9378,NEW MEXICO,DORA,3588130
62883,376188,-103.73,35.17,NEW MEXICO,TUCUMCARI,3588401
19367,114431,-104.53,36.81,NEW MEXICO,VAN HOUTEN,
3554,19451,-104.23,32.5935,NEW MEXICO,CARLSBAD,3588220
19455,115121,-104.45,34.48,NEW MEXICO,EVANOLA,3588119
85086,513828,-103.85,36.9,NEW MEXICO,FOLSOM,3588419
75164,454280,-103.556,32.12,NEW MEXICO,JAL,3588252
19455,115120,-104.24,34.48,NEW MEXICO,FT SUMNER,3588119
19455,115119,-104.38,34.6,NEW MEXICO,GUADALUPE,3588119
19455,115118,-104.68,34.94,NEW MEXICO,SANTA ROSA,3588435
75165,454281,-104.2211,32.3823,NEW MEXICO,LOVING,3588220
19455,115117,-104.4151,34.4922,NEW MEXICO,GUADALUPE,3588119
19455,115117,-104.3938,34.4664,NEW MEXICO,EVANOLA,3588119
75165,454284,-103.8399,32.4145,NEW MEXICO,MALAGA,3588220
19457,115128,-105.05,33.27,NEW MEXICO,RIVERSIDE,3588343
85086,513830,-103.87,36.94,NEW MEXICO,FOLSOM,3588419
51341,304727,-104.53,33.37,NEW MEXICO,ROSWELL,3588203
85087,513832,-104.54,36.54,NEW MEXICO,MAXWELL,3587728
85087,513833,-105.24,35.52,NEW MEXICO,ROMEROVILLE,3587701
85087,513835,-103.99,36.74,NEW MEXICO,CAPULIN,3588418
85087,513843,-105.38,33.49,NEW MEXICO,LINCOLN,3588338
85087,513844,-105.36,33.48,NEW MEXICO,LINCOLN,3588338
85087,513850,-104.44,36.89,NEW MEXICO,RATON,3587740
19455,115116,-104.4635,34.6283,NEW MEXICO,PUERTO DE LUNA,3588435
19455,115116,-104.4606,34.624,NEW MEXICO,PUERTO DE LUNA,3588435
19455,115113,-104.5672,34.8319,NEW MEXICO,PUERTO DE LUNA,3588435
51341,304725,-105.57,34.26,NEW MEXICO,(4CR)CORONA,3588318
85086,513827,-104.38,34.6,NEW MEXICO,FT SUMNER,3588119
85084,513821,-104.9198,34.8316,NEW MEXICO,PASTURA,3588435
85084,513817,-106.0703,35.0401,NEW MEXICO,MORIARTY,3587035
1155177,5365327,-103.6,36.6,NEW MEXICO,GRENVILLE,3588418
1155178,5365328,-104.53333,36.15,NEW MEXICO,WAGON MOUND,3587752
1170944,5399888,-106.83333,32.38333,NEW MEXICO,DONA ANA,3588007
1170944,5399887,-106.68333,32.35,NEW MEXICO,LAS CRUCES ARPT,3588011
1170944,5399886,-106.76666999999999,32.31667,NEW MEXICO,LAS CRUCES ARPT,3588001
1170943,5399883,-106.43333,32.0,NEW MEXICO,ANTHONY,
1179908,5422076,-104.36667,32.66667,NEW MEXICO,LAKEWOOD,3588254
1155178,5365329,-104.06667,35.88333,NEW MEXICO,SOLANO,3587746
1116343,5252074,-103.13333,32.7,NEW MEXICO,HOBBS,3588240
1116343,5252073,-103.13333,32.7,NEW MEXICO,HOBBS,3588240
8374,47982,-104.7615,35.8998,NEW MEXICO,WAGON MOUND,3587752
8374,47983,-104.6085,35.6233,NEW MEXICO,TREMENTINA,3587701
8374,47985,-104.6467,35.53,NEW MEXICO,TRUJILLO,3587701
8374,47986,-104.3573,35.4189,NEW MEXICO,TREMENTINA,
8374,47987,-105.27,34.9899,NEW MEXICO,DAHLIA,3588321
8374,47988,-105.2447,35.0,NEW MEXICO,CLINES CORNERS,3588435
8374,47989,-105.2094,35.0,NEW MEXICO,CLINES CORNERS,3588435
19467,115204,-105.3156,35.65,NEW MEXICO,MONTEZUMA COLLEGE,3587731
85080,513798,-103.13,33.98,NEW MEXICO,ROGERS,3588132
19465,125859,-103.17,33.64,NEW MEXICO,MILNESAND,3588125
85080,513802,-103.27,34.24,NEW MEXICO,CAMEO,3588130
85080,513804,-103.16,34.37,NEW MEXICO,CLOVIS,3588101
85080,513806,-103.07,34.59,NEW MEXICO,PLEASANT HILL,3588135
1155179,5364656,-103.6,35.18333,NEW MEXICO,SAN JON,3588401
1155183,5364667,-104.56667,36.56667,NEW MEXICO,MAXWELL,3587728
1155183,5364667,-104.53333,36.53333,NEW MEXICO,MAXWELL,3587747
19455,115113,-104.561,34.8251,NEW MEXICO,PUERTO DE LUNA,3588435
63010,377169,-104.2023,35.2037,NEW MEXICO,NEWKIRK,3588431
63010,377168,-105.6,33.33,NEW MEXICO,RUIDOSO DOWNS,3588346
62983,376843,-103.88,35.57,NEW MEXICO,BELL RANCH,
62983,376842,-103.34,34.18,NEW MEXICO,PORTALES,3588130
62983,376841,-103.34,34.18,NEW MEXICO,PORTALES,3588130
1155183,5364672,-104.1,35.53333,NEW MEXICO,BELL RANCH,3587746
63445,379802,-103.35,32.93,NEW MEXICO,LOVINGTON,3588260
1155183,5364673,-104.51666999999999,35.7,NEW MEXICO,SANCHEZ,3587701
1155184,5364674,-103.73333000000001,35.11667,NEW MEXICO,TUCUMCARI,3588401
1155184,5364675,-103.65,35.1,NEW MEXICO,TUCUMCARI,3588401
1155184,5364676,-103.73333000000001,35.1,NEW MEXICO,TUCUMCARI,3588401
1155184,5364676,-103.55,35.01667,NEW MEXICO,TUCUMCARI,3588120
63445,379803,-103.35,32.93,NEW MEXICO,LOVINGTON,3588260
63445,379807,-103.35,32.93,NEW MEXICO,LOVINGTON,3588260
63445,379810,-103.13,32.7,NEW MEXICO,HOBBS,3588240
63445,380533,-104.6072,32.42,NEW MEXICO,CARLSBAD,3588220
63445,380538,-103.25,32.4711,NEW MEXICO,OIL CENTER,3588231
63445,380540,-103.13,32.7,NEW MEXICO,HOBBS,3588240
63445,380839,-104.3754,32.2972,NEW MEXICO,CARLSBAD,3588220
63445,380841,-104.2956,32.2863,NEW MEXICO,CARLSBAD,3588220
96176,578174,-107.08,34.9,NEW MEXICO,RIO PUERCO,3587026
1155184,5364677,-103.63333,34.81667,NEW MEXICO,RAGLAND,3588427
63537,380482,-104.59,36.3745,NEW MEXICO,SPRINGER,3587747
1155183,5364671,-104.51666999999999,36.01667,NEW MEXICO,WAGON MOUND,3587752
1155177,5365326,-104.43333,36.9,NEW MEXICO,RATON,3587740
1155183,5364671,-104.4,36.01667,NEW MEXICO,WAGON MOUND,3587752
1155183,5364669,-104.48333000000001,36.36667,NEW MEXICO,SPRINGER,3587747
19455,115112,-106.91,34.22,NEW MEXICO,POLVADERA,3587828
19455,115111,-105.4,35.21,NEW MEXICO,VILLANUEVA,3587560
19455,115109,-106.7859,34.5716,NEW MEXICO,TURN,3587002
19455,115109,-106.78,34.56,NEW MEXICO,TURN,3587006
75196,454419,-106.54,35.13,NEW MEXICO,ALBUQUERQUE,3587111
19455,115107,-106.7954,34.6838,NEW MEXICO,BELEN,3587002
19455,115107,-106.7253,34.6429,NEW MEXICO,RIO GRANDE ESTATES,3587002
19455,115106,-106.7384,34.7983,NEW MEXICO,LOS LUNAS,3587031
19455,115106,-106.7542,34.8127,NEW MEXICO,LOS LUNAS,3587031
19455,115096,-103.2049,36.4616,NEW MEXICO,CLAYTON,3588415
19455,115092,-103.83,36.76,NEW MEXICO,DES MOINES,3588418
19455,115091,-105.8286,35.5797,NEW MEXICO,CANYONCITO,3587505
19455,115091,-105.84,35.58,NEW MEXICO,CANYONCITO,3587505
19455,115090,-105.8,35.58,NEW MEXICO,GLORIETA,3587505
19455,115090,-105.7644,35.5783,NEW MEXICO,GLORIETA,3587535
19455,115089,-105.95,35.75,NEW MEXICO,TESUQUE,3587506
19455,115084,-106.1309,35.8761,NEW MEXICO,NAMBE,3587506
19451,115073,-106.9,34.06,NEW MEXICO,SOCORRO,3587801
75196,454420,-106.55,35.18,NEW MEXICO,ALBUQUERQUE,3587122
75196,454421,-106.54,35.14,NEW MEXICO,ALBUQUERQUE,3587111
75196,454422,-106.54,35.13,NEW MEXICO,ALBUQUERQUE,3587111
75196,454423,-106.62,34.99,NEW MEXICO,(ABQ)ALBUQUERQUE INTL AIRPORT,3587105
1155183,5364668,-104.58333,36.43333,NEW MEXICO,SPRINGER,3587747
1155183,5364670,-104.31667,36.08333,NEW MEXICO,MILLS,3587730
84738,511830,-104.6278,36.1605,NEW MEXICO,WAGON MOUND,3587752
84738,511930,-104.54,36.07,NEW MEXICO,WAGON MOUND,3587752
96607,580948,-105.5132,32.8063,NEW MEXICO,WEED,3588354
1097866,5152965,-104.23333000000001,34.46667,NEW MEXICO,FT SUMNER,3588119
1097866,5152966,-104.68333,34.93333,NEW MEXICO,SANTA ROSA,3588435
1097866,5152967,-103.61667,34.43333,NEW MEXICO,MELROSE,3588124
1097866,5152968,-104.23333000000001,34.31667,NEW MEXICO,FT SUMNER,3588119
1097867,5152969,-104.0,34.21667,NEW MEXICO,TAIBAN,3588134
1097868,5152970,-104.26666999999999,36.3,NEW MEXICO,ABBOTT,3587747
511,2047,-107.54,32.27,NEW MEXICO,DEMING,3588030
511,2052,-107.75,32.27,NEW MEXICO,DEMING,3588030
511,2054,-105.98,32.98,NEW MEXICO,LA LUZ,3588337
511,2055,-106.78,32.32,NEW MEXICO,LAS CRUCES,3588001
514,2058,-105.97,32.6,NEW MEXICO,OROGRANDE,
514,2058,-105.9,32.52,NEW MEXICO,OROGRANDE,
514,2059,-105.97,32.9,NEW MEXICO,ALAMOGORDO,3588310
1221387,5533670,-105.2167,35.5,NEW MEXICO,LAS VEGAS,3587701
1097876,5151723,-103.31667,34.81667,NEW MEXICO,GRADY,3588120
1097876,5151724,-103.31667,34.75,NEW MEXICO,GRADY,3588120
1180544,5422909,-106.83333,35.08333,NEW MEXICO,ALBUQUERQUE,3587121
1180541,5422906,-104.15,36.08333,NEW MEXICO,MILLS,3587743
1180540,5422904,-103.16667,33.63333,NEW MEXICO,MILNESAND,3588125
6174,36095,-106.39,32.27,NEW MEXICO,CONDRON ARPT,
1159501,5334194,-106.33333,32.36667,NEW MEXICO,OROGRANDE,3588081
1172956,5405697,-103.16667,32.43333,NEW MEXICO,EUNICE,3588231
1172956,5405697,-103.15,32.43333,NEW MEXICO,EUNICE,3588231
1097866,5152964,-104.61667,34.43333,NEW MEXICO,YESO,3588136
1172956,5405696,-103.35,32.93333,NEW MEXICO,LOVINGTON,3588260
1097864,5152962,-103.2,34.4,NEW MEXICO,CLOVIS,3588101
511,2045,-107.73,32.24,NEW MEXICO,(DMN)DEMING ARPT,3588030
1180846,5424861,-105.96667,32.9,NEW MEXICO,ALAMOGORDO,3588310
12,36,-107.98,36.82,NEW MEXICO,AZTEC,3587410
14,43,-106.87,33.92,NEW MEXICO,SAN ANTONIO,3587832
1180846,5424859,-106.65,31.866670000000003,NEW MEXICO,SUNLAND PARK,3588008
1180846,5424857,-106.66667,32.11667,NEW MEXICO,VADO,3588072
1180846,5424856,-107.15,32.0,NEW MEXICO,LAS CRUCES,3588021
1180846,5424855,-106.26666999999999,32.65,NEW MEXICO,ALAMOGORDO,
1180846,5424854,-106.48333000000001,32.56667,NEW MEXICO,LAS CRUCES,
1180846,5424853,-106.78333,32.51667,NEW MEXICO,LAS CRUCES,3588012
1180844,5424850,-107.16667,33.05,NEW MEXICO,TRUTH OR CONSEQUENCES,3587901
1180843,5424849,-108.26666999999999,32.8,NEW MEXICO,SILVER CITY,3588061
162,622,-104.38,32.18,NEW MEXICO,WHITES CITY,3588220
162,623,-104.1,32.3,NEW MEXICO,LOVING,3588256
162,624,-104.18,32.35,NEW MEXICO,LOVING,3588220
74724,452432,-105.95,35.68,NEW MEXICO,SANTA FE,3587505
1097856,5152881,-107.16667,33.05,NEW MEXICO,TRUTH OR CONSEQUENCES,3587901
1097859,5152954,-104.18333,35.36667,NEW MEXICO,CONCHAS DAM,3588416
1097860,5152955,-106.05,34.86667,NEW MEXICO,MC INTOSH,3587032
1097862,5152957,-106.05,34.86667,NEW MEXICO,MC INTOSH,3587032
1097862,5152958,-106.05,34.98333,NEW MEXICO,MORIARTY,3587035
1097862,5152959,-106.03333,35.0,NEW MEXICO,MORIARTY,3587035
511,2044,-107.61,32.22,NEW MEXICO,DEMING,3588030
511,2044,-107.62,32.23,NEW MEXICO,DEMING,3588030
1097863,5152961,-103.31667,34.38333,NEW MEXICO,CANNON AFB,3588103
63537,380483,-104.89200000000001,36.51,NEW MEXICO,CIMARRON,3587714
1159502,5334195,-105.96667,32.9,NEW MEXICO,ALAMOGORDO,3588310
1159505,5334198,-108.7,32.4,NEW MEXICO,LORDSBURG,3588045
1221386,5533669,-105.6833,33.33333,NEW MEXICO,RUIDOSO,3588345
74556,451025,-105.63,33.46,NEW MEXICO,ALTO,3588312
74556,451024,-105.69,33.38,NEW MEXICO,ALTO,3588345
1221385,5533668,-103.45,35.45,NEW MEXICO,ROSEBUD,3588426
1221385,5533624,-103.9667,35.8,NEW MEXICO,MOSQUERO,3587733
1221385,5533623,-104.0667,35.85,NEW MEXICO,SOLANO,3587746
1221385,5533622,-104.2,35.95,NEW MEXICO,ROY,3587743
74556,451023,-105.67,35.0,NEW MEXICO,(CQC)CLINES CORNERS,3587016
74556,451022,-105.36,35.27,NEW MEXICO,VILLANUEVA,3587560
74556,451021,-105.22,35.58,NEW MEXICO,LAS VEGAS,3587701
74556,451020,-105.23,35.58,NEW MEXICO,LAS VEGAS,3587701
1102754,5156122,-108.35,36.73333,NEW MEXICO,KIRTLAND,3587417
1102755,5156123,-105.98333000000001,35.08333,NEW MEXICO,STANLEY,3587056
84913,512827,-103.9022,32.6963,NEW MEXICO,CARLSBAD,3588210
1221385,5533621,-103.15,35.83333,NEW MEXICO,AMISTAD,3588410
1221385,5533620,-103.2167,35.86667,NEW MEXICO,AMISTAD,3588410
1221385,5533618,-103.2667,35.96667,NEW MEXICO,HAYDEN,3588410
1221385,5533617,-103.4,36.15,NEW MEXICO,SEDAN,3588415
1221384,5533616,-106.8833,34.05,NEW MEXICO,SOCORRO,3587801
1221383,5533615,-104.1833,36.36667,NEW MEXICO,ABBOTT,3587747
96618,581015,-104.23,32.42,NEW MEXICO,CARLSBAD,3588220
96611,580953,-106.7397,32.3041,NEW MEXICO,FT FILLMORE,3588011
96611,580952,-106.7212,32.315,NEW MEXICO,FT FILLMORE,3588011
74556,451026,-105.68,33.38,NEW MEXICO,ALTO,3588345
1159503,5334196,-105.96667,32.95,NEW MEXICO,ALAMOGORDO,3588337
74556,451027,-105.66,33.39,NEW MEXICO,ALTO,3588345
74557,451160,-105.48,35.4,NEW MEXICO,SAN JOSE,3587560
1159506,5334199,-108.25,32.76667,NEW MEXICO,SILVER CITY,3588061
1172953,5405613,-103.08333,32.48333,NEW MEXICO,EUNICE,3588231
1172953,5405612,-103.13333,32.7,NEW MEXICO,HOBBS,3588240
1155177,5365324,-104.0,36.75,NEW MEXICO,CAPULIN,3588414
1155177,5365325,-103.8,36.73333,NEW MEXICO,DES MOINES,3588418
1172946,5405537,-103.05,33.25,NEW MEXICO,TATUM,
6174,36095,-106.43,32.2,NEW MEXICO,CONDRON ARPT,
6174,36373,-106.39,32.27,NEW MEXICO,DESERT,
6174,36373,-106.37,32.31,NEW MEXICO,DESERT,3588081
6174,36374,-106.57,31.8,NEW MEXICO,SUNLAND PARK,3588063
6174,36375,-106.24,32.59,NEW MEXICO,DUNES,
6174,36375,-106.25,32.59,NEW MEXICO,DUNES,
74557,451173,-104.68,35.0124,NEW MEXICO,SANTA ROSA,3588435
74557,451171,-103.33,34.18,NEW MEXICO,PORTALES,3588130
74557,451169,-104.68,34.94,NEW MEXICO,SANTA ROSA,3588435
74557,451168,-103.2,34.41,NEW MEXICO,CLOVIS,3588101
74557,451167,-103.19,34.42,NEW MEXICO,CLOVIS,3588101
74557,451166,-103.2,34.41,NEW MEXICO,CLOVIS,3588101
74557,451165,-103.19,34.42,NEW MEXICO,CLOVIS,3588101
74557,451164,-104.19,35.4,NEW MEXICO,CONCHAS DAM,
74557,451163,-103.18,34.44,NEW MEXICO,CLOVIS,3588101
74557,451162,-103.07,34.59,NEW MEXICO,PLEASANT HILL,3588135
74557,451161,-103.83,35.77,NEW MEXICO,MOSQUERO,3587733
74556,451028,-105.69,33.41,NEW MEXICO,ALTO,3588312
3554,19452,-104.0144,32.82,NEW MEXICO,LOCO HILLS,3588255
63537,380484,-104.82,36.47,NEW MEXICO,CIMARRON,3587747
1179315,5420898,-106.78333,32.31667,NEW MEXICO,LAS CRUCES,3588005
84611,511445,-105.72,34.35,NEW MEXICO,CEDARVALE,3588318
84611,511444,-105.72,34.35,NEW MEXICO,CEDARVALE,3588318
84611,511442,-105.67,34.31,NEW MEXICO,CEDARVALE,3588318
84611,511440,-105.25,35.91,NEW MEXICO,BUENA VISTA,3587712
84611,511438,-106.06,34.76,NEW MEXICO,ESTANCIA,3587016
73983,447488,-103.31,35.21,NEW MEXICO,PORTER,3588434
73983,447486,-103.69,35.2,NEW MEXICO,TUCUMCARI,3588401
73983,447485,-103.77,35.2,NEW MEXICO,TUCUMCARI,3588401
73983,447484,-103.73,35.23,NEW MEXICO,TUCUMCARI,3588401
73983,447482,-104.57,34.02,NEW MEXICO,DUNLAP,3588119
84611,511449,-105.58,34.24,NEW MEXICO,(4CR)CORONA,3588318
73983,447481,-104.38,34.6,NEW MEXICO,FT SUMNER,3588119
73981,447474,-103.3,36.28,NEW MEXICO,CLAPHAM,3588415
73981,447473,-103.62,36.59,NEW MEXICO,GRENVILLE,3588424
73981,447472,-103.61,36.59,NEW MEXICO,GRENVILLE,3588424
73981,447471,-103.61,36.59,NEW MEXICO,GRENVILLE,3588424
73981,447470,-104.44,36.89,NEW MEXICO,RATON,3587740
73981,447469,-104.43,36.89,NEW MEXICO,RATON,3587740
73981,447468,-104.59,36.8,NEW MEXICO,VAN HOUTEN,
84611,511437,-106.06,34.76,NEW MEXICO,ESTANCIA,3587016
75559,456505,-106.06,35.89,NEW MEXICO,POJOAQUE,3587506
87211,526370,-103.17,33.25,NEW MEXICO,GLADIOLA,3588267
73981,447475,-103.13,36.15,NEW MEXICO,SEDAN,3588436
84611,511450,-104.26,35.07,NEW MEXICO,NEWKIRK,3588431
84611,511451,-105.6,34.25,NEW MEXICO,(4CR)CORONA,3588318
73983,447489,-103.13,33.98,NEW MEXICO,ROGERS,3588132
1220857,5534704,-106.85,32.26667,NEW MEXICO,LAS CRUCES,3588005
1220857,5534703,-107.1167,32.31667,NEW MEXICO,LAS CRUCES,3588007
1220857,5534702,-107.3333,32.25,NEW MEXICO,AKELA,3588030
1103746,5161432,-103.38333,32.5,NEW MEXICO,HOBBS,3588231
84611,511472,-103.73,35.17,NEW MEXICO,TUCUMCARI,3588401
84611,511470,-105.71,35.61,NEW MEXICO,PECOS,3587552
84611,511466,-105.68,35.63,NEW MEXICO,PECOS,3587552
84611,511465,-105.75,35.65,NEW MEXICO,GLORIETA,3587535
84611,511464,-106.07,35.72,NEW MEXICO,AGUA FRIA,3587506
95851,575771,-107.09,35.95,NEW MEXICO,CUBA,3587013
95827,575675,-106.75,35.95,NEW MEXICO,CUBA,3587025
84611,511462,-105.95,35.68,NEW MEXICO,SANTA FE,3587505
84611,511461,-106.07,35.74,NEW MEXICO,AGUA FRIA,3587506
1220847,5534685,-108.7833,32.68333,NEW MEXICO,REDROCK,3588055
75469,456164,-106.59,35.15,NEW MEXICO,ALBUQUERQUE,3587109
74040,447829,-103.31,34.82,NEW MEXICO,GRADY,3588120
74040,447828,-103.21,34.67,NEW MEXICO,BROADVIEW,3588101
84611,511459,-103.88,35.57,NEW MEXICO,BELL RANCH,
84611,511458,-103.79,35.07,NEW MEXICO,TUCUMCARI,3588401
84611,511455,-105.6,34.25,NEW MEXICO,(4CR)CORONA,3588318
84611,511454,-105.6,34.25,NEW MEXICO,(4CR)CORONA,3588318
73983,447833,-103.5123,35.2516,NEW MEXICO,(TCC)TUCUMCARI ARPT,3588426
73983,447490,-103.28,35.23,NEW MEXICO,PORTER,3588411
83263,502300,-105.55,35.42,NEW MEXICO,ILFIELD,3587565
1155184,5364681,-103.51666999999999,34.5,NEW MEXICO,RANCHVALE,3588124
1155184,5364682,-103.5,34.65,NEW MEXICO,RANCHVALE,3588124
6099,35812,-106.5,35.12,NEW MEXICO,ALBUQUERQUE,3587111
3372,18507,-103.0269,32.7,NEW MEXICO,HOBBS,
1155184,5365034,-103.13333,34.11667,NEW MEXICO,ARCH,3588130
1155184,5365035,-103.23333000000001,33.98333,NEW MEXICO,ROGERS,3588132
1155184,5365036,-103.11667,33.88333,NEW MEXICO,CAUSEY,3588113
1220302,5530528,-108.5,31.35,NEW MEXICO,ANIMAS,3588040
3554,19440,-104.73,32.6554,NEW MEXICO,HOPE,3588250
3554,19440,-104.73,32.8,NEW MEXICO,HOPE,3588250
19125,112727,-104.24,32.4,NEW MEXICO,CARLSBAD,3588220
3554,19441,-104.73,32.2,NEW MEXICO,QUEEN,3588220
3554,19442,-104.37,32.17,NEW MEXICO,WHITES CITY,3588220
3554,19443,-104.3499,32.42,NEW MEXICO,CARLSBAD,3588220
3554,19443,-104.3148,32.4916,NEW MEXICO,CARLSBAD,3588220
3554,19444,-104.3148,32.4916,NEW MEXICO,CARLSBAD,3588220
3554,19444,-104.3499,32.42,NEW MEXICO,CARLSBAD,3588220
3554,19446,-104.2628,32.4868,NEW MEXICO,CARLSBAD,3588220
3554,19447,-104.17,32.35,NEW MEXICO,OTIS,3588220
3554,19447,-104.1,32.28,NEW MEXICO,LOVING,3588256
3554,19448,-104.37,32.17,NEW MEXICO,WHITES CITY,3588220
3554,19449,-104.07,32.2345,NEW MEXICO,MALAGA,3588263
3554,19449,-104.1,32.28,NEW MEXICO,LOVING,3588256
3554,19450,-104.23,32.42,NEW MEXICO,CARLSBAD,3588220
3554,19450,-104.37,32.3987,NEW MEXICO,LAKEWOOD,3588220
3554,19451,-104.3569,32.6567,NEW MEXICO,LAKEWOOD,3588254
3372,18506,-103.2589,32.338,NEW MEXICO,EUNICE,3588252
1220857,5534770,-106.8,32.26667,NEW MEXICO,MESILLA,3588005
3372,18506,-103.13,32.7145,NEW MEXICO,HOBBS,3588240
3372,18505,-103.08,32.83,NEW MEXICO,KNOWLES,3588240
19184,113206,-103.1422,32.7102,NEW MEXICO,HOBBS,3588240
19184,113179,-103.0772,32.4914,NEW MEXICO,EUNICE,3588231
1155184,5364684,-103.73333000000001,34.88333,NEW MEXICO,RAGLAND,3588120
1155184,5364685,-103.46667,34.4,NEW MEXICO,ST VRAIN,3588124
1133230,5288228,-103.26666999999999,34.25,NEW MEXICO,PORTALES,3588130
1133230,5288227,-103.2,34.35,NEW MEXICO,CLOVIS,3588101
1155184,5364686,-103.38333,34.4,NEW MEXICO,CLOVIS,3588101
1155184,5364687,-103.2,34.4,NEW MEXICO,CLOVIS,3588101
1155184,5364741,-103.26666999999999,34.46667,NEW MEXICO,CLOVIS,3588101
1155184,5364742,-103.31667,34.38333,NEW MEXICO,CANNON AFB,3588103
1133229,5288226,-103.01666999999999,35.8,NEW MEXICO,AMISTAD,
1133229,5288225,-103.15,35.83333,NEW MEXICO,AMISTAD,3588410
1133229,5288224,-103.35,35.96667,NEW MEXICO,HAYDEN,3588415
1133229,5288223,-103.35,35.96667,NEW MEXICO,HAYDEN,3588415
1133229,5288222,-103.45,35.98333,NEW MEXICO,ROSEBUD,3588410
1133228,5288221,-103.33333,34.1,NEW MEXICO,SAN JON,3588130
1133228,5288220,-103.1,35.6,NEW MEXICO,NARA VISA,3588430
1155184,5365033,-103.33333,34.18333,NEW MEXICO,PORTALES,3588130
3372,18502,-103.35,32.93,NEW MEXICO,LOVINGTON,3588260
3372,18502,-103.3135,32.9607,NEW MEXICO,LOVINGTON,3588260
3372,18503,-103.3135,32.9607,NEW MEXICO,LOVINGTON,3588260
3372,18504,-103.33,33.52,NEW MEXICO,CROSSROADS,3588267
3372,18504,-103.08,32.83,NEW MEXICO,KNOWLES,3588240
3372,18505,-103.0112,32.83,NEW MEXICO,KNOWLES,
2921,19412,-104.27,32.33,NEW MEXICO,(CNM)CARLSBAD ARPT,3588220
19262,113637,-104.04,36.35,NEW MEXICO,FARLEY,3588422
65484,392066,-106.21,35.27,NEW MEXICO,GOLDEN,3587047
1155188,5365061,-103.76666999999999,36.95,NEW MEXICO,FOLSOM,3588419
75337,455089,-104.2785,32.4609,NEW MEXICO,CARLSBAD,3588220
75337,455090,-104.23,32.42,NEW MEXICO,CARLSBAD,3588220
75337,455091,-104.23,32.42,NEW MEXICO,CARLSBAD,3588220
75337,455092,-104.23,32.42,NEW MEXICO,CARLSBAD,3588220
75337,455339,-104.1443,32.42,NEW MEXICO,CARLSBAD,3588220
6197,36210,-103.13,32.7,NEW MEXICO,HOBBS,3588240
1155184,5364680,-103.48333000000001,34.53333,NEW MEXICO,CANNON AFB,3588124
1113282,5240817,-105.15,33.35,NEW MEXICO,PICACHO,3588343
1113283,5240818,-104.41667,35.43333,NEW MEXICO,TREMENTINA,
61073,364987,-103.17,36.45,NEW MEXICO,CLAYTON,3588415
84612,512650,-105.1584,35.5993,NEW MEXICO,LAS VEGAS,3587701
84612,511952,-104.5205,36.4958,NEW MEXICO,MAXWELL,3587747
84612,511952,-104.5384,36.5019,NEW MEXICO,MAXWELL,3587747
74223,450451,-104.37,32.659,NEW MEXICO,LAKEWOOD,3588254
84612,511951,-104.5651,36.4379,NEW MEXICO,SPRINGER,3587747
84612,511951,-104.59,36.44,NEW MEXICO,SPRINGER,3587747
84612,511949,-104.7876,35.8879,NEW MEXICO,SHOEMAKER,3587752
74223,450449,-104.37,32.63,NEW MEXICO,LAKEWOOD,3588254
84612,511949,-104.83,35.91,NEW MEXICO,SHOEMAKER,3587752
84612,511929,-103.73,35.17,NEW MEXICO,TUCUMCARI,3588401
84612,511928,-103.33,35.08,NEW MEXICO,SAN JON,3588434
84612,511927,-103.73,35.17,NEW MEXICO,TUCUMCARI,3588401
19367,114432,-105.8972,35.5818,NEW MEXICO,CANADA DE LOS ALAMOS,3587505
84612,511926,-104.4,33.03,NEW MEXICO,LAKE ARTHUR,3588253
19367,114432,-105.9631,35.5863,NEW MEXICO,CANADA DE LOS ALAMOS,3587508
19367,115049,-103.99,36.78,NEW MEXICO,CAPULIN,3588414
96108,578918,-105.9159,35.6131,NEW MEXICO,SANTA FE,3587505
96108,577749,-105.95,35.71,NEW MEXICO,SANTA FE,3587506
96108,577748,-103.32,35.26,NEW MEXICO,PORTER,3588434
1155184,5364678,-103.6,34.8,NEW MEXICO,FORREST,3588124
96108,577747,-106.69,34.92,NEW MEXICO,ISLETA,3587105
96108,577746,-106.9,34.06,NEW MEXICO,SOCORRO,3587801
96108,577745,-106.02,35.71,NEW MEXICO,AGUA FRIA,3587506
96108,577744,-105.86,35.55,NEW MEXICO,CANADA DE LOS ALAMOS,3587505
96108,577743,-106.02,35.69,NEW MEXICO,AGUA FRIA,3587507
96108,577742,-105.95,35.63,NEW MEXICO,SANTA FE,3587508
96108,577741,-105.93,35.6,NEW MEXICO,CANADA DE LOS ALAMOS,3587508
96108,577740,-105.95,35.62,NEW MEXICO,SANTA FE,3587508
1155184,5364679,-103.61667,34.71667,NEW MEXICO,MELROSE,3588124
96108,577739,-105.99,35.7,NEW MEXICO,SANTA FE,3587506
96108,577738,-105.95,35.71,NEW MEXICO,SANTA FE,3587506
96107,577733,-106.1713,35.0774,NEW MEXICO,EDGEWOOD,3587015
96107,577733,-106.1783,35.0736,NEW MEXICO,EDGEWOOD,3587015
96107,577732,-106.05,35.0,NEW MEXICO,MORIARTY,3587035
63658,381008,-105.19,36.28,NEW MEXICO,BLACK LAKE,3587710
19367,115056,-103.15,35.61,NEW MEXICO,NARA VISA,3588430
19367,115052,-103.16,35.66,NEW MEXICO,NARA VISA,3588430
19367,115051,-103.97,36.38,NEW MEXICO,GLADSTONE,3588424
19367,115050,-106.34,34.6,NEW MEXICO,QUARAI,3587036
75337,455088,-104.23,32.42,NEW MEXICO,CARLSBAD,3588220
1179318,5420903,-106.78333,32.31667,NEW MEXICO,LAS CRUCES,3588005
84612,511925,-104.36,33.0,NEW MEXICO,LAKE ARTHUR,3588253
1221045,5535050,-103.15,32.43333,NEW MEXICO,EUNICE,3588231
84611,511478,-103.1942,34.5657,NEW MEXICO,PLEASANT HILL,3588101
84611,511476,-105.45,35.37,NEW MEXICO,RIBERA,3587560
84611,511475,-105.46,35.39,NEW MEXICO,SAN JOSE,3587560
84611,511474,-103.73,35.17,NEW MEXICO,TUCUMCARI,3588401
65658,393108,-104.98,35.81,NEW MEXICO,WATROUS,3587753
65658,393109,-105.21,35.59,NEW MEXICO,LAS VEGAS,3587701
65658,393110,-104.98,35.81,NEW MEXICO,WATROUS,3587753
6270,36615,-108.92,31.4923,NEW MEXICO,CLOVERDALE,3588020
6270,36616,-108.92,31.5357,NEW MEXICO,CLOVERDALE,3588020
6270,36618,-109.0559,31.8096,NEW MEXICO,RODEO,
6290,36732,-104.23,32.3477,NEW MEXICO,CARLSBAD,3588220
6290,36733,-103.945,32.5196,NEW MEXICO,CARLSBAD,3588210
6295,36748,-107.97,32.85,NEW MEXICO,MIMBRES,3588041
6296,36749,-108.31,32.82,NEW MEXICO,SILVER CITY,3588061
6296,36751,-108.29,32.81,NEW MEXICO,SILVER CITY,3588061
84611,511473,-103.71,35.17,NEW MEXICO,TUCUMCARI,3588401
1103746,5161431,-104.73333000000001,32.2,NEW MEXICO,QUEEN,3588220
6297,36752,-106.14,32.79,NEW MEXICO,(HMN)HOLOMAN AFB ALM,3588310
74100,448174,-103.7027,33.38,NEW MEXICO,CAPROCK,3588267
2921,15248,-104.1,32.28,NEW MEXICO,LOVING,3588256
2921,15298,-103.32,33.13,NEW MEXICO,MC DONALD,3588262
65490,393038,-105.26,36.55,NEW MEXICO,EAGLE NEST,3587718
65484,392068,-106.19,35.15,NEW MEXICO,EDGEWOOD,3587015
84611,511479,-103.25,34.5,NEW MEXICO,RANCHVALE,3588101
84612,511923,-104.45,33.0,NEW MEXICO,LAKE ARTHUR,3588232
65658,393107,-105.66,33.39,NEW MEXICO,ALTO,3588345
65658,393106,-103.74,36.3,NEW MEXICO,PASAMONTE,3588424
1221044,5535049,-104.2333,32.41667,NEW MEXICO,CARLSBAD,3588220
1221043,5535048,-104.2167,32.41667,NEW MEXICO,CARLSBAD,3588220
1221043,5535046,-103.9667,32.51667,NEW MEXICO,CARLSBAD,3588220
84612,511921,-104.48,33.0,NEW MEXICO,LAKE ARTHUR,3588232
84612,511920,-104.36,33.0,NEW MEXICO,LAKE ARTHUR,3588253
84612,511919,-104.44,36.89,NEW MEXICO,RATON,3587740
84612,511917,-104.53,33.13,NEW MEXICO,DEXTER,3588232
84612,511912,-104.48,36.78,NEW MEXICO,(RTN)RATON CREWS AIRPORT,3587740
1103731,5161090,-104.36667,32.41667,NEW MEXICO,CARLSBAD,3588220
1103731,5161090,-104.38333,32.55,NEW MEXICO,CARLSBAD,3588220
84612,511911,-104.83,35.91,NEW MEXICO,SHOEMAKER,3587752
84612,511909,-105.21,35.98,NEW MEXICO,RAINSVILLE,3587736
84612,511837,-105.3805,33.7,NEW MEXICO,ENCINOSO,3588316
1103736,5161099,-103.11667,32.11667,NEW MEXICO,JAL,3588252
84612,511837,-105.3568,33.6841,NEW MEXICO,ENCINOSO,3588316
84611,511833,-104.5281,33.6912,NEW MEXICO,ACME,3588201
84611,511833,-104.4711,33.6655,NEW MEXICO,ACME,3588201
84611,511720,-105.6394,34.2501,NEW MEXICO,(4CR)CORONA,3588318
84611,511719,-105.6118,34.2557,NEW MEXICO,(4CR)CORONA,3588318
84611,511717,-103.28,36.25,NEW MEXICO,CLAPHAM,3588415
84611,511481,-103.3072,34.6081,NEW MEXICO,RANCHVALE,3588101
84611,511480,-104.53,33.52,NEW MEXICO,ROSWELL,3588201
65658,393104,-105.46,35.39,NEW MEXICO,SAN JOSE,3587560
6255,36457,-104.37,32.63,NEW MEXICO,LAKEWOOD,3588254
1121266,5263326,-106.38333,34.95,NEW MEXICO,TIJERAS,
94525,568289,-103.13,36.16,NEW MEXICO,SEDAN,3588436
1155190,5365126,-103.33333,33.98333,NEW MEXICO,SAN JON,3588130
62051,371121,-106.31,35.89,NEW MEXICO,LOS ALAMOS,3587544
62052,371125,-107.2772,34.0922,NEW MEXICO,MAGDALENA MUNI ARPT,3587825
62052,371125,-107.2568,34.092,NEW MEXICO,MAGDALENA,3587825
1166859,5387174,-103.65,33.93333,NEW MEXICO,ELIDA,3588116
1166859,5387173,-103.46667,34.06667,NEW MEXICO,PORTALES,3588130
1166859,5387172,-103.65,33.93333,NEW MEXICO,ELIDA,3588116
62050,371119,-106.38,35.0321,NEW MEXICO,TIJERAS,3587059
1166858,5387171,-105.01666999999999,36.18333,NEW MEXICO,OCATE,3587734
1114762,5245181,-103.15,33.25,NEW MEXICO,TATUM,3588267
62052,371127,-107.24,34.12,NEW MEXICO,MAGDALENA,3587825
62052,371128,-105.87,34.48,NEW MEXICO,PROGRESSO,3587063
62052,371129,-106.78,34.66,NEW MEXICO,BELEN,3587002
1154407,5363740,-104.3,32.48333,NEW MEXICO,CARLSBAD,3588220
1114766,5245193,-103.31667,33.46667,NEW MEXICO,TATUM,3588114
1114761,5245180,-103.15,33.25,NEW MEXICO,TATUM,3588267
1166859,5387175,-103.33333,34.18333,NEW MEXICO,PORTALES,3588130
1166860,5387176,-103.18333,36.45,NEW MEXICO,CLAYTON,3588415
1166861,5387177,-104.81667,33.13333,NEW MEXICO,ROSWELL,3588203
1166863,5387190,-103.33333,33.93333,NEW MEXICO,DORA,3588132
1166863,5387189,-103.33333,33.78333,NEW MEXICO,MILNESAND,3588126
1166862,5387188,-106.16667,33.48333,NEW MEXICO,OSCURA,
1166861,5387187,-104.28333,33.26667,NEW MEXICO,DEXTER,3588230
1166861,5387186,-104.43333,33.25,NEW MEXICO,DEXTER,3588230
92806,558120,-104.54,34.06,NEW MEXICO,DUNLAP,3588119
92806,558121,-103.65,33.95,NEW MEXICO,ELIDA,3588116
1166861,5387184,-104.51666999999999,33.3,NEW MEXICO,ROSWELL,3588203
1166861,5387184,-104.36667,33.2,NEW MEXICO,ROSWELL,3588230
1166861,5387183,-104.51666999999999,33.23333,NEW MEXICO,ROSWELL,3588230
1166861,5387182,-104.51666999999999,33.23333,NEW MEXICO,ROSWELL,3588230
1166861,5387182,-104.66667,33.26667,NEW MEXICO,ROSWELL,3588203
1166861,5387181,-104.68333,33.23333,NEW MEXICO,ROSWELL,3588203
1166861,5387180,-104.51666999999999,33.33333,NEW MEXICO,ROSWELL,3588203
1166861,5387179,-104.76666999999999,33.18333,NEW MEXICO,ROSWELL,3588203
1154407,5363738,-103.46667,32.76667,NEW MEXICO,BUCKEYE,3588240
77539,468658,-108.6694,36.8054,NEW MEXICO,SHIPROCK,3587420
1166699,5327665,-104.13333,36.65,NEW MEXICO,RATON,3587740
1167999,5390567,-108.28333,32.73333,NEW MEXICO,SILVER CITY,3588061
11183,61287,-108.50399999999999,32.65,NEW MEXICO,TYRONE,3588061
11183,61287,-108.4617,32.6111,NEW MEXICO,TYRONE,3588061
11182,61286,-106.08,32.37,NEW MEXICO,OROGRANDE,
11170,61259,-107.4242,32.2296,NEW MEXICO,AKELA,3588030
1153083,5360385,-105.46667,32.88333,NEW MEXICO,MAYHILL,3588339
11006,60639,-104.5376,32.83,NEW MEXICO,ARTESIA,3588210
1168004,5390574,-108.43333,32.23333,NEW MEXICO,SEPAR,3588061
5496,32022,-104.93,34.23,NEW MEXICO,RAMON,3588318
5496,32025,-103.13,34.1906,NEW MEXICO,ARCH,3588130
5496,32062,-104.93,34.78,NEW MEXICO,PASTURA,3588435
1154398,5363398,-104.73333000000001,32.76667,NEW MEXICO,HOPE,3588250
1154398,5363398,-104.73333000000001,32.75,NEW MEXICO,HOPE,3588250
5510,32139,-103.2054,36.2969,NEW MEXICO,SEDAN,3588415
5510,32140,-103.18,36.3054,NEW MEXICO,CLAYTON,3588415
5496,32024,-103.05,34.38,NEW MEXICO,TEXICO,3588135
1168004,5390573,-108.6,32.26667,NEW MEXICO,LORDSBURG,3588045
1168003,5390572,-106.55,32.41667,NEW MEXICO,ORGAN,3588011
11631,63933,-108.2964,32.7769,NEW MEXICO,SILVER CITY,3588061
1168000,5390568,-108.25,32.8,NEW MEXICO,SILVER CITY,3588061
1168001,5390569,-107.45,33.4,NEW MEXICO,MONTICELLO,3587939
1168003,5390571,-106.41667,32.06667,NEW MEXICO,ANTHONY,3588081
1154404,5363407,-103.8,32.41667,NEW MEXICO,CARLSBAD,3588220
1212010,5512745,-105.7333,32.96667,NEW MEXICO,CLOUDCROFT,3588317
1212011,5512746,-105.7167,32.63333,NEW MEXICO,SACRAMENTO,3588350
1212012,5512747,-105.7167,32.63333,NEW MEXICO,SACRAMENTO,3588350
1212013,5512748,-106.6,32.35,NEW MEXICO,ORGAN,3588011
77452,467299,-107.8803,32.8985,NEW MEXICO,MIMBRES,3588041
77451,467298,-106.6223,32.4252,NEW MEXICO,ORGAN,3588012
77451,467294,-108.5238,32.8764,NEW MEXICO,GILA,3588061
77451,467292,-105.5594,33.0533,NEW MEXICO,CLOUDCROFT,3588340
77451,467291,-105.5917,33.03,NEW MEXICO,CLOUDCROFT,3588340
1212013,5512749,-106.6,32.35,NEW MEXICO,ORGAN,3588011
11632,63935,-107.6489,33.3518,NEW MEXICO,WINSTON,3587943
77471,467431,-109.0,32.23,NEW MEXICO,VIRDEN,3588045
77539,468658,-108.6678,36.8082,NEW MEXICO,SHIPROCK,3587420
1166865,5387261,-103.18333,36.45,NEW MEXICO,CLAYTON,3588415
1154409,5362781,-103.26666999999999,32.61667,NEW MEXICO,MONUMENT,3588265
1217185,5522855,-108.8833,33.28333,NEW MEXICO,PLEASANTON,3588039
1217186,5522856,-105.0333,35.5,NEW MEXICO,MADRID,3587701
1217188,5522859,-107.5167,34.46667,NEW MEXICO,ALAMO,3587825
1114445,5245641,-106.05,35.48333,NEW MEXICO,LAMY,3587508
1114445,5245642,-105.88333,35.55,NEW MEXICO,LAMY,3587508
1114447,5245644,-104.26666999999999,36.3,NEW MEXICO,ABBOTT,3587747
1217184,5522854,-106.7,34.93333,NEW MEXICO,ISLETA,3587105
16740,96468,-103.37,36.17,NEW MEXICO,CLAPHAM,3588415
16740,96470,-103.4985,34.5609,NEW MEXICO,RANCHVALE,3588124
16740,96475,-103.2,34.4,NEW MEXICO,CLOVIS,3588101
1114447,5245645,-104.18333,35.36667,NEW MEXICO,CONCHAS DAM,3588416
54641,328086,-104.59,36.36,NEW MEXICO,SPRINGER,3587747
1114447,5245646,-104.25,36.21667,NEW MEXICO,MILLS,3587730
16837,96990,-103.3173,33.98,NEW MEXICO,ROGERS,3588130
16740,96469,-103.33,34.1,NEW MEXICO,SAN JON,3588130
1217183,5522853,-106.65,35.16667,NEW MEXICO,ALAMEDA,3587107
1217183,5522852,-106.6167,35.11667,NEW MEXICO,ALBUQUERQUE,3587107
1217182,5522851,-106.6667,35.25,NEW MEXICO,RIO RANCHO,3587124
1114332,5244404,-103.78333,35.76667,NEW MEXICO,MOSQUERO,3587733
1114332,5244405,-103.75,34.93333,NEW MEXICO,QUAY,3588401
1114332,5244406,-103.21667,35.6,NEW MEXICO,NARA VISA,3588430
1114332,5244409,-103.6,36.6,NEW MEXICO,GRENVILLE,3588418
1114332,5244411,-103.73333000000001,34.81667,NEW MEXICO,RAGLAND,3588427
1114332,5244412,-103.55,35.16667,NEW MEXICO,TUCUMCARI,3588401
1114332,5244413,-103.05,34.2,NEW MEXICO,GLENRIO,3588130
1114333,5244414,-104.23333000000001,34.38333,NEW MEXICO,FT SUMNER,3588119
1114336,5244417,-104.7,36.01667,NEW MEXICO,WAGON MOUND,3587752
1114338,5244419,-103.41667,35.36667,NEW MEXICO,LOGAN,3588426
1114340,5244421,-105.1,36.56667,NEW MEXICO,UTE PARK,3587749
1217177,5522845,-106.5667,35.08333,NEW MEXICO,ALBUQUERQUE,3587108
1217180,5522848,-104.5333,36.5,NEW MEXICO,MAXWELL,3587747
1217180,5522848,-104.5667,36.5,NEW MEXICO,MAXWELL,3587747
1217182,5522850,-106.6667,35.25,NEW MEXICO,RIO RANCHO,3587124
1114448,5245648,-105.2,35.5,NEW MEXICO,ROMEROVILLE,3587701
1114449,5245649,-104.41667,35.53333,NEW MEXICO,TREMENTINA,3587746
1114450,5245650,-105.4,35.61667,NEW MEXICO,MINERAL HILL,3587701
1114451,5245651,-103.71667,35.15,NEW MEXICO,TUCUMCARI,3588401
84234,508515,-104.53,34.03,NEW MEXICO,DUNLAP,3588119
84237,508522,-103.77,33.84,NEW MEXICO,KENNA,3588116
84237,508523,-103.78,33.69,NEW MEXICO,BOAZ,3588201
5046,30759,-105.2527,34.6,NEW MEXICO,VAUGHN,3588353
5046,29210,-103.5916,35.9084,NEW MEXICO,BUEYEROS,3588410
5046,29209,-103.9,36.0777,NEW MEXICO,YATES,3587743
5046,29208,-104.7,36.02,NEW MEXICO,WAGON MOUND,3587752
5046,29207,-104.8894,35.8667,NEW MEXICO,WAGON MOUND,3587752
5046,29206,-104.58,36.4567,NEW MEXICO,SPRINGER,3587747
5046,29204,-104.9,36.52,NEW MEXICO,CIMARRON,3587714
16984,98062,-105.12,36.06,NEW MEXICO,OJO FELIZ,3587735
16984,98063,-104.64,34.94,NEW MEXICO,SANTA ROSA MUNI ARPT,3588435
16984,98064,-104.92,35.82,NEW MEXICO,VALMORA,3587750
16984,98065,-104.98,35.82,NEW MEXICO,WATROUS DOOLITTLE AR,3587753
5046,29203,-104.5441,36.37,NEW MEXICO,SPRINGER,3587747
84234,508514,-104.68,33.98,NEW MEXICO,MESA,3588201
1217555,5526622,-107.75,32.31667,NEW MEXICO,DEMING,3588030
1167090,5389864,-104.25,32.43333,NEW MEXICO,CARLSBAD,3588220
77708,468686,-107.9898,32.8099,NEW MEXICO,MIMBRES,3588041
1114453,5245653,-106.13333,35.53333,NEW MEXICO,SANTA FE,3587010
1114454,5245654,-104.88333,35.2,NEW MEXICO,DILIA,3588435
77886,469747,-106.37,35.11,NEW MEXICO,CEDAR CREST,3587008
77886,469744,-106.97,36.01,NEW MEXICO,CUBA,3587013
77886,469743,-107.13,35.89,NEW MEXICO,CUBA,3587013
77884,469741,-104.43,36.88,NEW MEXICO,RATON,3587740
77883,469691,-108.2091,36.6521,NEW MEXICO,(FMN)FARMINGTON AIRPORT,3587499
77883,469691,-108.2109,36.6505,NEW MEXICO,(FMN)FARMINGTON AIRPORT,3587499
77883,469689,-108.2105,36.6442,NEW MEXICO,(FMN)FARMINGTON AIRPORT,3587499
77883,469687,-107.0,36.79,NEW MEXICO,DULCE ARPT,3587528
5488,31941,-105.45,35.88,NEW MEXICO,GASCON,3587742
84218,508367,-105.819,35.0,NEW MEXICO,(CQC)CLINES CORNERS,3587016
84218,508369,-105.59,33.54,NEW MEXICO,CAPITAN,3588316
84218,508370,-105.01,35.05,NEW MEXICO,COLONIAS,3588435
77708,468687,-108.27,32.77,NEW MEXICO,SILVER CITY,3588061
77689,468621,-108.12,32.7,NEW MEXICO,HURLEY,3588043
1114331,5244403,-105.0,36.63333,NEW MEXICO,VERMEJO PARK,3587714
5510,32141,-103.28299999999999,36.2497,NEW MEXICO,CLAYTON,3588415
5510,32143,-103.2245,35.6,NEW MEXICO,NARA VISA,3588430
1174251,5408221,-104.31667,36.9,NEW MEXICO,RATON,3587740
1163500,5371673,-104.33333,33.11667,NEW MEXICO,HAGERMAN,3588232
1163500,5371672,-104.36667,33.0,NEW MEXICO,LAKE ARTHUR,3588253
1151141,5355266,-104.16667,32.41667,NEW MEXICO,CARLSBAD,3588220
1151141,5355265,-104.36667,32.63333,NEW MEXICO,LAKEWOOD,3588254
1151141,5355264,-104.23333000000001,32.41667,NEW MEXICO,CARLSBAD,3588220
1174252,5408222,-103.33333,36.56667,NEW MEXICO,CLAYTON,3588415
17223,99672,-105.89,35.54,NEW MEXICO,CANYONCITO,3587508
4918,28335,-104.6066,33.38,NEW MEXICO,ROSWELL,3588203
4918,28333,-103.58,35.0473,NEW MEXICO,TUCUMCARI,3588401
4918,28332,-103.4983,34.5609,NEW MEXICO,RANCHVALE,3588124
4918,28331,-103.22,34.82,NEW MEXICO,BROADVIEW,3588112
1163405,5371592,-107.65,31.96667,NEW MEXICO,COLUMBUS,3588030
1163181,5371767,-103.88333,36.2,NEW MEXICO,ROY,3588424
17223,99673,-106.74,34.81,NEW MEXICO,LOS LUNAS,3587031
1174253,5408223,-103.2,34.4,NEW MEXICO,CLOVIS,3588101
1174253,5408347,-103.2,34.4,NEW MEXICO,CLOVIS,3588101
1174254,5408349,-103.95,36.15,NEW MEXICO,ROY,3587743
1174265,5408432,-106.03333,34.61667,NEW MEXICO,WILLARD,3587063
1174264,5408431,-103.73333000000001,36.21667,NEW MEXICO,PASAMONTE,3588424
1174263,5408430,-105.55,35.45,NEW MEXICO,PECOS,3587538
1174262,5408429,-105.46667,35.6,NEW MEXICO,LAS VEGAS,3587701
1174261,5408428,-105.53333,35.4,NEW MEXICO,SAN JOSE,3587565
1174260,5408427,-104.58333,36.43333,NEW MEXICO,SPRINGER,3587747
85741,517699,-104.23,32.3187,NEW MEXICO,CARLSBAD,3588220
1174259,5408426,-103.21667,35.86667,NEW MEXICO,AMISTAD,3588410
1174257,5408352,-106.23333000000001,34.45,NEW MEXICO,MOUNTAINAIR,3587036
85741,517697,-104.4,32.6853,NEW MEXICO,ARTESIA,3588210
85741,517696,-104.4,32.77,NEW MEXICO,ATOKA,3588210
1174256,5408351,-105.38333,35.93333,NEW MEXICO,MORA,3587732
1174255,5408350,-103.08333,36.45,NEW MEXICO,CLAYTON,3588415
85741,517694,-104.4,32.83,NEW MEXICO,ARTESIA,3588210
85741,517692,-104.4,32.7721,NEW MEXICO,ARTESIA,3588210
1163180,5371766,-104.61667,36.36667,NEW MEXICO,SPRINGER,3587747
85741,517700,-104.23,32.3187,NEW MEXICO,CARLSBAD,3588220
1163180,5371765,-104.58333,36.43333,NEW MEXICO,SPRINGER,3587747
1163174,5335063,-103.85,35.95,NEW MEXICO,ROY,3587733
72780,439226,-104.5298,33.1446,NEW MEXICO,DEXTER,3588232
85680,517466,-103.35,32.93,NEW MEXICO,LOVINGTON,3588260
85680,517460,-103.13,32.7,NEW MEXICO,HOBBS,3588240
1212335,5512055,-106.4333,36.48333,NEW MEXICO,CANJILON,3587515
1212336,5512056,-104.9333,34.78333,NEW MEXICO,PASTURA,3588435
1212337,5512057,-103.6,36.6,NEW MEXICO,GRENVILLE,3588418
85680,517469,-103.08,32.83,NEW MEXICO,KNOWLES,3588240
1212339,5512059,-104.0,36.75,NEW MEXICO,CAPULIN,3588414
1212340,5512060,-103.9,36.08333,NEW MEXICO,YATES,3587743
53692,321782,-106.3103,34.9701,NEW MEXICO,ESCABOSA,3587059
53691,321774,-104.4233,36.9055,NEW MEXICO,RATON,3587740
53691,321773,-104.44,36.9,NEW MEXICO,RATON,3587740
53689,321767,-104.4233,36.9055,NEW MEXICO,RATON,3587740
53666,339709,-106.4825,34.9864,NEW MEXICO,CARNUEL,
1212339,5512059,-104.0,36.8,NEW MEXICO,CAPULIN,3588414
1174249,5408133,-103.41667,35.36667,NEW MEXICO,LOGAN,3588426
1174250,5408134,-103.31667,34.46667,NEW MEXICO,RANCHVALE,3588101
1174250,5408135,-103.2,34.45,NEW MEXICO,CLOVIS,3588101
1163174,5335063,-103.93333,35.95,NEW MEXICO,ROY,3587733
1163174,5335062,-103.9,36.15,NEW MEXICO,YATES,3587743
1163173,5335061,-106.91667,34.2,NEW MEXICO,POLVADERA,3587828
1163172,5335060,-103.15,34.08333,NEW MEXICO,GLENRIO,3588130
1163026,5372044,-104.43333,32.58333,NEW MEXICO,CARLSBAD,3588254
4860,27823,-106.2406,35.1501,NEW MEXICO,EDGEWOOD,3587015
1176123,5413503,-103.31667,33.3,NEW MEXICO,TATUM,3588267
1176124,5413506,-104.16667,32.36667,NEW MEXICO,CARLSBAD,3588220
1176124,5413506,-104.23333000000001,32.41667,NEW MEXICO,CARLSBAD,3588220
1176129,5413565,-103.28333,33.3,NEW MEXICO,TATUM,3588267
86919,525363,-106.2375,35.1007,NEW MEXICO,EDGEWOOD,3587015
1174251,5408220,-104.58333,36.43333,NEW MEXICO,SPRINGER,3587747
1162288,5337220,-103.13333,32.7,NEW MEXICO,HOBBS,3588240
1174250,5408219,-103.58333,34.26667,NEW MEXICO,FLOYD,3588118
1174250,5408136,-103.35,34.16667,NEW MEXICO,PORTALES,3588130
1163177,5335068,-104.73333000000001,33.2,NEW MEXICO,ROSWELL,3588203
85741,517701,-104.1384,32.22,NEW MEXICO,MALAGA,3588220
85741,517702,-104.23,32.3187,NEW MEXICO,CARLSBAD,3588220
85741,517704,-104.2628,32.3531,NEW MEXICO,CARLSBAD,3588220
1168911,5394066,-104.03333,32.58333,NEW MEXICO,CARLSBAD,3588210
86707,523321,-105.68,33.38,NEW MEXICO,ALTO,3588345
1168911,5394066,-103.98333000000001,32.61667,NEW MEXICO,CARLSBAD,3588210
1168911,5394064,-104.06667,32.33333,NEW MEXICO,LOVING,3588256
1168911,5394064,-104.1,32.28333,NEW MEXICO,LOVING,3588256
1168907,5394542,-103.35,32.93333,NEW MEXICO,LOVINGTON,3588260
62165,372192,-106.28,35.92,NEW MEXICO,LOS ALAMOS,
1168907,5394541,-103.35,32.98333,NEW MEXICO,LOVINGTON,3588260
1151247,5355722,-104.23333000000001,34.46667,NEW MEXICO,FT SUMNER,3588119
1151246,5355653,-105.88333,35.5,NEW MEXICO,LAMY,3587540
1154394,5363624,-104.23333000000001,32.41667,NEW MEXICO,CARLSBAD,3588220
1154394,5363623,-103.31667,33.18333,NEW MEXICO,TATUM,3588267
1151246,5355653,-105.88333,35.53333,NEW MEXICO,LAMY,3587508
1151242,5355649,-106.33333,35.56667,NEW MEXICO,PENA BLANCA,3587041
1168907,5394541,-103.35,32.93333,NEW MEXICO,LOVINGTON,3588260
62165,371958,-103.22,34.7187,NEW MEXICO,BROADVIEW,3588101
62165,371956,-103.22,34.8055,NEW MEXICO,BROADVIEW,3588112
62165,371955,-103.22,34.849000000000004,NEW MEXICO,BROADVIEW,3588112
5517,32200,-103.4237,33.25,NEW MEXICO,TATUM,3588267
5517,32202,-103.1354,33.25,NEW MEXICO,GLADIOLA,3588267
5517,32202,-103.32,33.25,NEW MEXICO,TATUM,3588267
5517,32203,-103.5782,32.43,NEW MEXICO,EUNICE,
88422,533420,-105.6947,32.641999999999996,NEW MEXICO,CONDRON ARPT,3588350
88408,533339,-106.74,32.3,NEW MEXICO,FT FILLMORE,3588011
88408,533338,-106.73,32.31,NEW MEXICO,FT FILLMORE,3588011
88408,533337,-106.78,32.36,NEW MEXICO,LAS CRUCES,3588007
5517,32206,-103.1354,33.25,NEW MEXICO,GLADIOLA,3588267
5525,32305,-103.13,32.7,NEW MEXICO,HOBBS,3588240
5525,32306,-103.13,32.7723,NEW MEXICO,HOBBS,3588242
62165,371933,-105.6555,33.3095,NEW MEXICO,RUIDOSO,3588345
62165,371937,-104.645,36.253,NEW MEXICO,SPRINGER,3587747
62165,371946,-104.5,35.46,NEW MEXICO,TREMENTINA,3587746
62165,371949,-103.73,35.46,NEW MEXICO,MOSQUERO,3588426
1151242,5355648,-105.01666999999999,35.88333,NEW MEXICO,POJOAQUE,3587753
1151242,5355647,-106.35,35.61667,NEW MEXICO,COCHITI PUEBLO,3587072
1151241,5355646,-105.45,34.4,NEW MEXICO,DURAN,3588301
1151240,5355645,-103.18333,34.3,NEW MEXICO,PORTALES,3588130
62401,373355,-103.11,33.94,NEW MEXICO,CAUSEY,3588132
62401,373356,-103.65,35.15,NEW MEXICO,(TCC)TUCUMCARI ARPT,3588401
85741,517719,-104.0822,32.3526,NEW MEXICO,LOVING,3588220
85741,517719,-104.0843,32.35,NEW MEXICO,OTIS,3588220
85741,517716,-103.6706,32.4003,NEW MEXICO,HUMBLE CITY,
85741,517712,-104.3391,32.3279,NEW MEXICO,CARLSBAD,3588220
85741,517709,-104.2436,32.2143,NEW MEXICO,WHITES CITY,3588220
85741,517706,-104.2694,32.3398,NEW MEXICO,CARLSBAD,3588220
1174270,5408438,-103.3,35.98333,NEW MEXICO,HAYDEN,3588415
1174269,5408437,-104.43333,36.9,NEW MEXICO,RATON,3587740
1174268,5408436,-104.01666999999999,36.1,NEW MEXICO,ROY,3587743
1174267,5408435,-103.78333,36.15,NEW MEXICO,GLADSTONE,3588424
1174266,5408434,-104.13333,36.43333,NEW MEXICO,FARLEY,3588422
1174265,5408433,-106.03333,34.58333,NEW MEXICO,WILLARD,3587063
85741,517705,-104.2431,32.3933,NEW MEXICO,CARLSBAD,3588220
1174271,5408439,-102.96667,35.76667,NEW MEXICO,AMISTAD,
5510,32142,-103.3727,36.1703,NEW MEXICO,HAYDEN,3588415
85788,517992,-106.0,35.63,NEW MEXICO,AGUA FRIA,3587507
10502,58386,-105.5,32.77,NEW MEXICO,WEED,3588354
1151240,5355645,-103.25,34.25,NEW MEXICO,PORTALES,3588130
1151240,5355644,-103.13333,34.21667,NEW MEXICO,ARCH,3588130
1151239,5355643,-103.76666999999999,34.78333,NEW MEXICO,RAGLAND,3588427
1151238,5355642,-103.13333,36.8,NEW MEXICO,SENECA,3588419
1151238,5355642,-103.05,36.7,NEW MEXICO,SENECA,3588415
1151238,5355641,-103.43333,36.73333,NEW MEXICO,GRENVILLE,3588424
1151237,5355640,-105.88333,35.5,NEW MEXICO,LAMY,3587540
1151236,5355639,-103.18333,36.45,NEW MEXICO,CLAYTON,3588415
5543,32512,-105.68,35.57,NEW MEXICO,PECOS,3587552
1151236,5355638,-104.0,36.75,NEW MEXICO,CAPULIN,3588414
1210378,5510497,-103.1,33.6,NEW MEXICO,CROSSROADS,3588125
1210385,5510599,-103.1833,32.11667,NEW MEXICO,JAL,3588252
1210385,5510600,-104.3667,32.21667,NEW MEXICO,WHITES CITY,3588220
1174272,5408440,-103.83333,36.76667,NEW MEXICO,DES MOINES,3588418
77199,466203,-105.6,33.33,NEW MEXICO,RUIDOSO DOWNS,3588346
10500,58385,-105.55,32.78,NEW MEXICO,SACRAMENTO,3588354
1212343,5510842,-106.3167,35.85,NEW MEXICO,LOS ALAMOS,3587544
1114330,5244402,-103.9,36.15,NEW MEXICO,YATES,3587743
1114330,5244400,-104.58333,36.4,NEW MEXICO,SPRINGER,3587747
1209828,5506937,-103.2667,36.73333,NEW MEXICO,SENECA,3588419
1209828,5506936,-103.7667,36.95,NEW MEXICO,FOLSOM,3588419
1209827,5506935,-105.7333,36.53333,NEW MEXICO,TAOS,3587577
1209826,5506933,-105.1333,36.18333,NEW MEXICO,OCATE,3587734
1209824,5506930,-105.7333,36.53333,NEW MEXICO,TAOS,3587577
1209823,5506929,-103.65,34.0,NEW MEXICO,ELIDA,3588116
1209829,5506938,-103.7333,35.16667,NEW MEXICO,TUCUMCARI,3588401
1209823,5506928,-103.9,33.8,NEW MEXICO,ELKINS,3588116
1209821,5506926,-105.8,35.56667,NEW MEXICO,SANTA FE,3587535
1209820,5506925,-105.2333,36.08333,NEW MEXICO,GUADALUPITA,3587722
1209820,5506924,-105.0667,36.1,NEW MEXICO,OJO FELIZ,3587734
1209819,5506923,-103.3333,34.18333,NEW MEXICO,PORTALES,3588130
1209819,5506922,-103.1333,34.11667,NEW MEXICO,ARCH,3588130
89357,538200,-104.32,34.48,NEW MEXICO,FT SUMNER,3588119
1209822,5506927,-104.6833,33.96667,NEW MEXICO,DUNLAP,3588201
89357,538198,-103.69,35.69,NEW MEXICO,MOSQUERO,3587733
89357,538197,-104.49,35.46,NEW MEXICO,TREMENTINA,3587746
89357,538195,-103.95,35.77,NEW MEXICO,MOSQUERO,3587733
89215,537554,-104.5,33.11,NEW MEXICO,GREENFIELD,3588232
89357,538173,-107.61,36.81,NEW MEXICO,NAVAJO DAM,3587419
89357,538176,-107.0,36.93,NEW MEXICO,DULCE,3587528
89357,538178,-105.2,34.6,NEW MEXICO,VAUGHN,3588353
89357,538180,-107.0,36.94,NEW MEXICO,DULCE,3587528
89357,538186,-103.81,35.79,NEW MEXICO,MOSQUERO,3587733
89357,538189,-107.0,36.94,NEW MEXICO,DULCE,3587528
61797,369691,-105.26100000000001,32.94,NEW MEXICO,ELK,3588339
61797,369692,-105.2396,32.8902,NEW MEXICO,DUNKEN,3588250
61797,369693,-104.9806,32.9942,NEW MEXICO,DUNKEN,3588203
61797,369694,-104.3355,33.0,NEW MEXICO,LAKE ARTHUR,3588253
61797,369695,-104.5547,33.38,NEW MEXICO,ROSWELL,3588203
61797,369696,-104.5077,33.3698,NEW MEXICO,ROSWELL,3588203
89357,538192,-106.73,36.89,NEW MEXICO,MONERO,3587520
89357,538194,-103.94,35.78,NEW MEXICO,MOSQUERO,3587733
89357,538201,-104.24,34.48,NEW MEXICO,FT SUMNER,3588119
89131,537302,-105.2,34.6,NEW MEXICO,VAUGHN,3588353
89357,538202,-104.24,34.48,NEW MEXICO,FT SUMNER,3588119
89357,538204,-103.63,34.43,NEW MEXICO,MELROSE,3588124
1167693,5391456,-105.18333,32.8,NEW MEXICO,DUNKEN,3588250
1167691,5391453,-103.2,34.4,NEW MEXICO,CLOVIS,3588101
1098946,5165364,-104.7,36.01667,NEW MEXICO,WAGON MOUND,3587752
1098949,5165333,-103.33333,34.1,NEW MEXICO,SAN JON,3588130
1098950,5165334,-103.31667,34.5,NEW MEXICO,RANCHVALE,3588101
1098951,5165335,-103.65,33.93333,NEW MEXICO,ELIDA,3588116
1098944,5165362,-106.56667,35.08333,NEW MEXICO,ALBUQUERQUE,3587108
1098955,5165341,-105.33333,35.96667,NEW MEXICO,MORA,3587732
1098956,5164161,-103.06667,36.71667,NEW MEXICO,MOSES,3588419
1098956,5164162,-103.36667,36.3,NEW MEXICO,CLAYTON,3588415
1098956,5165342,-104.58333,36.36667,NEW MEXICO,RATON,3587747
1167691,5391452,-103.31667,34.38333,NEW MEXICO,CANNON AFB,3588103
1098956,5165342,-104.43333,36.9,NEW MEXICO,RATON,3587740
1098957,5164163,-103.05,34.2,NEW MEXICO,GLENRIO,3588130
1098956,5164160,-103.7,36.66667,NEW MEXICO,DES MOINES,3588418
1167694,5391457,-104.61667,33.2,NEW MEXICO,DEXTER,3588230
1167694,5391458,-104.36667,33.2,NEW MEXICO,DEXTER,3588230
1098944,5165361,-106.56667,35.08333,NEW MEXICO,ALBUQUERQUE,3587108
89357,538581,-106.8129,36.9028,NEW MEXICO,MONERO,3587520
89357,538581,-106.7759,36.9167,NEW MEXICO,MONERO,3587520
61906,370212,-103.6585,32.12,NEW MEXICO,JAL,3588252
61906,370213,-103.4689,33.52,NEW MEXICO,CROSSROADS,3588114
61906,370215,-103.33,33.52,NEW MEXICO,CROSSROADS,3588267
61906,370216,-103.2686,33.4688,NEW MEXICO,CROSSROADS,3588267
61906,370217,-103.2073,33.4177,NEW MEXICO,CROSSROADS,3588267
16127,92803,-103.5042,33.5594,NEW MEXICO,BOAZ,3588114
6639,38585,-104.37,32.63,NEW MEXICO,LAKEWOOD,3588254
1155369,5366449,-105.73333000000001,32.88333,NEW MEXICO,CLOUDCROFT,3588317
1155367,5366382,-106.95,32.55,NEW MEXICO,RADIUM SPGS,3587940
1098938,5165353,-106.9,34.3,NEW MEXICO,SAN ACACIA,
1098940,5165355,-106.9,34.15,NEW MEXICO,LEMITAR,3587823
1098941,5165356,-107.56667,35.05,NEW MEXICO,ACOMITA,3587034
1098943,5165359,-106.05,35.0,NEW MEXICO,MORIARTY,3587035
89357,538203,-104.25,34.48,NEW MEXICO,FT SUMNER,3588119
89131,537301,-104.46,33.5,NEW MEXICO,ROSWELL,3588201
89131,537300,-104.63,34.9,NEW MEXICO,SANTA ROSA MUNI ARPT,3588435
89131,537299,-104.39,34.14,NEW MEXICO,DUNLAP,3588119
15905,91263,-104.2,35.37,NEW MEXICO,CONCHAS DAM,3588416
15905,91264,-104.19,35.4,NEW MEXICO,CONCHAS DAM,
15905,91265,-103.79,35.22,NEW MEXICO,TUCUMCARI,3588401
15905,91267,-103.73,35.24,NEW MEXICO,TRIGG RANCH,3588401
15905,91268,-103.16,35.66,NEW MEXICO,NARA VISA,3588430
15905,91881,-103.728,35.302,NEW MEXICO,TRIGG RANCH,
1174486,5408741,-105.63333,33.05,NEW MEXICO,CLOUDCROFT,3588340
15905,91881,-103.73,35.3,NEW MEXICO,TRIGG RANCH,
15905,92474,-105.057,33.3903,NEW MEXICO,RIVERSIDE,3588351
15905,99061,-105.17,35.29,NEW MEXICO,TECOLOTITO,3587701
15905,99061,-105.18,35.29,NEW MEXICO,TECOLOTITO,3587701
88733,536841,-105.12,36.06,NEW MEXICO,OJO FELIZ,3587735
88733,536840,-105.12,36.06,NEW MEXICO,OJO FELIZ,3587735
88732,535080,-104.9,36.51,NEW MEXICO,CIMARRON,3587714
15905,92474,-105.06,33.39,NEW MEXICO,SUNSET,3588351
15905,91263,-104.19,35.4,NEW MEXICO,CONCHAS DAM,
1174486,5408742,-105.63333,33.0,NEW MEXICO,CLOUDCROFT,3588317
15905,91262,-105.7,36.17,NEW MEXICO,PENASCO,3587553
15905,91251,-105.94,35.18,NEW MEXICO,STANLEY,3587056
15905,91251,-105.85,35.25,NEW MEXICO,WHITE LAKES,
15905,91250,-106.28,35.89,NEW MEXICO,(LAM)LOS ALAMOS AIRPORT,3587544
15905,91252,-105.94,35.13,NEW MEXICO,STANLEY,3587056
15905,91253,-106.21,35.8,NEW MEXICO,(SAF)SANTA FE MUNI AIRPORT,3587544
15905,91255,-106.32,35.89,NEW MEXICO,LOS ALAMOS,3587544
15905,91256,-105.36,35.27,NEW MEXICO,VILLANUEVA,3587560
15905,91257,-106.27,35.78,NEW MEXICO,FRIJOLES,3587041
15905,91258,-105.744,33.3522,NEW MEXICO,RUIDOSO,3588340
15905,91259,-106.06,36.01,NEW MEXICO,SANCTUARIO,3587532
15905,91259,-106.05,36.0,NEW MEXICO,SANCTUARIO,3587532
15905,91260,-106.0389,36.0602,NEW MEXICO,ESPANOLA,3587566
15905,91260,-106.0674,35.9902,NEW MEXICO,ESPANOLA,3587532
15905,91261,-105.54,33.47,NEW MEXICO,(SRR)SIERRA BLANCA REG AIRPORT,3588312
15905,91262,-105.72,36.19,NEW MEXICO,PICURIS PUEBLO,3587553
88732,535079,-104.91,36.51,NEW MEXICO,CIMARRON,3587714
15948,91724,-104.61,34.44,NEW MEXICO,YESO,3588136
15948,91725,-103.9,36.0776,NEW MEXICO,YATES,3587743
15948,91726,-103.4334,36.1188,NEW MEXICO,CLAPHAM,3588415
15957,91796,-104.38,32.18,NEW MEXICO,WHITES CITY,3588220
15957,91797,-103.66,32.77,NEW MEXICO,MALJAMAR,3588240
15957,91798,-103.16,32.76,NEW MEXICO,HOBBS IND ARPT,3588242
15957,91799,-103.31,33.03,NEW MEXICO,MC DONALD,3588260
15957,91800,-103.3104,33.0102,NEW MEXICO,LOVINGTON,3588260
15959,91813,-103.11200000000001,33.304,NEW MEXICO,MC DONALD,3588267
15970,91872,-103.32,33.26,NEW MEXICO,TATUM,3588267
56754,340080,-103.42,34.18,NEW MEXICO,PORTALES ARPT,3588130
56754,340082,-103.09,35.18,NEW MEXICO,GLENRIO,3588411
56754,340083,-103.34,34.18,NEW MEXICO,PORTALES,3588130
5353,31186,-104.58,36.3628,NEW MEXICO,SPRINGER,3587747
89131,537295,-104.24,34.47,NEW MEXICO,FT SUMNER,3588119
89131,537296,-104.24,34.48,NEW MEXICO,FT SUMNER,3588119
89131,537297,-104.44,34.18,NEW MEXICO,DUNLAP,3588119
89131,537298,-104.68,34.94,NEW MEXICO,SANTA ROSA,3588435
15956,91794,-104.23,32.3476,NEW MEXICO,CARLSBAD,3588220
1098958,5164247,-104.9,36.51667,NEW MEXICO,CIMARRON,3587714
15956,91793,-104.74,32.82,NEW MEXICO,HOPE,3588250
15956,91791,-104.37,32.1266,NEW MEXICO,WHITES CITY,3588220
15948,91727,-103.3562,36.3114,NEW MEXICO,THOMAS,3588415
15948,91731,-103.7502,34.7799,NEW MEXICO,RAGLAND,3588427
15948,91732,-103.6,34.79,NEW MEXICO,FORREST,3588124
15948,91733,-103.84,34.65,NEW MEXICO,HOUSE,3588121
15948,91735,-103.43,34.8,NEW MEXICO,CAMERON,3588124
15948,91737,-103.7177,33.83,NEW MEXICO,KENNA,3588116
15948,91738,-103.7539,33.8355,NEW MEXICO,KENNA,3588116
15948,91742,-103.21,34.82,NEW MEXICO,BROADVIEW,3588112
15948,91743,-103.7117,33.8788,NEW MEXICO,ELIDA,3588116
15948,91745,-103.33,33.8866,NEW MEXICO,DORA,3588132
15948,91750,-103.3321,35.2363,NEW MEXICO,LOGAN,3588434
56698,339713,-104.61,34.0203,NEW MEXICO,YESO,3588119
15956,91789,-104.3513,32.5223,NEW MEXICO,CARLSBAD,3588220
56754,340079,-103.34,34.18,NEW MEXICO,PORTALES,3588130
15956,91790,-104.38,32.1,NEW MEXICO,WHITES CITY,3588220
15956,91792,-104.38,32.18,NEW MEXICO,WHITES CITY,3588220
1114330,5244401,-104.11667,35.88333,NEW MEXICO,ROY,3587743
1098958,5164247,-104.9,36.53333,NEW MEXICO,CIMARRON,
1098959,5164248,-103.76666999999999,36.95,NEW MEXICO,FOLSOM,3588419
16568,96069,-103.97,36.3724,NEW MEXICO,GLADSTONE,3588422
79375,476172,-106.14,35.06,NEW MEXICO,EDGEWOOD,3587015
62016,370968,-104.4853,32.9016,NEW MEXICO,ARTESIA,3588210
62016,374389,-104.3604,32.9102,NEW MEXICO,ARTESIA,3588210
62016,374390,-104.3756,32.8505,NEW MEXICO,ARTESIA,3588210
62016,374391,-104.3604,32.9102,NEW MEXICO,ARTESIA,3588210
16568,95972,-103.18,36.479,NEW MEXICO,CLAYTON,3588415
62016,374393,-103.13,32.6276,NEW MEXICO,HOBBS,3588240
62016,374395,-103.1472,32.7,NEW MEXICO,HOBBS,3588240
62016,374396,-103.13,32.6855,NEW MEXICO,HOBBS,3588240
62016,374397,-103.1472,32.7,NEW MEXICO,HOBBS,3588240
62016,374398,-103.12,32.6724,NEW MEXICO,NADINE,3588240
68611,412880,-104.4,32.83,NEW MEXICO,ARTESIA,3588210
68611,413312,-104.3756,32.8505,NEW MEXICO,ARTESIA,3588210
62016,374394,-103.13,32.7,NEW MEXICO,HOBBS,3588240
16568,95615,-104.44,36.89,NEW MEXICO,RATON,3587740
16568,95614,-103.35,34.18,NEW MEXICO,PORTALES,3588130
1122149,5264982,-108.26666999999999,32.76667,NEW MEXICO,SILVER CITY,3588061
5275,30858,-104.4992,37.0336,NEW MEXICO,RATON,
55039,330776,-104.2,35.94,NEW MEXICO,ROY,3587743
55039,330775,-104.32,36.08,NEW MEXICO,MILLS,3587730
5243,30770,-105.2,34.6,NEW MEXICO,VAUGHN,3588353
5243,30769,-105.38,33.5,NEW MEXICO,LINCOLN,3588338
5242,30767,-104.43,36.9,NEW MEXICO,RATON,3587740
5240,30765,-105.8796,35.8109,NEW MEXICO,TESUQUE,3587501
16568,95607,-104.44,36.89,NEW MEXICO,RATON,3587740
16568,95608,-105.22,35.6,NEW MEXICO,LAS VEGAS,3587701
16568,95609,-103.9,36.06,NEW MEXICO,YATES,3587743
16568,95610,-105.06,35.16,NEW MEXICO,LLANO DEL MEDIO,3588435
16568,95611,-103.9,35.98,NEW MEXICO,ALBERT,3587743
16568,95612,-103.25,33.79,NEW MEXICO,GARRISON,3588132
16568,95613,-103.98,34.43,NEW MEXICO,TAIBAN,3588134
5240,30764,-104.43,36.7554,NEW MEXICO,RATON,3587740
84167,508036,-104.64,34.94,NEW MEXICO,SANTA ROSA MUNI ARPT,3588435
5275,30859,-105.2,35.98,NEW MEXICO,RAINSVILLE,3587736
68611,413313,-104.1815,32.3791,NEW MEXICO,CARLSBAD,3588220
68611,413315,-103.35,33.0747,NEW MEXICO,LOVINGTON,3588260
84167,508267,-103.33,35.11,NEW MEXICO,SAN JON,3588434
1114328,5244306,-104.86667,34.23333,NEW MEXICO,YESO,3588119
1114329,5244388,-104.9,36.51667,NEW MEXICO,CIMARRON,3587714
1114329,5244389,-104.9,36.51667,NEW MEXICO,CIMARRON,3587714
1114330,5244390,-105.38333,36.03333,NEW MEXICO,HOLMAN,3587723
1114330,5244391,-104.0,36.75,NEW MEXICO,CAPULIN,3588414
84167,508264,-103.33,35.11,NEW MEXICO,SAN JON,3588434
1114330,5244392,-104.0,36.75,NEW MEXICO,CAPULIN,3588414
1114330,5244394,-104.26666999999999,36.21667,NEW MEXICO,ABBOTT,3587730
1114330,5244395,-104.25,36.23333,NEW MEXICO,MILLS,3587747
1114330,5244396,-104.21667,36.33333,NEW MEXICO,ABBOTT,3587747
1114330,5244397,-103.85,36.4,NEW MEXICO,GRENVILLE,3588424
1114330,5244398,-104.26666999999999,36.21667,NEW MEXICO,ABBOTT,3587730
1114330,5244399,-104.25,36.23333,NEW MEXICO,MILLS,3587747
1114330,5244393,-103.18333,36.88333,NEW MEXICO,CLAYTON,3588419
1114327,5244305,-105.23333000000001,35.51667,NEW MEXICO,ROMEROVILLE,3587701
1114327,5244304,-105.21667,35.75,NEW MEXICO,LAS VEGAS,3587745
1114327,5244304,-105.21667,35.66667,NEW MEXICO,LAS VEGAS,3587701
68611,413403,-104.4,32.8155,NEW MEXICO,ARTESIA,3588210
16645,95975,-105.5562,36.3733,NEW MEXICO,TAOS,3587571
68611,413404,-104.3802,32.8701,NEW MEXICO,ARTESIA,3588210
68611,413405,-104.4,32.83,NEW MEXICO,ARTESIA,3588210
84167,508258,-104.91,35.85,NEW MEXICO,VALMORA,3587753
84167,508260,-104.26,35.17,NEW MEXICO,NEWKIRK,3588431
16645,95976,-106.33,35.15,NEW MEXICO,SANDIA PARK,3587047
16647,95979,-105.088,36.2107,NEW MEXICO,OCATE,3587734
16647,95980,-105.088,36.2107,NEW MEXICO,OCATE,3587734
16647,95982,-105.12,36.07,NEW MEXICO,OJO FELIZ,3587735
16647,95983,-105.1,36.57,NEW MEXICO,UTE PARK,3587749
16648,95986,-103.73,35.2424,NEW MEXICO,TUCUMCARI,3588401
16649,95997,-103.2,34.5737,NEW MEXICO,CLOVIS,3588101
90869,544831,-108.288,32.8464,NEW MEXICO,PINOS ALTOS,3588061
84167,508261,-104.06,35.13,NEW MEXICO,MONTOYA,3588401
68611,413314,-104.4,32.7721,NEW MEXICO,ARTESIA,3588210
5275,30860,-105.57,33.33,NEW MEXICO,RUIDOSO DOWNS,3588346
16482,95303,-103.18,36.45,NEW MEXICO,CLAYTON,3588415
16482,95302,-103.18,36.54,NEW MEXICO,CLAYTON,3588415
68096,408533,-105.75,35.65,NEW MEXICO,GLORIETA,3587535
68096,408535,-103.93,33.73,NEW MEXICO,BOAZ,3588201
68096,408536,-103.32,35.26,NEW MEXICO,PORTER,3588434
68096,408538,-103.6,34.79,NEW MEXICO,FORREST,3588124
68096,408587,-106.2974,35.9002,NEW MEXICO,LOS ALAMOS,3587544
68096,408836,-106.27,35.88,NEW MEXICO,(LAM)LOS ALAMOS AIRPORT,3587544
16193,93221,-103.7696,34.3097,NEW MEXICO,KRIDER,3588118
68096,410374,-105.6684,35.63,NEW MEXICO,GLORIETA,3587552
68096,411544,-107.896,36.6888,NEW MEXICO,BLANCO,3587413
89576,539441,-103.77,35.19,NEW MEXICO,TUCUMCARI,3588401
67768,406472,-103.93,33.73,NEW MEXICO,BOAZ,3588201
55566,333335,-108.2109,36.7436,NEW MEXICO,(FMN)FARMINGTON AIRPORT,3587401
61661,370114,-103.13,32.7724,NEW MEXICO,HOBBS,3588242
61661,369133,-103.13,32.7,NEW MEXICO,HOBBS,3588240
68096,410374,-105.579,35.6716,NEW MEXICO,GLORIETA,3587552
16193,93220,-104.23,34.3108,NEW MEXICO,FT SUMNER,3588119
68096,408532,-105.84,35.56,NEW MEXICO,CANADA DE LOS ALAMOS,3587505
68096,408531,-105.9,35.54,NEW MEXICO,LAMY,3587508
6761,39104,-104.52,33.4234,NEW MEXICO,ROSWELL,3588201
83802,505935,-106.3151,34.6295,NEW MEXICO,MANZANO,3587036
5373,31326,-106.43,35.45,NEW MEXICO,ALGODONES,3587001
5373,31327,-106.43,35.45,NEW MEXICO,ALGODONES,3587001
5373,31328,-106.57,35.08,NEW MEXICO,ALBUQUERQUE,3587108
1155366,5366381,-105.38333,32.58333,NEW MEXICO,PINON,3588344
1155365,5366380,-107.58333,32.91667,NEW MEXICO,HILLSBORO,3588042
1155360,5366374,-105.58333,33.3,NEW MEXICO,MESCALERO,3588340
1167691,5391449,-103.2,34.46667,NEW MEXICO,CLOVIS,3588101
1167691,5391448,-103.08333,34.51667,NEW MEXICO,PLEASANT HILL,3588135
68096,408526,-106.31,35.89,NEW MEXICO,LOS ALAMOS,3587544
68096,408527,-106.31,35.89,NEW MEXICO,LOS ALAMOS,3587544
1123585,5269697,-103.35,32.93333,NEW MEXICO,LOVINGTON,3588260
68096,408529,-106.08,35.72,NEW MEXICO,AGUA FRIA,3587506
68096,408530,-105.95,35.5,NEW MEXICO,LAMY,3587508
61661,369132,-103.13,32.7,NEW MEXICO,HOBBS,3588240
55498,332898,-103.63,34.43,NEW MEXICO,MELROSE,3588124
61661,369130,-103.18,32.149,NEW MEXICO,JAL,3588252
61661,369115,-104.4363,32.594,NEW MEXICO,CARLSBAD,3588254
86198,521685,-106.58,36.89,NEW MEXICO,CHAMA,3587520
86197,521453,-107.02,36.07,NEW MEXICO,LA JARA,3587013
86197,521440,-103.13,36.14,NEW MEXICO,SEDAN,3588436
1095099,5144094,-104.16667,34.4,NEW MEXICO,FT SUMNER,3588119
1095098,5144093,-103.73333000000001,35.16667,NEW MEXICO,TUCUMCARI,3588401
1095097,5144092,-104.75,34.88333,NEW MEXICO,SANTA ROSA,3588435
1095096,5144091,-103.6,35.18333,NEW MEXICO,TUCUMCARI ARPT,3588401
6393,37151,-106.78,32.32,NEW MEXICO,LAS CRUCES,3588001
6393,37147,-107.93,32.25,NEW MEXICO,TUNIS,3588030
6393,37130,-107.65,31.83,NEW MEXICO,COLUMBUS,3588029
6393,37127,-108.12,32.7,NEW MEXICO,HURLEY,3588043
6393,37109,-108.2943,32.7904,NEW MEXICO,SILVER CITY,3588061
64515,386045,-106.037,35.619,NEW MEXICO,AGUA FRIA,3587507
64515,386045,-106.0362,35.6205,NEW MEXICO,AGUA FRIA,3587507
16482,95155,-104.41,35.03,NEW MEXICO,CUERVO,3588417
55191,331566,-106.7596,31.8677,NEW MEXICO,STRAUSS,3588008
1167691,5391451,-103.31667,34.38333,NEW MEXICO,CANNON AFB,3588103
55191,331566,-106.7524,31.8677,NEW MEXICO,STRAUSS,3588008
16380,95146,-103.33,35.11,NEW MEXICO,LESBIA,3588434
1112072,5236677,-103.75,33.35,NEW MEXICO,CAPROCK,3588267
1112071,5236676,-104.23333000000001,32.33333,NEW MEXICO,CARLSBAD,3588220
1112071,5236675,-104.23333000000001,32.33333,NEW MEXICO,CARLSBAD,3588220
61661,369114,-104.3513,32.5223,NEW MEXICO,CARLSBAD,3588220
61661,369001,-104.4242,32.5838,NEW MEXICO,CARLSBAD,3588254
61661,369000,-104.07,32.22,NEW MEXICO,MALAGA,3588263
86559,522294,-105.14,36.28,NEW MEXICO,BLACK LAKE,
86559,522295,-105.93,35.7,NEW MEXICO,SANTA FE,3587501
86559,522296,-105.25,33.68,NEW MEXICO,PINE LODGE,3588316
86567,522492,-105.06,35.18,NEW MEXICO,DILIA,3587724
86567,522494,-104.97,34.76,NEW MEXICO,PASTURA,3588435
5384,31467,-104.4,32.83,NEW MEXICO,ARTESIA,3588210
16380,94575,-103.07,36.9126,NEW MEXICO,MOSES,3588419
16380,94576,-105.38,33.49,NEW MEXICO,LINCOLN,3588338
16380,94593,-103.3562,36.3114,NEW MEXICO,THOMAS,3588415
55199,331577,-108.1302,32.6978,NEW MEXICO,HURLEY,3588043
1212343,5510843,-106.3167,35.88333,NEW MEXICO,LOS ALAMOS,3587544
1212344,5510844,-105.55,35.56667,NEW MEXICO,MINERAL HILL,3587552
1212344,5510845,-105.6833,35.81667,NEW MEXICO,PECOS,3587573
7627,43764,-105.12,36.07,NEW MEXICO,OJO FELIZ,3587735
7627,43765,-105.12,36.07,NEW MEXICO,OJO FELIZ,3587735
84547,510986,-104.11,35.79,NEW MEXICO,SOLANO,3587743
73492,444471,-103.4365,35.1246,NEW MEXICO,(TCC)TUCUMCARI ARPT,3588434
84547,510988,-103.9216,35.8002,NEW MEXICO,SOLANO,3587733
84547,510990,-103.1608,34.434,NEW MEXICO,CLOVIS,3588101
7627,43763,-103.9,36.85,NEW MEXICO,FOLSOM,3588419
84547,510991,-103.94,35.8,NEW MEXICO,MOSQUERO,3587733
84547,510994,-103.2148,34.4491,NEW MEXICO,CLOVIS,3588101
84547,510995,-103.05,34.37,NEW MEXICO,TEXICO,3588135
84547,510996,-103.28,33.74,NEW MEXICO,PEP,3588125
84547,511709,-104.22,36.51,NEW MEXICO,ABBOTT,3587740
84547,511709,-104.2057,36.5055,NEW MEXICO,ABBOTT,3587740
1121361,5262836,-104.68333,34.93333,NEW MEXICO,SANTA ROSA,3588435
84547,510992,-103.1082,34.3896,NEW MEXICO,(CVN)CLOVIS MUNI AIRPORT,3588101
7627,43762,-105.4,35.62,NEW MEXICO,MINERAL HILL,3587701
84547,510982,-103.89,34.63,NEW MEXICO,HOUSE,3588121
84547,510981,-104.54,36.54,NEW MEXICO,MAXWELL,3587728
73492,444442,-103.32,35.26,NEW MEXICO,PORTER,3588434
73492,444443,-103.31,35.21,NEW MEXICO,PORTER,3588434
1212637,5511627,-107.1667,33.05,NEW MEXICO,TRUTH OR CONSEQUENCES,3587901
73492,444444,-103.26,35.19,NEW MEXICO,PORTER,3588411
73492,444445,-103.25,35.13,NEW MEXICO,BARD,3588411
1119822,5258603,-104.18333,35.36667,NEW MEXICO,CONCHAS DAM,3588416
1119822,5258525,-103.41667,35.36667,NEW MEXICO,LOGAN,3588426
1119817,5258519,-103.61667,35.16667,NEW MEXICO,TUCUMCARI,3588401
73492,444446,-103.21,35.13,NEW MEXICO,BARD,3588411
73492,444447,-103.05,34.39,NEW MEXICO,TEXICO,3588135
1212701,5514986,-104.2333,32.41667,NEW MEXICO,CARLSBAD,3588220
1212706,5515008,-103.1333,32.68333,NEW MEXICO,HOBBS,3588240
84547,510978,-104.91,36.51,NEW MEXICO,CIMARRON,3587714
84547,510979,-104.91,36.51,NEW MEXICO,CIMARRON,3587714
84547,510980,-104.59,36.57,NEW MEXICO,MAXWELL,3587728
84547,511715,-103.335,34.4876,NEW MEXICO,RANCHVALE,3588101
73492,444441,-103.38,35.45,NEW MEXICO,LOGAN,3588426
4006,22328,-103.13,32.7,NEW MEXICO,HOBBS,3588240
84547,511715,-103.3139,34.4832,NEW MEXICO,RANCHVALE,3588101
73566,444994,-105.17,33.59,NEW MEXICO,ARABELA,3588351
58233,349338,-103.32,34.849000000000004,NEW MEXICO,GRADY,3588120
5948,34673,-103.13,32.7,NEW MEXICO,HOBBS,3588240
5948,34674,-103.15,32.43,NEW MEXICO,EUNICE,3588231
76069,459033,-103.51,34.96,NEW MEXICO,FORREST,3588124
76069,459032,-104.22,35.2,NEW MEXICO,NEWKIRK,3588431
76116,459048,-106.38,35.16,NEW MEXICO,SANDIA PARK,3587008
76069,458932,-104.06,35.13,NEW MEXICO,MONTOYA,3588401
76067,460396,-104.93,36.48,NEW MEXICO,CIMARRON,3587714
76067,458935,-103.17,36.45,NEW MEXICO,CLAYTON,3588415
76067,458934,-103.13,36.14,NEW MEXICO,SEDAN,3588436
18141,107912,-106.1094,32.8548,NEW MEXICO,(HMN)HOLOMAN AFB ALM,3588352
18141,107917,-106.0263,33.0708,NEW MEXICO,TULAROSA,3588352
18141,107925,-105.95700000000001,32.8692,NEW MEXICO,ALAMOGORDO,3588310
76067,460397,-104.91,36.51,NEW MEXICO,CIMARRON,3587714
76116,459050,-106.35,35.17,NEW MEXICO,SANDIA PARK,3587047
76116,459051,-106.35,35.17,NEW MEXICO,SANDIA PARK,3587047
1177879,5417412,-103.13333,32.7,NEW MEXICO,HOBBS,3588240
88125,531871,-104.23,32.42,NEW MEXICO,CARLSBAD,3588220
76175,459979,-105.95,35.76,NEW MEXICO,TESUQUE,3587506
76175,459970,-108.03,34.99,NEW MEXICO,SAN RAFAEL,3587020
76175,459968,-107.91,34.85,NEW MEXICO,SAN RAFAEL,3587020
76175,459967,-108.24,35.05,NEW MEXICO,TINAJA,3587321
76175,459430,-108.0924,35.038000000000004,NEW MEXICO,SAN RAFAEL,3587020
3975,22245,-104.9456,32.8885,NEW MEXICO,DUNKEN,3588339
76149,460272,-103.17,33.25,NEW MEXICO,GLADIOLA,3588267
76149,460271,-103.15,32.43,NEW MEXICO,EUNICE,3588231
76116,459332,-106.38,35.14,NEW MEXICO,SANDIA PARK,3587008
76116,459059,-105.45,33.69,NEW MEXICO,ENCINOSO,3588316
76116,459054,-105.67,34.31,NEW MEXICO,CEDARVALE,3588318
76116,459053,-105.67,34.31,NEW MEXICO,CEDARVALE,3588318
76116,459052,-106.36,35.17,NEW MEXICO,SANDIA PARK,3587047
1177867,5418472,-104.73333000000001,32.2,NEW MEXICO,QUEEN,3588220
76175,459980,-105.95,35.71,NEW MEXICO,SANTA FE,3587506
52782,315431,-103.13,32.7,NEW MEXICO,HOBBS,3588240
52790,315442,-103.3,32.95,NEW MEXICO,LOVINGTON,3588260
52790,315443,-103.13,32.95,NEW MEXICO,KNOWLES,3588260
7465,42893,-106.52,35.15,NEW MEXICO,CORONADO ARPT,3587111
84459,510309,-104.23,32.42,NEW MEXICO,CARLSBAD,3588220
84459,510310,-104.37,32.17,NEW MEXICO,WHITES CITY,3588220
84459,511338,-104.0907,32.4991,NEW MEXICO,AVALON,3588210
4182,23427,-104.52,33.38,NEW MEXICO,ROSWELL,3588203
76430,460854,-104.71,34.01,NEW MEXICO,DUNLAP,3588119
7465,42892,-106.5,35.09,NEW MEXICO,ALBUQUERQUE,3587112
4163,23303,-105.45,34.65,NEW MEXICO,ENCINO,3588321
4163,23301,-107.3639,34.3871,NEW MEXICO,MAGDALENA,3587825
4163,23300,-105.67,33.47,NEW MEXICO,ALTO,3588316
76397,460664,-103.2,34.41,NEW MEXICO,CLOVIS,3588101
76397,460663,-103.2,34.41,NEW MEXICO,CLOVIS,3588101
76397,460662,-103.22,34.4,NEW MEXICO,CLOVIS,3588101
76397,460661,-103.2,34.41,NEW MEXICO,CLOVIS,3588101
4163,23302,-105.45,34.7223,NEW MEXICO,ENCINO,3588321
84459,510305,-104.23,32.3187,NEW MEXICO,CARLSBAD,3588220
4182,23428,-103.33,34.18,NEW MEXICO,PORTALES,3588130
4188,23510,-104.0,36.7934,NEW MEXICO,CAPULIN,3588414
7452,42811,-107.8149,33.4662,NEW MEXICO,CHLORIDE,3587943
84459,510300,-104.2785,32.3791,NEW MEXICO,CARLSBAD,3588220
17883,103782,-104.71,36.0,NEW MEXICO,WAGON MOUND,3587752
17883,103783,-104.71,36.0,NEW MEXICO,WAGON MOUND,3587752
17883,103785,-104.77,35.9,NEW MEXICO,OPTIMO,3587752
84459,510304,-104.37,32.17,NEW MEXICO,WHITES CITY,3588220
7465,42889,-106.68,35.19,NEW MEXICO,ALAMEDA ARPT,3587114
7465,42890,-106.54,35.15,NEW MEXICO,CORONADO ARPT,3587111
4274,23961,-103.6,36.6,NEW MEXICO,GRENVILLE,3588418
76438,461031,-103.13,32.6855,NEW MEXICO,HOBBS,3588240
76438,461024,-103.13,32.729,NEW MEXICO,HOBBS,3588240
76438,461022,-103.3672,32.93,NEW MEXICO,LOVINGTON,3588260
76438,461021,-103.35,32.93,NEW MEXICO,LOVINGTON,3588260
76438,461018,-104.73,32.2,NEW MEXICO,QUEEN,3588220
76438,461017,-104.73,32.2,NEW MEXICO,QUEEN,3588220
76397,460660,-103.17,34.41,NEW MEXICO,CLOVIS,3588101
76397,460659,-103.2,34.41,NEW MEXICO,CLOVIS,3588101
76397,460658,-103.17,34.43,NEW MEXICO,CLOVIS,3588101
76397,460656,-103.18,34.43,NEW MEXICO,CLOVIS,3588101
84542,510393,-103.56,36.94,NEW MEXICO,DES MOINES,3588419
1177455,5415976,-103.5,33.93333,NEW MEXICO,ELIDA,3588116
1177456,5416039,-103.53333,33.96667,NEW MEXICO,ELIDA,3588116
1177459,5416716,-103.83333,36.76667,NEW MEXICO,DES MOINES,3588418
1177459,5416718,-103.48333000000001,36.51667,NEW MEXICO,MT DORA,3588415
1177460,5416719,-103.31667,34.1,NEW MEXICO,SAN JON,3588130
1177462,5416721,-105.26666999999999,35.53333,NEW MEXICO,ROMEROVILLE,3587701
1177463,5416722,-105.21667,33.36667,NEW MEXICO,TINNIE,3588351
1177463,5416723,-105.21667,33.36667,NEW MEXICO,TINNIE,3588351
1177463,5416723,-105.26666999999999,33.38333,NEW MEXICO,TINNIE,3588336
73492,444439,-105.01,36.16,NEW MEXICO,NARANJOS,3587734
73492,444440,-105.41,35.82,NEW MEXICO,PENDARIES,3587742
52790,315446,-103.07,32.82,NEW MEXICO,KNOWLES,3588240
52790,315445,-103.16,32.88,NEW MEXICO,KNOWLES,3588260
52790,315444,-103.13,32.88,NEW MEXICO,KNOWLES,3588260
7583,51678,-103.3199,36.5625,NEW MEXICO,CLAYTON,3588415
18141,107928,-105.9522,32.8934,NEW MEXICO,ALAMOGORDO,3588310
7583,43555,-103.2693,36.2764,NEW MEXICO,CLAYTON,3588415
7583,43554,-103.2464,36.4279,NEW MEXICO,CLAYTON,3588415
1177450,5415968,-106.56667,35.08333,NEW MEXICO,ALBUQUERQUE,3587108
1177451,5415970,-103.23333000000001,35.85,NEW MEXICO,AMISTAD,3588410
1177452,5415971,-105.2,34.6,NEW MEXICO,VAUGHN,3588353
1177452,5415972,-104.51666999999999,33.81667,NEW MEXICO,ROSWELL,3588201
1177452,5415973,-103.65,34.08333,NEW MEXICO,ELIDA,3588116
1177453,5415974,-105.23333000000001,33.35,NEW MEXICO,PICACHO,3588351
1177454,5415975,-103.73333000000001,36.3,NEW MEXICO,GLADSTONE,3588424
76397,460655,-103.18,34.43,NEW MEXICO,CLOVIS,3588101
76397,460654,-103.09,34.52,NEW MEXICO,PLEASANT HILL,3588135
73419,443680,-106.3453,33.9105,NEW MEXICO,BINGHAM,3587832
84459,511341,-103.13,32.7145,NEW MEXICO,HOBBS,3588240
84459,511352,-103.13,32.7,NEW MEXICO,HOBBS,3588240
7583,43552,-104.6003,33.98,NEW MEXICO,MESA,3588201
76254,460389,-103.5884,35.17,NEW MEXICO,TUCUMCARI,3588401
1119824,5258605,-105.85,35.6,NEW MEXICO,SANTA FE,3587505
7583,43554,-103.21600000000001,36.45,NEW MEXICO,CLAYTON,3588415
7449,42805,-105.7186,32.9208,NEW MEXICO,CLOUDCROFT,3588317
18147,106011,-106.57,35.15,NEW MEXICO,CORONADO ARPT,3587109
73566,444995,-105.289,35.0,NEW MEXICO,(CQC)CLINES CORNERS,3588435
3735,20709,-103.73,35.17,NEW MEXICO,TUCUMCARI,3588401
3735,20709,-103.7123,35.17,NEW MEXICO,TUCUMCARI,3588401
3735,20654,-103.5086,35.37,NEW MEXICO,LOGAN,3588426
3735,20653,-103.42,35.3427,NEW MEXICO,LOGAN,3588426
3735,20653,-103.4078,35.3799,NEW MEXICO,LOGAN,3588426
1121280,5263419,-104.58333,36.36667,NEW MEXICO,SPRINGER,3587747
3735,20710,-103.6946,35.17,NEW MEXICO,TUCUMCARI,3588401
95196,573019,-103.18,32.12,NEW MEXICO,JAL,3588252
95196,573024,-103.1472,32.7,NEW MEXICO,HOBBS,3588240
95200,573044,-103.35,32.93,NEW MEXICO,LOVINGTON,3588260
95200,573051,-103.32,33.13,NEW MEXICO,MC DONALD,3588262
95200,573060,-103.32,33.13,NEW MEXICO,MC DONALD,3588262
95229,572270,-108.0729,36.5869,NEW MEXICO,CARSON,3587413
95229,572270,-108.0715,36.5891,NEW MEXICO,BLOOMFIELD,3587413
95196,573022,-103.13,32.6855,NEW MEXICO,HOBBS,3588240
3735,20710,-103.68,35.2109,NEW MEXICO,TUCUMCARI,3588401
3735,20712,-104.37,33.2,NEW MEXICO,DEXTER,3588230
3735,20716,-104.5445,33.3596,NEW MEXICO,ROSWELL,3588203
3735,20728,-103.23200000000001,33.983000000000004,NEW MEXICO,ROGERS,3588132
3735,20728,-103.234,33.985,NEW MEXICO,ROGERS,3588132
3735,20727,-103.146,34.15,NEW MEXICO,ARCH,3588130
3735,20727,-103.14399999999999,34.141999999999996,NEW MEXICO,ARCH,3588130
3735,20726,-103.34700000000001,33.637,NEW MEXICO,MILNESAND,3588125
3735,20726,-103.34299999999999,33.629,NEW MEXICO,MILNESAND,3588125
3735,20725,-103.13,34.12,NEW MEXICO,ARCH,3588130
3735,20725,-103.65,33.93,NEW MEXICO,ELIDA,3588116
3735,20724,-103.2591,33.78,NEW MEXICO,LINGO,3588125
3735,20723,-103.25,33.71,NEW MEXICO,MILNESAND,3588125
3735,20722,-103.34,33.64,NEW MEXICO,MILNESAND,3588125
3735,20721,-103.3411,33.6392,NEW MEXICO,MILNESAND,3588125
3735,20720,-103.1,35.92,NEW MEXICO,AMISTAD,3588410
3735,20719,-104.24,34.48,NEW MEXICO,FT SUMNER,3588119
3735,20716,-104.52,33.38,NEW MEXICO,ROSWELL,3588203
95230,572272,-108.2,36.76,NEW MEXICO,FARMINGTON,3587401
3735,20729,-103.1641,34.3018,NEW MEXICO,CAMEO,3588130
95230,572273,-108.22,36.72,NEW MEXICO,(FMN)FARMINGTON AIRPORT,3587401
95231,572297,-106.69,34.92,NEW MEXICO,ISLETA,3587105
95256,572443,-107.28,34.12,NEW MEXICO,MAGDALENA MUNI ARPT,3587825
1104083,5160030,-106.66667,35.25,NEW MEXICO,RIO RANCHO,3587124
1104083,5160029,-106.66667,35.16667,NEW MEXICO,PARADISE HILLS,3587120
1155191,5365128,-103.21667,34.86667,NEW MEXICO,BROADVIEW,3588112
65241,390875,-105.9,35.53,NEW MEXICO,LAMY,3587508
1121267,5263327,-106.56667,35.08333,NEW MEXICO,ALBUQUERQUE,3587108
95256,572442,-107.4,33.89,NEW MEXICO,MAGDALENA MUNI ARPT,3587825
52070,310324,-103.2415,35.11,NEW MEXICO,SAN JON,3588411
15138,86181,-105.25,33.38,NEW MEXICO,HONDO,3588351
15138,86180,-106.09,34.26,NEW MEXICO,CLAUNCH,3587011
1155190,5365127,-103.2,34.4,NEW MEXICO,CLOVIS,3588101
73757,446288,-105.58,36.3,NEW MEXICO,TALPA,
73758,446289,-104.61,34.43,NEW MEXICO,YESO,3588136
73758,446290,-104.61,34.4,NEW MEXICO,YESO,3588136
15138,86182,-104.9421,33.35,NEW MEXICO,PICACHO,3588351
95254,572440,-104.38,36.96,NEW MEXICO,SUGARITE,3587740
95253,572439,-105.6075,36.4435,NEW MEXICO,TAOS,3587529
95253,572438,-105.0,36.88,NEW MEXICO,VERMEJO PARK,3587740
95231,572298,-103.66,33.94,NEW MEXICO,ELIDA,3588116
95231,572299,-103.65,33.95,NEW MEXICO,ELIDA,3588116
95231,572302,-103.84,33.78,NEW MEXICO,BOAZ,3588116
95233,572436,-103.13,33.88,NEW MEXICO,CAUSEY,3588113
1121278,5263417,-104.55,34.43333,NEW MEXICO,YESO,3588119
1121274,5263413,-104.23333000000001,34.31667,NEW MEXICO,FT SUMNER,3588119
1121273,5263412,-104.1,36.66667,NEW MEXICO,CAPULIN,3587740
1121269,5263331,-103.6,36.6,NEW MEXICO,GRENVILLE,3588418
1121268,5263330,-103.2,34.4,NEW MEXICO,CLOVIS,3588101
1121268,5263329,-103.4,34.23333,NEW MEXICO,PORTALES,3588130
1121268,5263328,-103.31667,34.36667,NEW MEXICO,CANNON AFB,3588103
1104085,5160096,-104.5,33.4,NEW MEXICO,ROSWELL,3588201
1104085,5160095,-104.51666999999999,33.38333,NEW MEXICO,ROSWELL,3588203
1104085,5160094,-104.53333,33.38333,NEW MEXICO,ROSWELL,3588203
1104084,5160093,-106.31667,35.88333,NEW MEXICO,LOS ALAMOS,3587544
95230,572275,-108.19,36.78,NEW MEXICO,FARMINGTON,3587401
3735,20729,-103.1651,34.2402,NEW MEXICO,CAMEO,3588130
3735,20730,-103.17,34.303000000000004,NEW MEXICO,CLOVIS HILLCREST ARP,3588130
3735,20730,-103.1901,34.4198,NEW MEXICO,CLOVIS,3588101
15138,86189,-104.65,33.47,NEW MEXICO,ROSWELL,3588201
15138,86188,-103.9028,35.5965,NEW MEXICO,BELL RANCH,3587746
18380,107483,-105.25,35.77,NEW MEXICO,SAPELLO,3587745
15138,86187,-104.53,33.43,NEW MEXICO,ROSWELL,3588201
15138,86186,-104.52,33.4524,NEW MEXICO,ROSWELL,3588201
15138,86185,-104.58,33.53,NEW MEXICO,POE,3588201
15138,86190,-105.01,32.98,NEW MEXICO,FLYING H RANCH,3588339
1155192,5365444,-103.65,33.93333,NEW MEXICO,ELIDA,3588116
1155192,5365443,-103.35,33.83333,NEW MEXICO,PEP,3588126
15138,86184,-104.82,33.37,NEW MEXICO,ROSWELL,3588201
15138,86183,-104.95,33.37,NEW MEXICO,RIVERSIDE,3588351
1155192,5365443,-103.33333,33.8,NEW MEXICO,PEP,3588126
1104093,5160112,-106.35,33.91667,NEW MEXICO,BINGHAM,3587832
1104092,5160111,-103.65,33.93333,NEW MEXICO,ELIDA,3588116
65241,390874,-105.9,35.54,NEW MEXICO,LAMY,3587508
15138,86191,-104.53,33.4,NEW MEXICO,ROSWELL,3588201
15138,86192,-104.62,33.37,NEW MEXICO,ROSWELL,3588203
15138,86193,-103.7,33.9,NEW MEXICO,ELIDA,3588116
73566,447244,-105.05,36.18,NEW MEXICO,OCATE,3587734
73567,444999,-103.34,34.8,NEW MEXICO,GRADY,3588120
65241,390873,-105.59,36.83,NEW MEXICO,SUNSHINE VALLEY,3587556
1155194,5365448,-105.53333,34.58333,NEW MEXICO,ENCINO,3588321
87968,530915,-104.4,32.83,NEW MEXICO,ARTESIA,3588210
1155193,5365447,-104.51666999999999,33.4,NEW MEXICO,ROSWELL,3588201
3903,21733,-104.52,33.38,NEW MEXICO,ROSWELL,3588203
3902,21731,-107.8365,35.1233,NEW MEXICO,GRANTS,3587020
3900,21727,-104.9,36.4622,NEW MEXICO,CIMARRON,3587714
3900,21723,-105.1,36.57,NEW MEXICO,UTE PARK,3587749
1155192,5365446,-103.11667,33.88333,NEW MEXICO,CAUSEY,3588113
1155192,5365445,-103.65,33.93333,NEW MEXICO,ELIDA,3588116
15139,86199,-103.6666,34.1484,NEW MEXICO,FLOYD,3588118
15138,86195,-103.64,34.14,NEW MEXICO,FLOYD,3588118
15138,86194,-103.34,33.64,NEW MEXICO,MILNESAND,3588125
1104091,5160109,-103.6,34.8,NEW MEXICO,FORREST,3588124
1104091,5160108,-103.56667,34.63333,NEW MEXICO,FIELD,3588124
1104090,5160106,-107.98333000000001,36.71667,NEW MEXICO,BLOOMFIELD,3587413
1104090,5160105,-108.18333,36.91667,NEW MEXICO,LA PLATA,3587418
75871,457957,-103.28,35.99,NEW MEXICO,HAYDEN,3588410
75871,457956,-103.56,36.94,NEW MEXICO,DES MOINES,3588419
1158099,5375447,-105.38333,35.63333,NEW MEXICO,ROMEROVILLE,3587701
1158099,5375448,-105.36667,35.26667,NEW MEXICO,VILLANUEVA,3587583
1158099,5375449,-105.5,34.93333,NEW MEXICO,CLINES CORNERS,3588321
1158099,5375450,-105.56667,34.75,NEW MEXICO,ENCINO,3587016
1158101,5375949,-104.7,36.01667,NEW MEXICO,WAGON MOUND,3587752
1158102,5375950,-105.56667,34.75,NEW MEXICO,ENCINO,3587016
1158106,5375956,-103.25,33.78333,NEW MEXICO,LINGO,3588125
1158108,5375958,-105.93333,36.7,NEW MEXICO,TIERRA AMARILLA,3587577
3746,20734,-104.5078,33.3902,NEW MEXICO,ROSWELL,3588203
3746,20733,-104.52,33.38,NEW MEXICO,ROSWELL,3588203
3746,20732,-104.52,33.38,NEW MEXICO,ROSWELL,3588203
3746,20731,-104.5322,33.3698,NEW MEXICO,ROSWELL,3588203
3746,20731,-104.53,33.3,NEW MEXICO,(ROW)ROSWELL IND AIRPORT,3588203
75871,457958,-103.94,36.04,NEW MEXICO,YATES,3587743
76067,458933,-104.91,36.51,NEW MEXICO,CIMARRON,3587714
95160,571715,-103.78,36.3,NEW MEXICO,PASAMONTE,3588424
95160,571713,-103.61,36.59,NEW MEXICO,GRENVILLE,3588424
1104090,5160104,-108.18333,36.91667,NEW MEXICO,LA PLATA,3587418
1104089,5160102,-104.35,35.06667,NEW MEXICO,NEWKIRK,3588431
1104087,5160098,-103.33333,34.18333,NEW MEXICO,PORTALES,3588130
1104086,5160097,-104.51666999999999,33.38333,NEW MEXICO,ROSWELL,3588203
95156,571700,-103.33,35.11,NEW MEXICO,SAN JON,3588434
95156,571701,-103.33,35.12,NEW MEXICO,SAN JON,3588434
95157,571703,-104.6121,36.54,NEW MEXICO,MAXWELL,3587728
95157,571704,-104.49,36.63,NEW MEXICO,MAXWELL,3587740
95158,571706,-104.5782,36.5707,NEW MEXICO,MAXWELL,3587728
95158,571707,-105.2,34.6,NEW MEXICO,VAUGHN,3588353
95159,571708,-104.59,36.45,NEW MEXICO,SPRINGER,3587747
95160,571709,-104.71,36.03,NEW MEXICO,WAGON MOUND,3587752
95160,571710,-103.83,36.76,NEW MEXICO,DES MOINES,3588418
95160,571711,-103.83,36.76,NEW MEXICO,DES MOINES,3588418
95160,571712,-103.84,36.76,NEW MEXICO,DES MOINES,3588418
95160,571714,-103.74,36.3,NEW MEXICO,PASAMONTE,3588424
7449,42805,-105.7194,32.9235,NEW MEXICO,CLOUDCROFT,3588317
7449,42804,-105.713,32.9471,NEW MEXICO,CLOUDCROFT,3588317
7443,42764,-106.95,32.4711,NEW MEXICO,RADIUM SPGS,3588007
1174238,5408113,-104.23333000000001,36.75,NEW MEXICO,RATON,3587740
1174238,5408112,-104.43333,36.9,NEW MEXICO,RATON,3587740
1174238,5408111,-104.56667,36.8,NEW MEXICO,RATON,
1174237,5408110,-104.53333,36.53333,NEW MEXICO,MAXWELL,3587747
1131612,5280886,-104.3,36.28333,NEW MEXICO,ABBOTT,3587747
1131613,5280887,-103.68333,35.98333,NEW MEXICO,BUEYEROS,3588415
1174238,5408113,-104.13333,36.65,NEW MEXICO,RATON,3587740
1131614,5280888,-103.1,35.6,NEW MEXICO,NARA VISA,3588430
1131616,5280890,-103.1,35.6,NEW MEXICO,NARA VISA,3588430
1174236,5408107,-104.68333,34.93333,NEW MEXICO,SANTA ROSA,3588435
4729,27137,-103.03,34.2523,NEW MEXICO,GLENRIO,
4729,27136,-104.3355,33.0,NEW MEXICO,LAKE ARTHUR,3588253
53367,319252,-104.1504,36.9,NEW MEXICO,RATON,3588419
17476,101077,-103.647,35.165,NEW MEXICO,(TCC)TUCUMCARI ARPT,3588401
1131615,5280889,-104.25,36.15,NEW MEXICO,MILLS,3587730
1174238,5408114,-104.0,36.75,NEW MEXICO,RATON,3588414
1174238,5408846,-104.0,36.75,NEW MEXICO,RATON,3588414
1174238,5408847,-104.0,36.11667,NEW MEXICO,RATON,3587730
1174242,5408932,-106.03333,34.58333,NEW MEXICO,WILLARD,3587063
1174241,5408931,-104.21667,36.5,NEW MEXICO,FARLEY,3587740
1168310,5392566,-103.15,32.43333,NEW MEXICO,EUNICE,3588231
1168310,5392566,-103.08333,32.43333,NEW MEXICO,EUNICE,3588231
1168311,5392567,-103.31667,33.25,NEW MEXICO,TATUM,3588267
1168311,5392568,-103.71667,33.38333,NEW MEXICO,CAPROCK,3588267
1174240,5408930,-103.76666999999999,36.13333,NEW MEXICO,GLADSTONE,3588424
1174239,5408929,-105.45,35.36667,NEW MEXICO,RIBERA,3587560
1174238,5408927,-104.43333,36.9,NEW MEXICO,HAYDEN,3587740
1174238,5408926,-104.41667,36.9,NEW MEXICO,AMISTAD,3587740
1174238,5408923,-103.33333,36.01667,NEW MEXICO,HAYDEN,3588415
1174238,5408923,-103.3,35.98333,NEW MEXICO,HAYDEN,3588415
1174238,5408922,-103.01666999999999,35.8,NEW MEXICO,ROY,
1174238,5408849,-103.26666999999999,35.96667,NEW MEXICO,CAPULIN,3588410
1174238,5408848,-103.33333,36.01667,NEW MEXICO,RATON,3588415
57878,347206,-108.2661,32.777,NEW MEXICO,SILVER CITY,3588061
1168310,5392565,-103.28333,32.98333,NEW MEXICO,LOVINGTON,3588260
57881,347218,-108.7083,31.9523,NEW MEXICO,ANIMAS,3588020
94236,566667,-107.61,36.8,NEW MEXICO,DULCE,3587419
1168313,5392660,-104.23333000000001,32.41667,NEW MEXICO,CARLSBAD,3588220
1168313,5392661,-104.4,32.36667,NEW MEXICO,CARLSBAD,3588220
1168315,5392947,-103.15,32.43333,NEW MEXICO,EUNICE,3588231
1168315,5392948,-103.28333,32.43333,NEW MEXICO,EUNICE,3588231
1168315,5392951,-103.05,32.51667,NEW MEXICO,EUNICE,
66305,397712,-105.74,32.96,NEW MEXICO,CLOUDCROFT,3588317
1168313,5392659,-104.23333000000001,32.41667,NEW MEXICO,CARLSBAD,3588220
1098186,5165165,-103.13333,32.7,NEW MEXICO,HOBBS,3588240
84394,509531,-103.92,36.91,NEW MEXICO,FOLSOM,3588419
84406,509626,-107.9709,32.1815,NEW MEXICO,TUNIS,3588030
63976,383169,-105.8615,32.0386,NEW MEXICO,DESERT,3579837
63974,383120,-106.6635,32.1025,NEW MEXICO,VADO,3588044
4520,27657,-105.1587,35.7676,NEW MEXICO,POJOAQUE,3587745
4520,25693,-105.1676,35.4607,NEW MEXICO,CERRILLOS,3587701
1098185,5165159,-104.4,32.83333,NEW MEXICO,ARTESIA,3588210
1168311,5392655,-103.71667,33.38333,NEW MEXICO,CAPROCK,3588267
57885,347234,-106.0249,33.0825,NEW MEXICO,TULAROSA,3588352
57881,347221,-107.2485,33.1262,NEW MEXICO,TRUTH OR CONSEQUENCE,3587901
94237,566672,-103.25,33.78,NEW MEXICO,PEP,3588125
94238,566676,-103.17,33.63,NEW MEXICO,MILNESAND,3588125
94238,566678,-103.11,33.92,NEW MEXICO,CAUSEY,3588113
94238,566679,-106.75,35.95,NEW MEXICO,CUBA,3587025
94238,566757,-104.03,34.64,NEW MEXICO,HOUSE,3588121
1094072,5141065,-104.01666999999999,32.28333,NEW MEXICO,LOVING,3588256
1094070,5140667,-103.31667,33.01667,NEW MEXICO,LOVINGTON,3588260
1094067,5143081,-105.36667,34.65,NEW MEXICO,ENCINO,3588321
1094067,5143080,-105.2,34.6,NEW MEXICO,VAUGHN,3588353
1094067,5143080,-105.15,34.6,NEW MEXICO,VAUGHN,3588353
1094066,5143079,-104.58333,36.43333,NEW MEXICO,SPRINGER,3587747
1094065,5141140,-105.98333000000001,35.0,NEW MEXICO,MORIARTY,3587035
94381,567504,-103.85,34.44,NEW MEXICO,TOLAR,3588124
1218328,5524976,-104.4,32.7,NEW MEXICO,ARTESIA,3588210
57881,347220,-108.6287,31.9593,NEW MEXICO,PLAYAS,3588020
17476,101077,-103.64200000000001,35.167,NEW MEXICO,(TCC)TUCUMCARI ARPT,3588401
4751,27207,-108.8,32.0078,NEW MEXICO,ANIMAS,3588020
4751,27208,-107.2248,32.32,NEW MEXICO,LAS CRUCES,
1168308,5392562,-103.33333,33.51667,NEW MEXICO,CROSSROADS,3588267
1174245,5408125,-104.58333,36.36667,NEW MEXICO,SPRINGER,3587747
1174245,5408124,-104.58333,36.43333,NEW MEXICO,SPRINGER,3587747
1174245,5408123,-104.08333,36.45,NEW MEXICO,ABBOTT,3588422
1174245,5408122,-103.15,35.83333,NEW MEXICO,AMISTAD,3588410
1174245,5408121,-103.18333,35.85,NEW MEXICO,AMISTAD,3588410
1174245,5408120,-103.48333000000001,36.2,NEW MEXICO,CLAYTON,3588415
1174246,5408126,-103.65,34.08333,NEW MEXICO,ELIDA,3588116
1174244,5408935,-103.7,36.3,NEW MEXICO,MAXWELL,3588424
94009,565369,-103.73,35.17,NEW MEXICO,TUCUMCARI,3588401
94009,565371,-103.09,34.52,NEW MEXICO,PLEASANT HILL,3588135
94009,565372,-106.57,35.16,NEW MEXICO,ALBUQUERQUE,3587109
94009,565374,-103.23,34.38,NEW MEXICO,CLOVIS,3588101
94009,565375,-103.3,34.41,NEW MEXICO,(CVS)CANNON AFB,3588101
94009,565418,-103.32,34.38,NEW MEXICO,(CVS)CANNON AFB,3588103
1111700,5234854,-103.6,36.6,NEW MEXICO,GRENVILLE,3588418
1174247,5408127,-104.58333,36.36667,NEW MEXICO,SPRINGER,3587747
1174248,5408128,-103.76666999999999,36.95,NEW MEXICO,FOLSOM,3588419
1174248,5408129,-103.83333,36.76667,NEW MEXICO,DES MOINES,3588418
1212344,5510846,-105.4,35.65,NEW MEXICO,MINERAL HILL,3587701
1212345,5510847,-103.9,36.93333,NEW MEXICO,FOLSOM,3588419
1212345,5510848,-103.7333,36.98333,NEW MEXICO,FOLSOM,3588419
1212347,5510850,-106.1667,35.05,NEW MEXICO,EDGEWOOD,3587015
93951,564874,-103.99,36.78,NEW MEXICO,CAPULIN,3588414
1212347,5510850,-106.2,35.06667,NEW MEXICO,EDGEWOOD,3587015
1212348,5510851,-105.2167,35.6,NEW MEXICO,LAS VEGAS,3587701
1212350,5510853,-104.7,36.18333,NEW MEXICO,WAGON MOUND,3587752
1212351,5510854,-104.7333,36.65,NEW MEXICO,CIMARRON,3587740
1212353,5510858,-106.6667,35.25,NEW MEXICO,RIO RANCHO,3587124
76821,463935,-106.05,34.9711,NEW MEXICO,MORIARTY,3587035
1212353,5510859,-106.5667,35.08333,NEW MEXICO,ALBUQUERQUE,3587108
1174249,5408132,-103.33333,33.95,NEW MEXICO,SAN JON,3588130
1174249,5408131,-103.21667,35.6,NEW MEXICO,NARA VISA,3588430
1174249,5408130,-103.16667,35.65,NEW MEXICO,NARA VISA,3588430
94010,565376,-103.97,34.34,NEW MEXICO,TAIBAN,3588134
94010,565377,-104.5708,33.3708,NEW MEXICO,ROSWELL,3588203
94010,565377,-104.5707,33.373000000000005,NEW MEXICO,ROSWELL,3588203
94053,565761,-103.27,33.98,NEW MEXICO,ROGERS,3588130
1174244,5408117,-104.03333,36.41667,NEW MEXICO,ABBOTT,3588422
62604,374546,-104.32700000000001,32.5019,NEW MEXICO,CARLSBAD,3588220
9731,54450,-103.2,32.7845,NEW MEXICO,HOBBS IND ARPT,3588240
85498,516447,-105.61,36.39,NEW MEXICO,RANCHITO,3587571
85498,516446,-107.52,35.09,NEW MEXICO,CUBERO,3587014
1174244,5408116,-104.53333,36.48333,NEW MEXICO,FARLEY,3587747
9453,53208,-103.22,32.68,NEW MEXICO,(HOB)HOBBS LEA CO AR,3588240
9453,53207,-103.13,32.7,NEW MEXICO,HOBBS,3588240
9453,53204,-103.13,32.8012,NEW MEXICO,HOBBS,3588242
1174244,5408115,-104.53333,36.48333,NEW MEXICO,MAXWELL,3587747
1174243,5408934,-105.4,35.45,NEW MEXICO,LAS VEGAS,3587701
1174243,5408933,-105.55,35.45,NEW MEXICO,PECOS,3587538
87005,525370,-105.57,36.52,NEW MEXICO,ARROYO SECO,3587514
87005,525371,-105.38,35.57,NEW MEXICO,SAN GERONIMO,3587701
87005,525373,-106.05,35.0,NEW MEXICO,MORIARTY,3587035
62604,374539,-104.4,32.8734,NEW MEXICO,ARTESIA,3588210
4520,25692,-105.2448,35.4687,NEW MEXICO,CERRILLOS,3587701
62604,374534,-104.4,32.6563,NEW MEXICO,ARTESIA,3588210
62590,374407,-104.54,36.54,NEW MEXICO,MAXWELL,3587728
1111696,5234841,-103.2,34.4,NEW MEXICO,CLOVIS,3588101
62547,374198,-106.64,31.85,NEW MEXICO,STRAUSS,3588008
1174244,5408119,-103.96667,36.35,NEW MEXICO,GLADSTONE,3588422
1174244,5408118,-104.08333,36.45,NEW MEXICO,GLADSTONE,3588422
62549,374201,-107.64,33.31,NEW MEXICO,CHLORIDE,3587943
94054,565762,-103.58,35.04,NEW MEXICO,(TCC)TUCUMCARI ARPT,3588401
9761,54572,-104.3569,32.6567,NEW MEXICO,LAKEWOOD,3588254
9761,54569,-104.4249,32.5838,NEW MEXICO,LAKEWOOD,3588254
9759,54758,-104.4792,32.538000000000004,NEW MEXICO,LAKEWOOD,3588220
9759,54758,-104.5603,32.5636,NEW MEXICO,LAKEWOOD,3588220
9759,54561,-104.23,32.42,NEW MEXICO,CARLSBAD,3588220
9759,54560,-104.3512,32.5222,NEW MEXICO,CARLSBAD,3588220
9759,54559,-104.4968,32.6449,NEW MEXICO,CARLSBAD,3588210
62590,374405,-104.71,36.0,NEW MEXICO,WAGON MOUND,3587752
62590,374406,-104.68,36.01,NEW MEXICO,WAGON MOUND,3587752
62604,374438,-104.37,32.17,NEW MEXICO,WHITES CITY,3588220
9415,52964,-104.37,32.63,NEW MEXICO,LAKEWOOD,3588254
9347,52507,-103.9706,35.7838,NEW MEXICO,BELL RANCH,3587746
9347,52506,-104.7,36.02,NEW MEXICO,WAGON MOUND,3587752
1150643,5354111,-103.61667,34.43333,NEW MEXICO,MELROSE,3588124
1150643,5354110,-103.93333,34.45,NEW MEXICO,TOLAR,3588124
1150643,5354109,-104.23333000000001,34.31667,NEW MEXICO,FT SUMNER,3588119
1150643,5354108,-103.63333,34.81667,NEW MEXICO,RAGLAND,3588427
4370,24621,-103.4188,33.8537,NEW MEXICO,PEP,3588126
4370,24620,-104.98,35.78,NEW MEXICO,WATROUS,3587753
1150643,5354112,-103.41667,35.36667,NEW MEXICO,LOGAN,3588426
4370,24619,-104.98,35.8957,NEW MEXICO,WATROUS,3587753
4370,24616,-105.57,33.33,NEW MEXICO,RUIDOSO DOWNS,3588346
4370,24615,-105.68,33.3734,NEW MEXICO,RUIDOSO,3588345
4370,24614,-105.57,33.33,NEW MEXICO,RUIDOSO DOWNS,3588346
4370,24614,-105.68,33.33,NEW MEXICO,RUIDOSO,3588345
94590,568778,-104.26,36.74,NEW MEXICO,RATON CREWS ARPT,3587740
4324,25215,-103.32,34.7911,NEW MEXICO,GRADY,3588120
4370,24618,-105.05,36.1511,NEW MEXICO,OCATE,3587734
4370,24623,-103.1564,33.63,NEW MEXICO,MILNESAND,3588125
4370,25212,-105.1133,36.1289,NEW MEXICO,OCATE,3587734
4370,25213,-103.67,33.9701,NEW MEXICO,ELIDA,3588116
94544,568453,-103.84,35.13,NEW MEXICO,PALOMAS,3588401
94544,568454,-103.63,34.43,NEW MEXICO,MELROSE,3588124
94544,568455,-104.0017,34.3605,NEW MEXICO,TAIBAN,3588134
94544,568456,-103.2,34.41,NEW MEXICO,CLOVIS,3588101
94544,568457,-103.49,33.84,NEW MEXICO,PEP,3588116
94544,568459,-104.13,36.37,NEW MEXICO,FARLEY,3587747
4410,25002,-103.4343,36.7329,NEW MEXICO,GRENVILLE,3588424
4372,24630,-105.4204,33.6829,NEW MEXICO,CAPITAN,3588316
4372,24629,-105.2181,33.38,NEW MEXICO,HONDO,3588351
4372,24628,-105.0536,34.1278,NEW MEXICO,RAMON,3588318
4372,24626,-105.4204,33.6829,NEW MEXICO,CAPITAN,3588316
4372,24625,-105.2,34.6,NEW MEXICO,VAUGHN,3588353
4372,24624,-106.08,35.98,NEW MEXICO,ESPANOLA,3587532
4370,25220,-105.97,36.15,NEW MEXICO,VELARDE,3587511
4370,25218,-105.97,36.15,NEW MEXICO,VELARDE,3587511
84452,509861,-104.4,32.6853,NEW MEXICO,ARTESIA,3588210
84452,509862,-104.5632,32.5,NEW MEXICO,AVALON,3588220
4312,25222,-103.6324,34.4402,NEW MEXICO,MELROSE,3588124
4312,24284,-103.33,34.18,NEW MEXICO,PORTALES,3588130
73211,442218,-104.4893,36.7801,NEW MEXICO,(RTN)RATON CREWS AIRPORT,3587740
73211,442410,-104.9453,32.8986,NEW MEXICO,DUNKEN,3588339
7408,42559,-105.2,34.6,NEW MEXICO,VAUGHN,3588353
7408,42560,-103.0635,34.2468,NEW MEXICO,GLENRIO,3588130
7432,42678,-105.4537,32.7028,NEW MEXICO,WEED,3588354
17754,102767,-103.99,36.74,NEW MEXICO,CAPULIN,3588418
7434,42702,-107.82,32.2082,NEW MEXICO,TUNIS,3588030
73245,442411,-103.38,34.15,NEW MEXICO,PORTALES ARPT,3588130
73245,442412,-103.63,34.18,NEW MEXICO,FLOYD,3588118
73245,442413,-103.37,34.17,NEW MEXICO,PORTALES,3588130
73245,442414,-103.36,34.18,NEW MEXICO,PORTALES,3588130
1118135,5254681,-106.75,32.31667,NEW MEXICO,LAS CRUCES,3588001
73245,442415,-103.16,34.63,NEW MEXICO,PLEASANT HILL,3588101
73245,442416,-103.07,34.59,NEW MEXICO,PLEASANT HILL,3588135
84459,510288,-104.4216,32.5832,NEW MEXICO,LAKEWOOD,3588254
73211,442213,-104.7231,36.6009,NEW MEXICO,MAXWELL,3587728
94544,568442,-103.2632,33.6513,NEW MEXICO,MILNESAND,3588125
73211,442212,-104.94,36.46,NEW MEXICO,CIMARRON,3587714
84452,511323,-103.4095,32.2922,NEW MEXICO,TEAGUE,3588252
4312,24283,-103.5692,34.4818,NEW MEXICO,ST VRAIN,3588124
4312,24282,-103.97,36.3723,NEW MEXICO,GLADSTONE,3588422
4312,24281,-104.0,36.75,NEW MEXICO,CAPULIN,3588414
94684,569192,-104.19,34.89,NEW MEXICO,NEWKIRK,3588435
4305,27454,-104.5078,33.3902,NEW MEXICO,ROSWELL,3588203
4305,24269,-104.52,33.38,NEW MEXICO,ROSWELL,3588203
84452,509863,-104.4728,32.6247,NEW MEXICO,CARLSBAD,3588254
84452,509865,-104.37,32.63,NEW MEXICO,LAKEWOOD,3588254
84452,509871,-104.23,32.449,NEW MEXICO,CARLSBAD,3588220
84452,509878,-103.1157,32.43,NEW MEXICO,EUNICE,3588231
84452,509907,-104.37,32.5244,NEW MEXICO,LAKEWOOD,3588220
84452,509908,-104.23,32.42,NEW MEXICO,CARLSBAD,3588220
84452,509911,-104.23,32.42,NEW MEXICO,CARLSBAD,3588220
84452,509912,-104.23,32.42,NEW MEXICO,CARLSBAD,3588220
84452,511323,-103.4672,32.2718,NEW MEXICO,TEAGUE,3588252
84452,511376,-104.23,32.449,NEW MEXICO,CARLSBAD,3588220
1155189,5365125,-103.75,36.3,NEW MEXICO,GLADSTONE,3588424
94544,568442,-103.2955,33.6867,NEW MEXICO,MILNESAND,3588125
84452,509859,-104.73,32.4605,NEW MEXICO,QUEEN,3588220
1218544,5529858,-103.1,36.51667,NEW MEXICO,CLAYTON,3588415
1218545,5529859,-104.05,33.91667,NEW MEXICO,ELKINS,3588116
1218545,5529860,-103.95,33.68333,NEW MEXICO,ELKINS,3588201
63974,383119,-106.6402,32.3035,NEW MEXICO,UNIVERSITY PARK,3588011
9347,52504,-106.85,36.23,NEW MEXICO,GALLINA,3587017
1218548,5529863,-104.4333,37.0,NEW MEXICO,RATON,
1218544,5529858,-103.05,36.55,NEW MEXICO,CLAYTON,3588415
1218549,5529864,-104.7,35.98333,NEW MEXICO,WAGON MOUND,3587752
1218552,5529867,-104.2667,36.3,NEW MEXICO,ABBOTT,3587747
1218553,5529868,-106.5667,36.9,NEW MEXICO,CHAMA,3587520
1218559,5529954,-104.5167,33.16667,NEW MEXICO,ROSWELL,3588230
9347,52503,-106.95,36.1501,NEW MEXICO,CUBA,3587027
62742,375178,-103.8876,34.6398,NEW MEXICO,HOUSE,3588121
62742,375183,-103.8648,34.65,NEW MEXICO,HOUSE,3588121
1218551,5529866,-103.05,34.38333,NEW MEXICO,TEXICO,3588135
1218544,5529857,-103.1,36.66667,NEW MEXICO,SENECA,3588419
9347,52505,-106.7,35.77,NEW MEXICO,JEMEZ SPGS,3587025
1218544,5529856,-103.8,36.93333,NEW MEXICO,FOLSOM,3588419
4520,25692,-105.2053,35.4913,NEW MEXICO,CERRILLOS,3587701
4520,25691,-106.32,35.4711,NEW MEXICO,DOMINGO,3587052
4520,25691,-106.2544,35.4779,NEW MEXICO,DOMINGO,3587052
4520,25690,-103.7368,36.3,NEW MEXICO,GLADSTONE,3588424
4520,25689,-104.58,36.37,NEW MEXICO,SPRINGER,3587747
4520,25688,-105.4927,34.9284,NEW MEXICO,(CQC)CLINES CORNERS,3588321
4520,25687,-105.2,32.8723,NEW MEXICO,DUNKEN,3588250
4520,25686,-106.0289,35.57,NEW MEXICO,LA CIENEGA,3587508
4520,25685,-106.1821,35.5423,NEW MEXICO,LA CIENEGA,3587507
4520,25684,-104.58,36.3555,NEW MEXICO,SPRINGER,3587747
4520,25681,-103.4288,34.0982,NEW MEXICO,PORTALES,3588130
4520,25679,-106.2845,35.5,NEW MEXICO,DOMINGO,3587052
4520,25675,-107.85,35.15,NEW MEXICO,GRANTS,3587020
87172,526076,-106.64,35.13,NEW MEXICO,ALBUQUERQUE,3587107
1218544,5529856,-103.5667,36.96667,NEW MEXICO,FOLSOM,3588419
63972,383117,-105.5587,32.7954,NEW MEXICO,SACRAMENTO,3588339
9347,52502,-106.4237,36.75,NEW MEXICO,BRAZOS,3587520
94458,568285,-104.44,36.89,NEW MEXICO,RATON,3587740
94458,568286,-103.92,36.85,NEW MEXICO,FOLSOM,3588419
94525,568314,-103.11,36.14,NEW MEXICO,SEDAN,3588436
94525,568315,-103.37,34.16,NEW MEXICO,PORTALES ARPT,3588130
94525,568316,-103.34,34.18,NEW MEXICO,PORTALES,3588130
94525,568317,-103.34,34.18,NEW MEXICO,PORTALES,3588130
94525,568321,-103.31,34.32,NEW MEXICO,(CVS)CANNON AFB,3588101
94525,568322,-103.3588,34.1711,NEW MEXICO,PORTALES,3588130
94525,568368,-103.07,36.48,NEW MEXICO,(CAO)CLAYTON ARPT,3588415
94525,568380,-103.22,36.28,NEW MEXICO,SEDAN,3588415
94525,568469,-103.28,36.26,NEW MEXICO,CLAPHAM,3588415
63936,382945,-107.1208,32.6672,NEW MEXICO,RODEY,3587937
63936,382944,-106.3985,32.0222,NEW MEXICO,ANTHONY,3588081
63936,382943,-107.32,32.9684,NEW MEXICO,CABALLO,3587931
63936,382942,-107.1716,32.7092,NEW MEXICO,SALEM,
84452,509857,-104.73,32.5105,NEW MEXICO,HOPE,3588220
84452,509858,-104.4,32.7142,NEW MEXICO,ARTESIA,3588210
94525,568313,-103.31,34.21,NEW MEXICO,PORTALES,3588130
84452,509860,-104.4,32.6129,NEW MEXICO,ARTESIA,3588210
94525,568288,-103.13,36.15,NEW MEXICO,SEDAN,3588436
63937,382946,-106.1444,32.7462,NEW MEXICO,(HMN)HOLOMAN AFB ALM,3588310
62743,375184,-103.2,34.41,NEW MEXICO,CLOVIS,3588101
84417,509654,-104.436,32.492,NEW MEXICO,CARLSBAD,3588220
62743,375185,-103.2,34.41,NEW MEXICO,CLOVIS,3588101
62744,375186,-105.3,35.81,NEW MEXICO,MANUELITAS,3587745
94467,568043,-103.12,32.6,NEW MEXICO,NADINE,3588240
63972,383116,-105.5814,32.7908,NEW MEXICO,SACRAMENTO,3588347
63972,383115,-105.7214,32.9216,NEW MEXICO,CONDRON ARPT,3588317
63972,383114,-105.8224,32.9529,NEW MEXICO,HIGH ROLLS,3588325
9062,51532,-105.6094,32.97,NEW MEXICO,CLOUDCROFT,3588317
63972,383113,-105.8423,32.9836,NEW MEXICO,PINTO,3588337
63972,383112,-106.0112,33.0825,NEW MEXICO,TULAROSA,3588352
63970,383111,-107.4298,33.3812,NEW MEXICO,PLACITA,3587939
1119825,5258606,-105.66667,33.46667,NEW MEXICO,ALTO,3588316
63937,382950,-106.1595,32.7747,NEW MEXICO,(HMN)HOLOMAN AFB ALM,3588310
63937,382947,-106.0757,32.42,NEW MEXICO,TURQUOISE,3588310
94525,568287,-103.31,34.39,NEW MEXICO,(CVS)CANNON AFB,3588103
17223,99671,-105.93,35.54,NEW MEXICO,SPIESS,3587508
8,7,-108.2,36.73,NEW MEXICO,FARMINGTON,3587401
120009,719141,-106.8002,32.3806,NEW MEXICO,DONA ANA,3588007
101122,605106,-106.6,32.06,NEW MEXICO,BERINO,
38278,222295,-105.21,35.42,NEW MEXICO,APACHE SPGS,3587701
101122,605105,-106.8,32.38,NEW MEXICO,DONA ANA,3588007
101121,605103,-108.37,32.56,NEW MEXICO,WHITE SIGNAL,3588061
1194682,5463138,-103.1333,33.25,NEW MEXICO,GLADIOLA,3588267
1194678,5464362,-103.1333,32.75,NEW MEXICO,HOBBS,3588240
1194678,5464362,-103.1667,32.78333,NEW MEXICO,HOBBS,3588242
38318,222593,-107.37,35.04,NEW MEXICO,LAGUNA,3587026
40240,233989,-104.48,36.78,NEW MEXICO,(RTN)RATON CREWS AIRPORT,3587740
28045,164553,-103.0579,36.63,NEW MEXICO,SENECA,3588415
101122,605107,-106.74,32.34,NEW MEXICO,(LRU)LAS CRUCES ARPT,3588011
28045,164551,-103.1997,36.4594,NEW MEXICO,CLAYTON,3588415
33328,194054,-104.56,33.37,NEW MEXICO,ROSWELL,3588203
116562,701263,-103.32,34.07,NEW MEXICO,PORTALES ARPT,3588130
116562,701260,-103.11,33.74,NEW MEXICO,LINGO,3588113
116562,701258,-103.32,33.98,NEW MEXICO,DORA,3588130
116562,701257,-103.13,33.88,NEW MEXICO,CAUSEY,3588113
116562,701254,-103.33,33.93,NEW MEXICO,DORA,3588132
116562,701044,-103.6,34.24,NEW MEXICO,FLOYD,3588118
116562,701026,-103.38,34.15,NEW MEXICO,PORTALES ARPT,3588130
116562,700915,-104.14,34.73,NEW MEXICO,FT SUMNER,3588119
116562,700913,-104.19,34.89,NEW MEXICO,NEWKIRK,3588435
28045,164549,-103.18,36.45,NEW MEXICO,CLAYTON,3588415
116562,700895,-104.26,35.07,NEW MEXICO,NEWKIRK,3588431
101122,605108,-106.75,32.32,NEW MEXICO,(LRU)LAS CRUCES ARPT,3588011
101122,605110,-106.75,32.35,NEW MEXICO,(LRU)LAS CRUCES ARPT,3588011
97882,588505,-103.78,36.91,NEW MEXICO,FOLSOM,3588419
97882,588503,-105.25,35.94,NEW MEXICO,LA CUEVA,3587712
97882,588502,-105.21,35.98,NEW MEXICO,RAINSVILLE,3587736
97882,588501,-105.9586,36.5912,NEW MEXICO,LAS TABLAS,3587577
97853,588363,-105.949,32.9765,NEW MEXICO,LA LUZ,3588337
97853,588362,-105.9453,32.9764,NEW MEXICO,LA LUZ,3588337
97853,588362,-105.9547,32.992,NEW MEXICO,LA LUZ,3588337
101135,605136,-108.22,32.87,NEW MEXICO,PINOS ALTOS,3588053
101135,605135,-108.28,32.75,NEW MEXICO,SLVR CITY TURNER ARP,3588061
101130,605128,-108.3952,32.153,NEW MEXICO,SEPAR,3588045
101122,605109,-106.8,32.33,NEW MEXICO,LAS CRUCES,3588005
101130,605128,-108.42,32.14,NEW MEXICO,SEPAR,3588045
127273,762888,-105.34,36.7,NEW MEXICO,RED RIVER,3587558
127272,762886,-103.35,34.88,NEW MEXICO,FORREST,3588120
127272,762885,-103.37,34.9,NEW MEXICO,SAN JON,3588120
127272,762884,-106.78,34.66,NEW MEXICO,BELEN,3587002
127272,762883,-105.21,35.98,NEW MEXICO,RAINSVILLE,3587736
127272,762882,-105.37,35.69,NEW MEXICO,EL PORVENIR,3587731
23608,137758,-104.43,32.85,NEW MEXICO,ILLINOIS CAMP,3588210
101122,605113,-106.74,32.34,NEW MEXICO,(LRU)LAS CRUCES ARPT,3588011
101122,605112,-106.73,32.36,NEW MEXICO,(LRU)LAS CRUCES ARPT,3588011
101122,605111,-106.73,32.33,NEW MEXICO,FT FILLMORE,3588011
101130,605127,-105.91,32.74,NEW MEXICO,VALMONT,3588310
101135,605140,-107.74,32.25,NEW MEXICO,(DMN)DEMING ARPT,3588030
116562,700892,-103.51,36.34,NEW MEXICO,MT DORA,3588424
116562,700890,-105.0,36.88,NEW MEXICO,VERMEJO PARK,3587740
100575,602686,-104.4,32.9292,NEW MEXICO,ATOKA,3588210
100575,602685,-104.4,32.77,NEW MEXICO,ATOKA,3588210
129026,773512,-103.9867,36.3788,NEW MEXICO,GLADSTONE,3588424
129026,773512,-103.99,36.38,NEW MEXICO,GLADSTONE,3588422
129026,773514,-105.34,35.77,NEW MEXICO,SAN IGNACIO,3587745
38872,225578,-103.2,34.41,NEW MEXICO,CLOVIS,3588101
1141765,5314936,-103.26666999999999,36.51667,NEW MEXICO,CLAYTON,3588415
120009,719142,-106.7706,32.3407,NEW MEXICO,(LRU)LAS CRUCES ARPT,3588001
1141765,5314935,-103.31667,36.55,NEW MEXICO,CLAYTON,3588415
38841,225300,-104.68,35.03,NEW MEXICO,SANTA ROSA,3588435
100575,602687,-104.2203,32.3801,NEW MEXICO,CARLSBAD,3588220
1190984,5456348,-104.7,35.93333,NEW MEXICO,WAGON MOUND,3587752
1141759,5314927,-103.83333,36.76667,NEW MEXICO,DES MOINES,3588418
1141759,5314926,-104.33333,36.56667,NEW MEXICO,SPRINGER,3587740
1190985,5456349,-104.1167,34.7,NEW MEXICO,FT SUMNER,3588121
1190985,5456350,-104.1,34.58333,NEW MEXICO,FT SUMNER,3588119
1190985,5456351,-104.05,34.46667,NEW MEXICO,FT SUMNER,3588119
1190985,5456352,-104.2333,34.46667,NEW MEXICO,FT SUMNER,3588119
24969,145369,-103.96,34.35,NEW MEXICO,TAIBAN,3588134
24969,145370,-103.84,34.45,NEW MEXICO,TOLAR,3588124
24969,145371,-103.86,34.65,NEW MEXICO,HOUSE,3588121
30502,178947,-103.23,34.43,NEW MEXICO,CLOVIS,3588101
1141761,5314929,-103.86667,34.4,NEW MEXICO,TOLAR,3588124
116562,700891,-103.74,36.44,NEW MEXICO,SOFIA,3588424
100575,603216,-104.2694,32.3398,NEW MEXICO,CARLSBAD,3588220
115392,692841,-105.66,33.54,NEW MEXICO,NOGAL,3588316
116562,700889,-104.48,36.78,NEW MEXICO,(RTN)RATON CREWS AIRPORT,3587740
115287,692126,-104.2431,32.4467,NEW MEXICO,CARLSBAD,3588220
115287,692127,-104.2617,32.4089,NEW MEXICO,CARLSBAD,3588220
38373,222797,-107.6537,33.3604,NEW MEXICO,WINSTON,3587943
30502,178949,-103.1825,34.41,NEW MEXICO,CLOVIS,3588101
115287,692129,-104.23,32.3766,NEW MEXICO,CARLSBAD,3588220
115287,692195,-103.75,32.5605,NEW MEXICO,MALJAMAR,3588240
115303,692226,-104.04,36.35,NEW MEXICO,FARLEY,3588422
115304,692827,-105.36,35.27,NEW MEXICO,VILLANUEVA,3587560
115304,692828,-105.4377,35.0351,NEW MEXICO,AURORA,3588321
100575,603217,-104.23,32.42,NEW MEXICO,CARLSBAD,3588220
115304,692830,-105.37,35.99,NEW MEXICO,CLEVELAND,3587715
115304,692832,-105.51,34.37,NEW MEXICO,PINOS WELLS,3588318
115304,692833,-105.4729,33.5205,NEW MEXICO,FT STANTON,3588338
115304,692834,-105.4401,33.5265,NEW MEXICO,LINCOLN,3588338
100575,603218,-104.23,32.42,NEW MEXICO,CARLSBAD,3588220
33259,193653,-103.1273,32.7399,NEW MEXICO,HOBBS,3588240
115392,692836,-105.34,35.39,NEW MEXICO,BLANCHARD,3587569
115392,692837,-105.24,34.9,NEW MEXICO,PINTADA,3588321
115392,692838,-105.57,33.59,NEW MEXICO,CAPITAN,3588316
115392,692839,-105.59,33.54,NEW MEXICO,CAPITAN,3588316
115392,692840,-105.59,33.54,NEW MEXICO,CAPITAN,3588316
115304,692831,-104.21,35.94,NEW MEXICO,ROY,3587743
30502,178945,-103.2,34.3955,NEW MEXICO,CLOVIS,3588101
101135,605141,-107.6901,32.264,NEW MEXICO,(DMN)DEMING ARPT,3588030
101135,605144,-105.56,32.79,NEW MEXICO,SACRAMENTO,3588347
127418,763743,-104.63,36.59,NEW MEXICO,MAXWELL,3587728
127418,763742,-104.64,36.57,NEW MEXICO,MAXWELL,3587728
127418,763741,-104.72,36.61,NEW MEXICO,DAWSON,3587728
127418,763740,-106.04,35.52,NEW MEXICO,LA CIENEGA,3587508
127418,763739,-103.61,36.59,NEW MEXICO,GRENVILLE,3588424
124822,748856,-103.8943,32.352,NEW MEXICO,LOVING,3588256
124822,748857,-103.8659,32.2926,NEW MEXICO,CARLSBAD,3588256
124825,748861,-104.23,32.42,NEW MEXICO,CARLSBAD,3588220
124825,749204,-104.23,32.2608,NEW MEXICO,CARLSBAD,3588220
124825,749205,-104.17,32.35,NEW MEXICO,OTIS,3588220
127422,763765,-105.06,36.18,NEW MEXICO,OCATE,3587734
97883,589115,-103.99,36.74,NEW MEXICO,CAPULIN,3588418
97883,588526,-103.92,36.85,NEW MEXICO,FOLSOM,3588419
128706,771954,-105.6361,36.9135,NEW MEXICO,SUNSHINE VALLEY,3587524
128706,771954,-105.64,36.91,NEW MEXICO,SUNSHINE VALLEY,3587524
30574,179105,-104.54,36.53,NEW MEXICO,MAXWELL,3587747
127418,763738,-104.7289,36.887,NEW MEXICO,VAN HOUTEN,
1136864,5301887,-103.5,32.11667,NEW MEXICO,JAL,3588252
1139573,5307684,-103.33333,34.1,NEW MEXICO,SAN JON,3588130
1139573,5307683,-103.31667,34.1,NEW MEXICO,SAN JON,3588130
1139573,5307682,-104.06667,35.1,NEW MEXICO,MONTOYA,3588401
1136864,5301887,-103.43333,32.11667,NEW MEXICO,JAL,3588252
97883,588527,-103.99,36.74,NEW MEXICO,CAPULIN,3588418
1139572,5307681,-106.38333,35.08333,NEW MEXICO,TIJERAS,3587059
127422,764817,-105.1149,36.5584,NEW MEXICO,UTE PARK,3587749
124752,748663,-105.9847,34.4449,NEW MEXICO,PROGRESSO,3587036
1139574,5307686,-104.4,33.28333,NEW MEXICO,ROSWELL,3588230
107274,643398,-103.9517,36.7707,NEW MEXICO,CAPULIN,3588419
107274,643397,-107.35,35.96,NEW MEXICO,HOSPAH,3587013
107274,643395,-107.6,35.08,NEW MEXICO,SAN FIDEL,3587049
107270,643386,-106.64,35.88,NEW MEXICO,JEMEZ SPGS,3587025
1143297,5315409,-104.36667,32.16667,NEW MEXICO,WHITES CITY,3588220
124752,748639,-107.814,34.9693,NEW MEXICO,MC CARTYS,3587020
124752,748640,-108.19,36.75,NEW MEXICO,FARMINGTON,3587401
124752,748641,-108.15,36.79,NEW MEXICO,FARMINGTON,3587402
124752,748642,-107.6,35.01,NEW MEXICO,ACOMITA,3587034
127422,764821,-104.3539,34.6483,NEW MEXICO,PUERTO DE LUNA,3588119
124752,748644,-107.5949,34.9503,NEW MEXICO,ACOMA PUEBLO,3587034
29424,173019,-106.1693,35.1898,NEW MEXICO,GOLDEN,3587015
50363,296490,-103.49,36.52,NEW MEXICO,MT DORA,3588424
124752,748652,-106.77,34.52,NEW MEXICO,VEGUITA,3587062
124752,748654,-103.34,34.08,NEW MEXICO,PORTALES ARPT,3588130
124752,748656,-106.78,34.59,NEW MEXICO,JARALES,3587002
124752,748657,-106.78,34.61,NEW MEXICO,JARALES,3587002
124752,748658,-106.59,34.8,NEW MEXICO,MEADOW LAKE,3587031
124752,748659,-106.57,34.48,NEW MEXICO,BECKER,3587002
124752,748662,-106.31,34.47,NEW MEXICO,ABO,3587036
124752,748663,-106.03,34.44,NEW MEXICO,PROGRESSO,3587036
124752,748644,-107.6303,34.9326,NEW MEXICO,ACOMA PUEBLO,3587034
101135,605143,-105.56,32.79,NEW MEXICO,SACRAMENTO,3588347
1139571,5307680,-103.55,35.98333,NEW MEXICO,BUEYEROS,3588415
1136869,5301989,-103.46667,32.36667,NEW MEXICO,JAL,3588252
101141,605171,-108.37,32.18,NEW MEXICO,SEPAR,3588045
101141,605170,-107.75,32.2,NEW MEXICO,(DMN)DEMING ARPT,3588030
101141,605169,-107.64,32.35,NEW MEXICO,MIRAGE,3588030
101141,605168,-106.73,32.31,NEW MEXICO,FT FILLMORE,3588011
101141,605167,-106.82,32.31,NEW MEXICO,FAIRACRES,3588005
101141,605166,-106.76,32.26,NEW MEXICO,MESILLA PARK,3588005
101141,605165,-106.7503,32.2836,NEW MEXICO,MESILLA PARK,3588003
101141,605164,-106.7397,32.3069,NEW MEXICO,FT FILLMORE,3588011
101141,605163,-106.75,32.29,NEW MEXICO,FT FILLMORE,3588001
101141,605162,-106.77,32.3,NEW MEXICO,FT FILLMORE,3588001
38278,222294,-105.22,35.6,NEW MEXICO,LAS VEGAS,3587701
101141,605161,-106.75,32.28,NEW MEXICO,MESILLA PARK,3588003
101141,605159,-106.78,32.32,NEW MEXICO,LAS CRUCES,3588001
101141,605158,-106.02,33.08,NEW MEXICO,TULAROSA,3588352
101135,605147,-108.6,32.97,NEW MEXICO,CLIFF,3588028
101135,605146,-106.5634,31.8052,NEW MEXICO,SUNLAND PARK,3588063
97883,588514,-103.83,36.76,NEW MEXICO,DES MOINES,3588418
97883,588513,-103.9,36.81,NEW MEXICO,FOLSOM,3588419
97882,588510,-105.0108,34.7493,NEW MEXICO,PASTURA,3588435
97882,588508,-103.28,36.25,NEW MEXICO,CLAPHAM,3588415
97882,588507,-103.66,36.63,NEW MEXICO,GRENVILLE,3588418
97882,588506,-103.5,36.99,NEW MEXICO,DES MOINES,3588419
101141,605160,-106.79,32.29,NEW MEXICO,MESILLA,3588005
97883,588524,-103.44,35.84,NEW MEXICO,ROSEBUD,3588410
97883,588516,-103.97,36.78,NEW MEXICO,CAPULIN,3588419
97883,588520,-103.27,35.97,NEW MEXICO,HAYDEN,3588410
1139570,5307679,-104.18333,35.36667,NEW MEXICO,CONCHAS DAM,3588416
29514,173051,-105.0509,34.4772,NEW MEXICO,VAUGHN,3588353
97883,588523,-103.1,35.61,NEW MEXICO,NARA VISA,3588430
97883,588522,-103.99,36.74,NEW MEXICO,CAPULIN,3588418
1139569,5307678,-106.66667,35.25,NEW MEXICO,RIO RANCHO,3587124
1139569,5307677,-106.56667,35.08333,NEW MEXICO,ALBUQUERQUE,3587108
107042,642278,-103.99,36.74,NEW MEXICO,CAPULIN,3588418
111744,666444,-108.13600000000001,32.7602,NEW MEXICO,VANADIUM,3588023
111744,666447,-108.0087,32.5231,NEW MEXICO,FAYWOOD,3588061
111744,666448,-106.84200000000001,32.4206,NEW MEXICO,HILL,3588007
97883,588517,-103.99,36.74,NEW MEXICO,CAPULIN,3588418
111744,666449,-106.7449,32.2848,NEW MEXICO,UNIVERSITY PARK,3588001
40021,232734,-103.31,34.34,NEW MEXICO,(CVS)CANNON AFB,3588101
40021,232735,-103.33,34.18,NEW MEXICO,PORTALES,3588130
40022,232739,-105.17,33.37,NEW MEXICO,PICACHO,3588351
130274,779972,-108.2736,32.7695,NEW MEXICO,SILVER CITY,3588061
130274,779971,-108.2904,32.7907,NEW MEXICO,SILVER CITY,3588061
130274,779969,-108.0237,32.9407,NEW MEXICO,GEORGETOWN,3588049
33643,195459,-105.9161,32.7463,NEW MEXICO,VALMONT,3588310
124934,749340,-103.73,36.68,NEW MEXICO,DES MOINES,3588418
124934,749341,-103.99,36.74,NEW MEXICO,CAPULIN,3588418
97883,588521,-103.16,35.83,NEW MEXICO,AMISTAD,3588410
111744,666454,-106.7336,32.3023,NEW MEXICO,FT FILLMORE,3588011
39934,232239,-105.7405,32.9561,NEW MEXICO,CLOUDCROFT,3588317
104265,624241,-104.38,34.6,NEW MEXICO,FT SUMNER,3588119
30502,178775,-103.2,34.41,NEW MEXICO,CLOVIS,3588101
27956,164268,-103.12799999999999,32.711,NEW MEXICO,HOBBS,3588240
27956,164267,-103.084,32.6064,NEW MEXICO,HOBBS,3588240
27956,164263,-103.12799999999999,32.7119,NEW MEXICO,HOBBS,3588240
125005,749753,-104.6842,32.2936,NEW MEXICO,QUEEN,3588220
125005,749758,-104.73,32.2,NEW MEXICO,QUEEN,3588220
125005,749762,-104.4648,32.1368,NEW MEXICO,WHITES CITY,3588220
125005,750349,-103.48,32.78,NEW MEXICO,BUCKEYE,3588260
125005,750350,-103.27,32.62,NEW MEXICO,MONUMENT,3588265
27956,164262,-103.1355,32.7258,NEW MEXICO,HOBBS,3588240
27956,164261,-103.5448,33.3288,NEW MEXICO,CAPROCK,3588267
27956,164269,-103.15,32.43,NEW MEXICO,EUNICE,3588231
27956,164257,-103.35,32.95,NEW MEXICO,LOVINGTON,3588260
1143690,5320349,-106.91667,34.05,NEW MEXICO,SOCORRO,3587801
134093,802986,-106.69,35.36,NEW MEXICO,SANTA ANA PUEBLO,3587144
134093,802998,-103.11,36.22,NEW MEXICO,SEDAN,3588436
134093,802999,-106.1,35.48,NEW MEXICO,MADRID,3587508
134093,803000,-106.07,36.02,NEW MEXICO,RANCHITOS,3587532
134093,803001,-105.87,35.5,NEW MEXICO,LAMY,3587540
134093,803002,-105.73,35.59,NEW MEXICO,GLORIETA,3587535
134093,803003,-103.1,34.82,NEW MEXICO,BELLVIEW,3588112
134093,803004,-103.2,34.7,NEW MEXICO,BROADVIEW,3588101
134093,803005,-103.21,34.8,NEW MEXICO,BROADVIEW,3588112
27956,164256,-103.35,32.92,NEW MEXICO,LOVINGTON,3588260
97531,586880,-103.2389,34.5277,NEW MEXICO,RANCHVALE,3588101
32512,190289,-104.38,32.18,NEW MEXICO,WHITES CITY,3588220
27956,164273,-103.15,32.43,NEW MEXICO,EUNICE,3588231
127028,761395,-106.5924,35.101,NEW MEXICO,ALBUQUERQUE,3587110
127028,761393,-106.61200000000001,35.0945,NEW MEXICO,ALBUQUERQUE,3587106
127028,761388,-106.66,35.27,NEW MEXICO,RIO RANCHO,3587124
127028,761387,-106.54,35.11,NEW MEXICO,ALBUQUERQUE,3587112
127028,761382,-106.57,35.37,NEW MEXICO,BERNALILLO,3587004
1190999,5456385,-105.95,35.98333,NEW MEXICO,CUNDIYO,3587522
1190999,5456387,-105.0167,35.88333,NEW MEXICO,POJOAQUE,3587753
1190999,5456388,-106.0333,35.75,NEW MEXICO,SANTA FE,3587506
1190999,5456388,-105.95,35.75,NEW MEXICO,SANTA FE,3587506
1141694,5315099,-103.35,33.25,NEW MEXICO,TATUM,3588267
32518,190319,-103.98,32.82,NEW MEXICO,LOCO HILLS,3588255
27964,166081,-104.38,32.25,NEW MEXICO,WHITES CITY,3588220
27964,166078,-104.1485,32.0595,NEW MEXICO,MALAGA,3588220
27964,166078,-104.225,32.0472,NEW MEXICO,WHITES CITY,3588220
27964,165234,-104.44,32.18,NEW MEXICO,WHITES CITY,3588220
27956,167603,-103.0728,32.43,NEW MEXICO,EUNICE,3588231
115549,693777,-104.3092,32.4477,NEW MEXICO,CARLSBAD,3588220
115549,693780,-104.2617,32.4311,NEW MEXICO,CARLSBAD,3588220
115549,693781,-104.23,32.3766,NEW MEXICO,CARLSBAD,3588220
115549,693783,-104.4359,32.246,NEW MEXICO,CARLSBAD,3588220
115549,693785,-104.0766,32.2334,NEW MEXICO,MALAGA,3588256
115549,696287,-104.2438,32.4481,NEW MEXICO,CARLSBAD,3588220
27964,166080,-104.38,32.18,NEW MEXICO,WHITES CITY,3588220
50410,296987,-105.26100000000001,32.94,NEW MEXICO,ELK,3588339
97529,586871,-103.46,35.37,NEW MEXICO,LOGAN,3588426
1143691,5320351,-106.75,35.75,NEW MEXICO,PONDEROSA,3587024
117694,707757,-107.2897,33.3308,NEW MEXICO,(TCS)TRUTH/CONSQNCES,3587901
104315,624742,-103.02,36.87,NEW MEXICO,MOSES,3588419
104315,624743,-103.29,36.76,NEW MEXICO,SENECA,3588418
38725,224640,-103.2,34.41,NEW MEXICO,CLOVIS,3588101
38725,224639,-104.24,34.47,NEW MEXICO,FT SUMNER,3588119
38725,224638,-103.27,34.46,NEW MEXICO,RANCHVALE,3588101
38725,224637,-103.78,33.69,NEW MEXICO,BOAZ,3588201
38725,224636,-103.34,34.18,NEW MEXICO,PORTALES,3588130
38725,224635,-105.19,36.28,NEW MEXICO,BLACK LAKE,3587710
29834,174649,-104.5569,32.1407,NEW MEXICO,QUEEN,3588220
117692,707753,-106.4987,32.3825,NEW MEXICO,WHITE SANDS,3588002
29834,174650,-104.63,32.23,NEW MEXICO,QUEEN,3588220
100426,601432,-104.448,32.2358,NEW MEXICO,CARLSBAD,3588220
104315,624744,-103.03,36.76,NEW MEXICO,MOSES,3588419
100118,599741,-104.73,32.8,NEW MEXICO,HOPE,3588250
100118,599740,-104.37,32.63,NEW MEXICO,LAKEWOOD,3588254
100102,599674,-104.04,34.44,NEW MEXICO,TAIBAN,3588134
100102,599673,-103.09,35.18,NEW MEXICO,GLENRIO,3588411
100102,599672,-103.21,34.82,NEW MEXICO,BROADVIEW,3588112
100102,599671,-103.62,34.43,NEW MEXICO,MELROSE,3588124
100102,599670,-103.35,34.91,NEW MEXICO,SAN JON,3588120
100102,599669,-103.63,34.42,NEW MEXICO,MELROSE,3588124
100426,601592,-104.448,32.2358,NEW MEXICO,CARLSBAD,3588220
1143691,5320350,-106.55,35.3,NEW MEXICO,BERNALILLO,3587004
117692,707751,-106.6407,31.8494,NEW MEXICO,STRAUSS,3588008
38725,224642,-103.32,34.37,NEW MEXICO,(CVS)CANNON AFB,3588103
38725,224653,-104.32,36.08,NEW MEXICO,MILLS,3587730
38725,224652,-104.48,36.04,NEW MEXICO,WAGON MOUND,3587752
1143691,5320354,-106.6,35.26667,NEW MEXICO,BERNALILLO,3587048
125063,750099,-104.0,36.74,NEW MEXICO,CAPULIN,3588418
1143692,5320355,-104.66667,33.98333,NEW MEXICO,MESA,3588201
38725,224651,-104.04,36.35,NEW MEXICO,FARLEY,3588422
119715,718036,-105.47,35.39,NEW MEXICO,SAN JOSE,3587565
125101,750347,-105.23,36.18,NEW MEXICO,GUADALUPITA,3587722
125101,750348,-105.24,36.14,NEW MEXICO,GUADALUPITA,3587722
1143696,5320448,-108.7,32.38333,NEW MEXICO,LORDSBURG,3588045
38725,224641,-103.23,34.43,NEW MEXICO,CLOVIS,3588101
1143697,5320450,-108.38333,32.86667,NEW MEXICO,SILVER CITY,3588061
1143697,5320451,-108.26666999999999,32.76667,NEW MEXICO,SILVER CITY,3588061
1143697,5320452,-108.21667,32.76667,NEW MEXICO,SILVER CITY,3588061
1143698,5320453,-108.43333,32.23333,NEW MEXICO,SEPAR,3588061
119715,718035,-105.48,35.4,NEW MEXICO,SAN JOSE,3587560
38725,224650,-103.97,36.38,NEW MEXICO,GLADSTONE,3588424
38725,224647,-103.2,34.41,NEW MEXICO,CLOVIS,3588101
38725,224646,-103.2,34.41,NEW MEXICO,CLOVIS,3588101
38725,224645,-103.2,34.41,NEW MEXICO,CLOVIS,3588101
38725,224644,-103.19,34.42,NEW MEXICO,CLOVIS,3588101
38725,224643,-103.4633,35.37,NEW MEXICO,LOGAN,3588426
100426,602560,-104.4872,32.42,NEW MEXICO,CARLSBAD,3588220
30502,178777,-103.9577,36.6577,NEW MEXICO,DES MOINES,3588418
127028,761397,-106.6043,35.0873,NEW MEXICO,KIRTLAND AFB,3587106
127028,761401,-106.6221,35.0376,NEW MEXICO,(ABQ)ALBUQUERQUE INTL AIRPORT,3587106
127107,762838,-105.42,35.83,NEW MEXICO,ROCIADA,3587742
20332,121117,-107.75,32.2411,NEW MEXICO,DEMING,3588030
20324,121098,-107.2719,33.389,NEW MEXICO,PLACITA,3587901
20324,121097,-108.2944,32.7905,NEW MEXICO,SILVER CITY,3588061
20324,121096,-108.13,32.75,NEW MEXICO,BAYARD,3588041
127107,762837,-106.64,35.87,NEW MEXICO,JEMEZ SPGS,3587025
28849,169650,-104.71,36.0,NEW MEXICO,WAGON MOUND,3587752
1190989,5456360,-103.2833,34.81667,NEW MEXICO,CLOVIS,3588112
1190989,5456361,-103.2,34.55,NEW MEXICO,PLEASANT HILL,3588101
127107,762836,-105.88,33.64,NEW MEXICO,CARRIZOZO,3588301
1190989,5456359,-103.1333,33.98333,NEW MEXICO,GRADY,3588132
127107,762835,-105.25,35.91,NEW MEXICO,BUENA VISTA,3587712
1190989,5456425,-103.2167,34.81667,NEW MEXICO,ROGERS,3588112
127107,762834,-106.56,36.19,NEW MEXICO,YOUNGSVILLE,3587064
127107,762833,-106.4457,36.1909,NEW MEXICO,CANONES,3587516
127107,762832,-106.56,36.2,NEW MEXICO,YOUNGSVILLE,3587064
1141759,5314847,-103.83333,36.9,NEW MEXICO,FOLSOM,3588419
97673,587451,-103.99,36.7834,NEW MEXICO,CAPULIN,3588414
97673,587445,-103.92,36.85,NEW MEXICO,FOLSOM,3588419
1141759,5314846,-103.9,36.85,NEW MEXICO,FOLSOM,3588419
104297,624536,-105.94,35.15,NEW MEXICO,STANLEY,3587056
104297,624537,-105.9,35.6,NEW MEXICO,CANADA DE LOS ALAMOS,3587505
1190989,5456365,-103.0833,34.43333,NEW MEXICO,BROADVIEW,3588135
104297,624538,-105.92,35.62,NEW MEXICO,CANADA DE LOS ALAMOS,3587508
1190989,5456358,-103.2667,33.91667,NEW MEXICO,DORA,3588132
133341,797836,-107.3113,35.8582,NEW MEXICO,HOSPAH,3587013
1190987,5456354,-103.1333,36.78333,NEW MEXICO,SENECA,3588419
1190988,5456355,-104.4833,36.8,NEW MEXICO,RATON,3587740
119884,718636,-104.515,32.0472,NEW MEXICO,WHITES CITY,3588220
32809,191600,-105.48,32.89,NEW MEXICO,MAYHILL,3588339
97755,587817,-105.48,35.4,NEW MEXICO,SAN JOSE,3587560
97754,587816,-104.54,36.54,NEW MEXICO,MAXWELL,3587728
32809,191599,-105.5161,32.8093,NEW MEXICO,SACRAMENTO,3588339
32781,191485,-107.8748,32.0122,NEW MEXICO,HERMANAS,3588030
30487,178611,-105.97,36.6211,NEW MEXICO,TRES PIEDRAS,3587577
30481,184967,-104.43,32.82,NEW MEXICO,ARTESIA,3588210
133341,797836,-107.315,35.8564,NEW MEXICO,HOSPAH,3587013
30481,178578,-103.19,32.11,NEW MEXICO,JAL,3588252
127107,762859,-106.7229,35.505,NEW MEXICO,ZIA PUEBLO,3587053
127107,762846,-106.65,35.27,NEW MEXICO,RIO RANCHO,3587124
30481,178576,-104.4,32.7721,NEW MEXICO,ARTESIA,3588210
127107,762844,-106.71,35.27,NEW MEXICO,RIO RANCHO,3587124
127107,762842,-106.71,35.31,NEW MEXICO,RIO RANCHO,3587144
127107,762840,-106.72,35.71,NEW MEXICO,PONDEROSA,3587025
127107,762839,-105.44,35.64,NEW MEXICO,MINERAL HILL,3587701
30481,178576,-104.3943,32.7845,NEW MEXICO,ATOKA,3588210
1190989,5456356,-103.1667,33.63333,NEW MEXICO,MILNESAND,3588125
1190989,5456357,-103.3333,33.91667,NEW MEXICO,DORA,3588132
30481,178577,-103.19,32.11,NEW MEXICO,JAL,3588252
133986,803126,-103.3845,32.6947,NEW MEXICO,BUCKEYE,3588240
104297,624539,-106.62,35.89,NEW MEXICO,JEMEZ SPGS,3587025
1190990,5456366,-103.95,35.55,NEW MEXICO,CONCHAS DAM,
1190991,5456381,-103.8333,34.81667,NEW MEXICO,RAGLAND,3588427
1190992,5452596,-105.1667,33.58333,NEW MEXICO,ARABELA,3588351
1190993,5452597,-103.9667,36.66667,NEW MEXICO,DES MOINES,3588418
1190993,5452598,-104.4,36.9,NEW MEXICO,RATON,3587740
1190994,5452599,-104.25,36.08333,NEW MEXICO,MILLS,3587730
1190994,5452600,-103.2167,35.6,NEW MEXICO,NARA VISA,3588430
1190994,5452601,-103.4167,35.36667,NEW MEXICO,LOGAN,3588426
133986,802701,-104.1,32.28,NEW MEXICO,LOVING,3588256
27964,166083,-103.4192,32.12,NEW MEXICO,JAL,3588252
27964,166082,-104.4963,32.1257,NEW MEXICO,WHITES CITY,3588220
1194322,5464851,-103.6333,34.81667,NEW MEXICO,RAGLAND,3588427
104297,624541,-105.75,35.65,NEW MEXICO,GLORIETA,3587535
1190995,5452602,-106.3167,35.88333,NEW MEXICO,LOS ALAMOS,3587544
104297,624542,-105.93,35.6,NEW MEXICO,CANADA DE LOS ALAMOS,3587508
104297,624543,-105.93,35.76,NEW MEXICO,TESUQUE,3587506
104297,624928,-107.46,36.21,NEW MEXICO,COUNSELOR,3587018
104297,626079,-105.947,36.0072,NEW MEXICO,CUNDIYO,3587522
127028,761407,-106.6044,35.0868,NEW MEXICO,KIRTLAND AFB,3587106
127028,761404,-106.6142,35.0691,NEW MEXICO,KIRTLAND AFB,3587106
127028,761403,-106.5783,35.059,NEW MEXICO,KIRTLAND AFB,3587108
1190996,5452603,-106.65,35.05,NEW MEXICO,ALBUQUERQUE INTL ARPT,3587102
1190998,5456383,-105.2667,36.53333,NEW MEXICO,EAGLE NEST,3587710
1194321,5464850,-103.2167,36.15,NEW MEXICO,SEDAN,3588415
104297,624540,-105.93,35.62,NEW MEXICO,CANADA DE LOS ALAMOS,3587508
1194322,5464852,-103.5,34.56667,NEW MEXICO,RANCHVALE,3588124
1194322,5464854,-103.2,34.4,NEW MEXICO,CLOVIS,3588101
1190990,5456368,-103.7333,35.16667,NEW MEXICO,TUCUMCARI,3588401
1194324,5464858,-105.5167,33.48333,NEW MEXICO,RUIDOSO,3588312
1194323,5464856,-104.5833,33.43333,NEW MEXICO,ROSWELL,3588201
1190990,5456369,-103.75,34.93333,NEW MEXICO,QUAY,3588401
1190991,5456371,-105.0833,35.86667,NEW MEXICO,WATROUS,3587753
1190991,5456372,-105.0833,35.86667,NEW MEXICO,WATROUS,3587753
1194322,5464855,-103.7,35.15,NEW MEXICO,TUCUMCARI,3588401
1190991,5456373,-104.7,35.88333,NEW MEXICO,WAGON MOUND,3587752
1190991,5456374,-104.2667,35.58333,NEW MEXICO,TREMENTINA,
1190991,5456375,-106.2333,34.51667,NEW MEXICO,MOUNTAINAIR,3587036
1194322,5464853,-103.2,34.4,NEW MEXICO,CLOVIS,3588101
1190991,5456376,-104.1667,35.66667,NEW MEXICO,TREMENTINA,3587746
133985,802419,-104.3603,33.2104,NEW MEXICO,DEXTER,3588230
133985,802419,-104.4402,33.001,NEW MEXICO,LAKE ARTHUR,3588253
133985,802420,-104.3453,34.47,NEW MEXICO,FT SUMNER,3588119
133986,802571,-104.5931,32.113,NEW MEXICO,CARLSBAD,3588220
133986,802587,-104.23,32.42,NEW MEXICO,CARLSBAD,3588220
1190991,5456378,-104.3333,35.25,NEW MEXICO,CONCHAS DAM,3588431
133986,802649,-104.0794,32.1763,NEW MEXICO,MALAGA,3588220
133986,802649,-103.913,32.3359,NEW MEXICO,LOVING,3588256
1190991,5456379,-104.2667,35.11667,NEW MEXICO,NEWKIRK,3588431
1190991,5456380,-103.95,35.55,NEW MEXICO,CONCHAS DAM,
1190991,5456377,-104.3333,35.25,NEW MEXICO,CONCHAS DAM,3588431
100102,599668,-103.49,34.55,NEW MEXICO,FIELD,3588124
39933,232237,-105.5553,32.9984,NEW MEXICO,MAYHILL,3588317
38202,222015,-105.36,35.27,NEW MEXICO,VILLANUEVA,3587560
127809,766434,-104.6,34.97,NEW MEXICO,SANTA ROSA MUNI ARPT,3588435
43946,255690,-106.37,35.52,NEW MEXICO,SANTO DOMINGO PUEBLO,3587052
39485,229411,-103.62,36.59,NEW MEXICO,GRENVILLE,3588424
109641,655931,-106.94,35.01,NEW MEXICO,(AEG)DOUBLE EAGLE II AIRPORT,3587121
1142574,5317868,-106.45,32.41667,NEW MEXICO,ORGAN,3588002
1142573,5317867,-107.65,31.83333,NEW MEXICO,COLUMBUS,3588029
1142573,5317864,-107.66667,32.91667,NEW MEXICO,HILLSBORO,3588042
1142573,5317864,-107.58333,32.91667,NEW MEXICO,HILLSBORO,3588042
109868,657056,-104.4,32.77,NEW MEXICO,ATOKA,3588210
50281,295855,-103.33,34.1511,NEW MEXICO,PORTALES,3588130
127809,766480,-104.7626,36.3582,NEW MEXICO,MIAMI,3587729
50281,295856,-103.427,34.2132,NEW MEXICO,PORTALES,3588130
50281,295858,-103.3547,34.1595,NEW MEXICO,PORTALES,3588130
50281,295859,-103.7177,33.83,NEW MEXICO,KENNA,3588116
50281,295860,-103.4783,34.0572,NEW MEXICO,PORTALES,3588130
50281,295861,-104.1066,33.0425,NEW MEXICO,HAGERMAN,3588203
50281,295862,-103.4912,33.9854,NEW MEXICO,DORA,3588130
50281,295863,-103.33,33.93,NEW MEXICO,DORA,3588132
50281,295865,-103.2978,33.9411,NEW MEXICO,DORA,3588130
50283,295877,-105.1092,35.3798,NEW MEXICO,SAN AUGUSTIN,3587701
50283,295878,-104.4893,36.7801,NEW MEXICO,(RTN)RATON CREWS AIRPORT,3587740
50283,295879,-105.1092,35.3798,NEW MEXICO,SAN AUGUSTIN,3587701
50281,295857,-103.66,34.1571,NEW MEXICO,ELIDA,3588118
50283,295880,-104.6,36.36,NEW MEXICO,SPRINGER,3587747
39485,229436,-103.61,36.59,NEW MEXICO,GRENVILLE,3588424
108570,650403,-105.7329,32.9488,NEW MEXICO,CLOUDCROFT,3588317
1190254,5454299,-103.11667,33.88333,NEW MEXICO,DORA,3588113
1190254,5454298,-103.16667,35.65,NEW MEXICO,NARA VISA,3588430
1190254,5454297,-103.33333,33.93333,NEW MEXICO,DORA,3588132
1190254,5454296,-103.65,33.93333,NEW MEXICO,ELIDA,3588116
1190254,5454295,-103.43333,34.6,NEW MEXICO,RANCHVALE,3588101
1190254,5454294,-103.95,33.68333,NEW MEXICO,ELKINS,3588201
1190254,5454293,-103.11667,34.11667,NEW MEXICO,GLENRIO,3588130
1190254,5454292,-103.1,35.73333,NEW MEXICO,NARA VISA,3588430
1190254,5454291,-103.33333,33.98333,NEW MEXICO,SAN JON,3588130
1190254,5454290,-103.58333,35.98333,NEW MEXICO,BUEYEROS,3588415
39518,229628,-104.74,32.74,NEW MEXICO,HOPE,3588250
1190254,5454288,-104.36667,33.5,NEW MEXICO,ROSWELL,3588201
131371,786111,-108.5507,32.9918,NEW MEXICO,GILA,3588038
1190254,5454286,-103.75,35.95,NEW MEXICO,ROY,3587733
1190254,5454285,-104.51666999999999,33.55,NEW MEXICO,ROSWELL,3588201
1190254,5454284,-104.65,34.93333,NEW MEXICO,SANTA ROSA,3588435
1190254,5454283,-104.4,35.7,NEW MEXICO,SABINOSO,3587701
1190254,5454282,-104.4,35.7,NEW MEXICO,SABINOSO,3587701
1190254,5454281,-103.16667,35.65,NEW MEXICO,NARA VISA,3588430
131372,786112,-108.2612,32.7325,NEW MEXICO,SLVR CITY TURNER ARP,3588061
50281,295854,-103.475,34.22,NEW MEXICO,FLOYD,3588130
109377,654827,-103.3529,32.9408,NEW MEXICO,LOVINGTON,3588260
1190254,5454287,-103.95,35.55,NEW MEXICO,CONCHAS DAM,
1190254,5454299,-103.3,33.93333,NEW MEXICO,DORA,3588132
50283,295882,-104.59,36.36,NEW MEXICO,SPRINGER,3587747
50283,295884,-104.69,35.54,NEW MEXICO,TRUJILLO,3587701
43946,255121,-106.28,35.14,NEW MEXICO,SANDIA PARK,3587047
31014,181807,-103.35,32.93,NEW MEXICO,LOVINGTON,3588260
43946,255120,-106.29,35.1,NEW MEXICO,CEDAR CREST,3587059
43946,255084,-106.29,35.1,NEW MEXICO,CEDAR CREST,3587059
43946,255081,-106.36,35.17,NEW MEXICO,SANDIA PARK,3587047
43946,255080,-106.28,35.17,NEW MEXICO,SANDIA PARK,3587047
43946,255079,-106.29,35.09,NEW MEXICO,CEDAR CREST,3587059
43946,255078,-106.32,35.13,NEW MEXICO,CEDAR CREST,3587059
43946,255075,-106.36,35.17,NEW MEXICO,SANDIA PARK,3587047
43946,255073,-106.41,35.32,NEW MEXICO,PLACITAS,3587043
43946,255122,-106.31,35.09,NEW MEXICO,CEDAR CREST,3587059
110205,658538,-104.4505,32.8426,NEW MEXICO,ARTESIA ARPT,3588210
110205,658540,-104.4,32.859,NEW MEXICO,ARTESIA,3588210
110205,658541,-104.4414,32.8407,NEW MEXICO,ARTESIA ARPT,3588210
110205,659427,-104.4238,32.8403,NEW MEXICO,ILLINOIS CAMP,3588210
110205,659495,-104.4227,32.8302,NEW MEXICO,ARTESIA,3588210
110205,659498,-103.18,32.12,NEW MEXICO,JAL,3588252
1184953,5437160,-106.35,35.61667,NEW MEXICO,COCHITI PUEBLO,3587072
1184988,5437930,-104.2,32.83333,NEW MEXICO,ARTESIA,3588210
110205,659499,-103.185,32.2638,NEW MEXICO,TEAGUE,3588252
110205,659501,-103.18,32.12,NEW MEXICO,JAL,3588252
110205,659502,-104.4089,32.838,NEW MEXICO,ARTESIA,3588210
110205,658539,-104.4,32.8734,NEW MEXICO,ARTESIA,3588210
50283,295883,-103.85600000000001,36.9012,NEW MEXICO,FOLSOM,3588419
43946,255123,-106.38,34.94,NEW MEXICO,ESCABOSA,
127769,766370,-104.95,36.47,NEW MEXICO,CIMARRON,3587714
50283,295885,-104.69,35.54,NEW MEXICO,TRUJILLO,3587701
43946,255147,-106.33,35.11,NEW MEXICO,CEDAR CREST,3587059
128132,768375,-105.85,33.01,NEW MEXICO,PINTO,3588337
128133,768383,-108.7,32.35,NEW MEXICO,LORDSBURG,3588045
109868,657057,-104.4,32.8011,NEW MEXICO,ARTESIA,3588210
43946,255146,-106.29,35.09,NEW MEXICO,CEDAR CREST,3587059
109868,657091,-104.4,32.7576,NEW MEXICO,ARTESIA,3588210
109868,657093,-104.4,32.7721,NEW MEXICO,ARTESIA,3588210
109868,657096,-104.3841,32.7307,NEW MEXICO,DAYTON,3588210
109868,657097,-104.37,32.63,NEW MEXICO,LAKEWOOD,3588254
127769,766359,-105.63,36.65,NEW MEXICO,LAMA,3587556
109868,657098,-104.4201,32.5942,NEW MEXICO,LAKEWOOD,3588210
109868,657104,-104.7472,32.8,NEW MEXICO,HOPE,3588250
109868,657104,-104.8161,32.8,NEW MEXICO,HOPE,3588250
1199551,5478844,-104.2833,32.41667,NEW MEXICO,CARLSBAD,3588220
1199551,5478844,-104.2333,32.41667,NEW MEXICO,CARLSBAD,3588220
1199551,5478841,-104.2333,32.41667,NEW MEXICO,CARLSBAD,3588220
28908,169909,-104.55,32.51,NEW MEXICO,LAKEWOOD,3588220
28908,169910,-104.2829,32.2854,NEW MEXICO,(CNM)CARLSBAD ARPT,3588220
39245,227855,-106.89,33.99,NEW MEXICO,LUIS LOPEZ,3587801
43946,255129,-106.3,34.98,NEW MEXICO,ESCABOSA,3587059
127769,766409,-105.73,35.59,NEW MEXICO,GLORIETA,3587535
109868,657101,-103.1542,32.4349,NEW MEXICO,EUNICE,3588231
110205,659503,-104.4637,32.8522,NEW MEXICO,ARTESIA,3588210
1190255,5454300,-105.48333000000001,35.4,NEW MEXICO,SAN JOSE,3587560
1190255,5454302,-105.45,35.36667,NEW MEXICO,RIBERA,3587560
30970,181555,-103.0739,35.2469,NEW MEXICO,GLENRIO,3588434
30970,181554,-103.32,34.82,NEW MEXICO,GRADY,3588120
30970,181553,-103.1993,35.2202,NEW MEXICO,BARD,3588411
30970,181551,-103.2832,36.2494,NEW MEXICO,CLAYTON,3588415
103976,622077,-104.1,32.28,NEW MEXICO,LOVING,3588256
30970,181550,-103.2569,35.21,NEW MEXICO,PORTER,3588411
36988,215165,-104.38,33.07,NEW MEXICO,HAGERMAN,3588232
36988,215164,-104.36,33.08,NEW MEXICO,HAGERMAN,3588232
30970,181550,-103.31,35.21,NEW MEXICO,PORTER,3588434
30970,181549,-103.41,35.37,NEW MEXICO,LOGAN,3588426
30970,181556,-103.3313,35.2156,NEW MEXICO,PORTER,3588434
30970,181548,-104.71,36.1158,NEW MEXICO,WAGON MOUND,3587752
30970,181546,-105.26100000000001,32.94,NEW MEXICO,ELK,3588339
44423,265482,-104.5763,33.6624,NEW MEXICO,ACME,3588201
44423,265482,-104.5701,33.6687,NEW MEXICO,ACME,3588201
44423,265481,-104.6016,33.6471,NEW MEXICO,ACME,3588201
1134686,5296893,-103.11667,32.6,NEW MEXICO,NADINE,3588240
1134686,5296894,-103.16667,32.73333,NEW MEXICO,HOBBS,3588240
1134686,5296894,-103.13333,32.7,NEW MEXICO,HOBBS,3588240
1134693,5295636,-103.18333,32.11667,NEW MEXICO,JAL,3588252
44423,265481,-104.639,33.6199,NEW MEXICO,ROSWELL,3588201
20826,123567,-106.04,35.5,NEW MEXICO,LA CIENEGA,3587508
30970,181547,-105.5664,35.4233,NEW MEXICO,SOUTH SAN YSIDRO,3587565
30970,181545,-105.12,36.06,NEW MEXICO,OJO FELIZ,3587735
30970,181561,-105.4626,35.3802,NEW MEXICO,RIBERA,3587565
37017,215384,-105.3307,33.4087,NEW MEXICO,SAN PATRICIO,3588348
1148166,5344648,-104.23333000000001,32.41667,NEW MEXICO,CARLSBAD,3588220
1148166,5344649,-104.05,32.81667,NEW MEXICO,LOCO HILLS,3588210
28849,169651,-103.89,34.63,NEW MEXICO,HOUSE,3588121
28850,169657,-106.28,35.89,NEW MEXICO,(LAM)LOS ALAMOS AIRPORT,3587544
39556,229865,-103.3547,34.1595,NEW MEXICO,PORTALES,3588130
37228,216561,-104.2,35.95,NEW MEXICO,ROY,3587743
37221,216556,-104.24,32.45,NEW MEXICO,LA HUERTA,3588220
37221,216552,-104.24,32.4,NEW MEXICO,CARLSBAD,3588220
37221,216549,-104.23,32.42,NEW MEXICO,CARLSBAD,3588220
37221,216538,-104.24,32.4,NEW MEXICO,CARLSBAD,3588220
30970,181562,-103.18,36.45,NEW MEXICO,CLAYTON,3588415
37221,216536,-104.24,32.4,NEW MEXICO,CARLSBAD,3588220
37056,215590,-103.15,35.98,NEW MEXICO,AMISTAD,3588410
37056,215589,-103.0785,35.92,NEW MEXICO,AMISTAD,3588410
37047,215519,-103.9,35.64,NEW MEXICO,BELL RANCH,3587746
37047,215518,-103.74,36.3,NEW MEXICO,PASAMONTE,3588424
22498,132107,-106.05,34.84,NEW MEXICO,WITT,3587016
37047,215517,-103.74,36.3,NEW MEXICO,PASAMONTE,3588424
37047,215516,-104.09,35.53,NEW MEXICO,BELL RANCH,3587746
30970,183076,-104.2,36.09,NEW MEXICO,MILLS,3587730
30970,181564,-103.2804,36.2548,NEW MEXICO,CLAYTON,3588415
30970,181563,-103.5939,35.2371,NEW MEXICO,(TCC)TUCUMCARI ARPT,3588401
37056,215591,-103.17,36.45,NEW MEXICO,CLAYTON,3588415
1190255,5454301,-105.68333,35.48333,NEW MEXICO,ROWE,3587562
44423,257937,-106.4982,35.1452,NEW MEXICO,CARNUEL,3587111
44423,257935,-106.589,35.1528,NEW MEXICO,ALBUQUERQUE,3587109
1190264,5454407,-105.11667,36.06667,NEW MEXICO,OJO FELIZ,3587735
1190264,5454406,-105.06667,35.2,NEW MEXICO,DILIA,3587711
1190263,5454405,-106.95,35.78333,NEW MEXICO,CUBA,
1190263,5454405,-106.95,35.73333,NEW MEXICO,CUBA,
1190262,5454404,-104.95,35.6,NEW MEXICO,LAS VEGAS,3587701
20783,123436,-104.2,35.95,NEW MEXICO,ROY,3587743
1190260,5454402,-104.43333,33.11667,NEW MEXICO,HAGERMAN,3588232
1190260,5454401,-104.58333,33.33333,NEW MEXICO,ROSWELL,3588203
1190259,5454310,-104.36667,36.95,NEW MEXICO,RATON,3587740
1190258,5454308,-103.96667,33.75,NEW MEXICO,ELKINS,3588116
1190264,5454408,-104.95,35.6,NEW MEXICO,LAS VEGAS,3587701
28850,170105,-106.28,35.89,NEW MEXICO,(LAM)LOS ALAMOS AIRPORT,3587544
28854,169671,-103.13,32.7,NEW MEXICO,HOBBS,3588240
22498,132106,-106.06,34.82,NEW MEXICO,WITT,3587032
1190258,5454307,-104.36667,33.26667,NEW MEXICO,DEXTER,3588230
1190257,5454306,-103.33333,34.03333,NEW MEXICO,SAN JON,3588130
1190257,5454306,-103.33333,34.1,NEW MEXICO,SAN JON,3588130
44016,255692,-108.1,36.83,NEW MEXICO,FLORA VISTA,3587415
1190256,5454305,-103.18333,36.45,NEW MEXICO,CLAYTON,3588415
44015,255691,-109.04,36.99,NEW MEXICO,RATTLESNAKE,
1190255,5454304,-105.21667,35.4,NEW MEXICO,LAS VEGAS,3587701
1190255,5454303,-105.21667,35.5,NEW MEXICO,LAS VEGAS,3587701
28850,170106,-103.1,35.61,NEW MEXICO,NARA VISA,3588430
44423,257935,-106.5749,35.1453,NEW MEXICO,ALBUQUERQUE,3587109
1190264,5454409,-105.2,34.6,NEW MEXICO,VAUGHN,3588353
28850,169666,-104.85,35.11,NEW MEXICO,COLONIAS,3588435
44422,257932,-107.87,35.17,NEW MEXICO,MILAN,3587020
44422,257931,-107.88,35.11,NEW MEXICO,SAN RAFAEL,3587051
44422,257930,-108.73,35.52,NEW MEXICO,GALLUP,3587301
28850,169658,-106.28,35.89,NEW MEXICO,(LAM)LOS ALAMOS AIRPORT,3587544
28850,169661,-106.28,35.89,NEW MEXICO,(LAM)LOS ALAMOS AIRPORT,3587544
28850,169662,-103.93,36.27,NEW MEXICO,GLADSTONE,3588422
28850,169663,-106.28,35.89,NEW MEXICO,(LAM)LOS ALAMOS AIRPORT,3587544
28850,169664,-103.9,36.06,NEW MEXICO,YATES,3587743
30942,181437,-104.5121,32.1202,NEW MEXICO,WHITES CITY,3588220
1190267,5454415,-104.0,36.8,NEW MEXICO,CAPULIN,3588414
28850,169667,-103.95,35.77,NEW MEXICO,BELL RANCH,3587733
1190267,5454414,-104.0,36.75,NEW MEXICO,CAPULIN,3588414
1190267,5454413,-104.38333,36.95,NEW MEXICO,SUGARITE,3587740
30928,181379,-103.18,36.41,NEW MEXICO,CLAYTON,3588415
30928,181378,-103.33,36.57,NEW MEXICO,MT DORA,3588415
30928,181377,-103.49,36.63,NEW MEXICO,GRENVILLE,3588424
30928,181376,-103.78,36.91,NEW MEXICO,FOLSOM,3588419
1190266,5454412,-105.86667,35.61667,NEW MEXICO,SANTA FE,3587505
1190265,5454411,-105.28333,34.13333,NEW MEXICO,CORONA,3588318
1134693,5295637,-103.18333,32.21667,NEW MEXICO,JAL,3588252
1134693,5295639,-103.18333,32.11667,NEW MEXICO,JAL,3588252
28850,169665,-104.85,35.11,NEW MEXICO,COLONIAS,3588435
44201,256902,-108.8072,31.9184,NEW MEXICO,ANIMAS,3588020
1200205,5476706,-108.8,31.883329999999997,NEW MEXICO,ANIMAS,3588020
110205,659597,-104.1054,32.6396,NEW MEXICO,AVALON,3588210
1188216,5447218,-104.33333,33.11667,NEW MEXICO,HAGERMAN,3588232
38198,222004,-103.05,34.48,NEW MEXICO,PLEASANT HILL,3588135
34251,198238,-106.62,32.01,NEW MEXICO,ANTHONY,3588021
34251,198237,-106.79,32.3,NEW MEXICO,LAS CRUCES,3588005
34251,198236,-106.73,32.31,NEW MEXICO,FT FILLMORE,3588011
34250,198235,-108.34,32.76,NEW MEXICO,SLVR CITY TURNER ARP,3588061
34250,198234,-108.3,32.71,NEW MEXICO,SLVR CITY TURNER ARP,3588065
98486,592381,-104.2026,32.7969,NEW MEXICO,DAYTON,3588210
21145,125093,-105.2124,34.6102,NEW MEXICO,VAUGHN,3588353
34250,198232,-108.68,33.02,NEW MEXICO,BUCKHORN,3588025
120896,723817,-107.5641,32.9205,NEW MEXICO,HILLSBORO,3587930
38198,222003,-103.07,34.52,NEW MEXICO,PLEASANT HILL,3588135
29343,172177,-103.7365,36.3,NEW MEXICO,GLADSTONE,3588424
104040,622294,-103.92,36.85,NEW MEXICO,FOLSOM,3588419
127441,763844,-104.4,32.9024,NEW MEXICO,ARTESIA,3588210
120547,722186,-108.3238,31.915,NEW MEXICO,PLAYAS,3588040
22891,134112,-106.1955,32.8168,NEW MEXICO,(HMN)HOLOMAN AFB ALM,3588352
22893,134120,-107.9859,32.8555,NEW MEXICO,MIMBRES,3588041
22894,134125,-107.6847,33.35,NEW MEXICO,WINSTON,3587943
107806,646043,-106.07,36.07,NEW MEXICO,ALCALDE,3587566
29376,172406,-103.2,36.46,NEW MEXICO,CLAYTON,3588415
29376,172407,-103.13,36.15,NEW MEXICO,SEDAN,3588436
29376,172408,-103.27,35.97,NEW MEXICO,HAYDEN,3588410
120547,722187,-108.3362,31.971,NEW MEXICO,WILNA,3588040
29376,172409,-103.08,35.92,NEW MEXICO,AMISTAD,3588410
38198,222001,-103.19,34.41,NEW MEXICO,CLOVIS,3588101
38198,221999,-103.2,34.27,NEW MEXICO,CAMEO,3588130
22252,130886,-106.05,35.0,NEW MEXICO,MORIARTY,3587035
22252,130883,-106.7103,35.1305,NEW MEXICO,EL RANCHO ARPT,3587120
22252,130881,-107.0906,35.9647,NEW MEXICO,CUBA,3587013
22252,130880,-106.6759,35.1978,NEW MEXICO,ALAMEDA ARPT,3587114
22252,130879,-106.6863,35.1495,NEW MEXICO,PARADISE HILLS,3587120
22252,130878,-106.6865,35.1494,NEW MEXICO,PARADISE HILLS,3587120
46479,269435,-104.3832,32.8929,NEW MEXICO,ESPUELA,3588210
39085,226976,-103.9,34.65,NEW MEXICO,HOUSE,3588121
116724,701956,-106.3902,35.4284,NEW MEXICO,SAN FELIPE PUEBLO,3587001
116724,701956,-106.3904,35.4283,NEW MEXICO,SAN FELIPE PUEBLO,3587001
38198,222000,-103.15,34.45,NEW MEXICO,CLOVIS,3588101
116721,701952,-103.1956,34.7309,NEW MEXICO,BROADVIEW,3588135
39085,226974,-104.5844,33.8443,NEW MEXICO,MESA,3588201
39083,226979,-105.25,35.77,NEW MEXICO,SAPELLO,3587745
22182,130549,-103.087,33.52,NEW MEXICO,CROSSROADS,3588114
108048,647326,-106.05,34.9855,NEW MEXICO,MORIARTY,3587035
1185403,5441295,-106.78333,32.31667,NEW MEXICO,LAS CRUCES,3588005
38198,221991,-103.27,34.12,NEW MEXICO,PORTALES,3588130
38198,221992,-103.34,34.13,NEW MEXICO,PORTALES,3588130
38198,221993,-103.07,34.43,NEW MEXICO,(CVN)CLOVIS MUNI AIRPORT,3588135
38198,221995,-103.2,34.39,NEW MEXICO,CLOVIS,3588101
38198,221997,-103.2,34.27,NEW MEXICO,CAMEO,3588130
116721,701952,-103.21,34.73,NEW MEXICO,BROADVIEW,3588135
22252,130893,-106.6972,35.2412,NEW MEXICO,RIO RANCHO,3587124
29376,172425,-103.15,35.9055,NEW MEXICO,AMISTAD,3588410
29376,172426,-105.023,34.406,NEW MEXICO,VAUGHN,3588353
1139580,5307694,-104.68333,35.0,NEW MEXICO,SANTA ROSA,3588435
1139578,5307692,-106.2,35.06667,NEW MEXICO,EDGEWOOD,3587015
29424,172621,-103.25,35.11,NEW MEXICO,BARD,3588434
107723,645501,-103.0218,36.63,NEW MEXICO,SENECA,3588415
1199907,5476823,-104.5833,33.98333,NEW MEXICO,MESA,3588201
1199907,5476824,-103.3333,34.16667,NEW MEXICO,PORTALES,3588130
1199907,5476827,-104.5167,33.38333,NEW MEXICO,ROSWELL,3588203
1199907,5476827,-104.5167,33.35,NEW MEXICO,ROSWELL,3588203
29424,172622,-104.52,33.6695,NEW MEXICO,ROSWELL,3588201
29424,172623,-103.31,35.11,NEW MEXICO,SAN JON,3588434
29424,172615,-105.11,36.56,NEW MEXICO,UTE PARK,3587749
21970,129678,-106.67,31.95,NEW MEXICO,LA UNION,3588021
29424,173019,-106.1761,35.2031,NEW MEXICO,GOLDEN,3587015
1139575,5307687,-104.56667,34.93333,NEW MEXICO,SANTA ROSA,3588435
111118,662887,-107.3838,33.1232,NEW MEXICO,WILLIAMSBURG,3587942
98792,593516,-106.21,35.07,NEW MEXICO,EDGEWOOD,3587015
38198,222005,-103.75,33.84,NEW MEXICO,KENNA,3588116
38198,222006,-103.37,34.16,NEW MEXICO,PORTALES ARPT,3588130
38198,222007,-103.66,34.16,NEW MEXICO,FLOYD,3588118
38202,222009,-105.22,35.54,NEW MEXICO,ROMEROVILLE,3587701
38202,222011,-105.36,35.27,NEW MEXICO,VILLANUEVA,3587560
38202,222012,-105.21,35.42,NEW MEXICO,APACHE SPGS,3587701
21970,129675,-106.67,32.12,NEW MEXICO,VADO,3588072
34026,196995,-106.7356,32.3368,NEW MEXICO,(LRU)LAS CRUCES ARPT,3588011
1139582,5307696,-106.88333,33.83333,NEW MEXICO,SOCORRO,3587832
1139587,5307769,-105.06667,35.2,NEW MEXICO,DILIA,3587711
29376,172614,-105.2,34.6,NEW MEXICO,VAUGHN,3588353
34026,196994,-106.726,32.3458,NEW MEXICO,(LRU)LAS CRUCES ARPT,3588011
1139597,5306590,-103.61667,34.43333,NEW MEXICO,MELROSE,3588124
1139597,5306590,-103.61667,34.48333,NEW MEXICO,MELROSE,3588124
1139596,5306589,-103.73333000000001,36.3,NEW MEXICO,PASAMONTE,3588424
1139595,5306588,-104.18333,35.36667,NEW MEXICO,CONCHAS DAM,3588416
1139594,5306587,-104.1,35.86667,NEW MEXICO,ROY,3587746
1139594,5306586,-104.2,35.95,NEW MEXICO,ROY,3587743
1139594,5306585,-104.31667,36.08333,NEW MEXICO,MILLS,3587730
1139593,5307799,-106.56667,35.08333,NEW MEXICO,ALBUQUERQUE,3587108
1139586,5307768,-106.23333000000001,35.06667,NEW MEXICO,EDGEWOOD,3587015
116686,701703,-105.23,35.62,NEW MEXICO,SAN ANTONIO,3587701
116686,701698,-105.35,35.77,NEW MEXICO,SAN IGNACIO,3587745
116686,701694,-105.0,36.88,NEW MEXICO,VERMEJO PARK,3587740
116686,701684,-105.54,33.46,NEW MEXICO,(SRR)SIERRA BLANCA REG AIRPORT,3588338
116686,701682,-105.64,33.39,NEW MEXICO,ALTO,3588345
116686,701681,-105.68,33.33,NEW MEXICO,RUIDOSO,3588345
1139593,5306583,-106.56667,35.08333,NEW MEXICO,ALBUQUERQUE,3587108
1139592,5307798,-104.58333,36.4,NEW MEXICO,SPRINGER,3587747
1139592,5307797,-104.58333,36.38333,NEW MEXICO,SPRINGER,3587747
1139591,5307795,-104.2,35.91667,NEW MEXICO,ROY,3587743
1139590,5307794,-103.73333000000001,35.1,NEW MEXICO,TUCUMCARI,3588401
116686,701700,-105.24,35.66,NEW MEXICO,SAN ANTONIO,3587701
1188217,5447219,-104.11667,34.7,NEW MEXICO,FT SUMNER,3588121
22252,130894,-106.6968,35.2308,NEW MEXICO,RIO RANCHO,3587124
22252,130896,-105.98,35.1645,NEW MEXICO,STANLEY,3587056
37908,220636,-105.14,33.15,NEW MEXICO,RIVERSIDE,3588343
127595,765064,-106.25,35.1109,NEW MEXICO,EDGEWOOD,3587015
37908,220637,-104.91,36.51,NEW MEXICO,CIMARRON,3587714
37908,220638,-104.76,33.02,NEW MEXICO,FLYING H RANCH,3588203
37908,220641,-104.7883,33.0101,NEW MEXICO,FLYING H RANCH,3588203
37908,220642,-104.366,33.012,NEW MEXICO,LAKE ARTHUR,3588253
37908,220643,-105.2,34.6,NEW MEXICO,VAUGHN,3588353
37908,220644,-104.4,33.03,NEW MEXICO,LAKE ARTHUR,3588253
37908,220645,-104.59,36.45,NEW MEXICO,SPRINGER,3587747
37908,220646,-104.25,36.3,NEW MEXICO,ABBOTT,3587747
1195517,5465917,-105.5,32.76667,NEW MEXICO,WEED,3588354
37908,220647,-104.59,36.45,NEW MEXICO,SPRINGER,3587747
37936,220735,-103.94,35.8,NEW MEXICO,MOSQUERO,3587733
37936,220736,-103.13,36.16,NEW MEXICO,SEDAN,3588436
37936,220737,-103.13,36.15,NEW MEXICO,SEDAN,3588436
103642,619406,-103.17,36.45,NEW MEXICO,CLAYTON,3588415
38075,221400,-103.13,36.15,NEW MEXICO,SEDAN,3588436
38075,221412,-103.13,36.16,NEW MEXICO,SEDAN,3588436
38075,221413,-103.13,36.15,NEW MEXICO,SEDAN,3588436
38075,221414,-103.13,36.16,NEW MEXICO,SEDAN,3588436
38075,221415,-103.27,35.97,NEW MEXICO,HAYDEN,3588410
38075,221416,-103.33,35.11,NEW MEXICO,SAN JON,3588434
37908,220648,-104.25,36.3,NEW MEXICO,ABBOTT,3587747
38075,221418,-103.17,36.45,NEW MEXICO,CLAYTON,3588415
103642,619407,-103.07,36.63,NEW MEXICO,SENECA,3588415
110361,659315,-106.55,35.08,NEW MEXICO,KIRTLAND AFB,3587123
1188216,5447217,-104.36667,33.0,NEW MEXICO,LAKE ARTHUR,3588253
1188215,5447214,-107.0,34.36667,NEW MEXICO,BERNARDO,
1188214,5447213,-106.06667,36.05,NEW MEXICO,SAN JUAN PUEBLO,3587566
1188213,5447212,-106.5,35.3,NEW MEXICO,PLACITAS,3587043
1188213,5447211,-106.65,35.05,NEW MEXICO,ALBUQUERQUE INTL ARPT,3587102
1188213,5447210,-106.65,35.05,NEW MEXICO,ALBUQUERQUE INTL ARPT,3587102
1188213,5447209,-106.56667,35.08333,NEW MEXICO,ALBUQUERQUE,3587108
1188213,5447207,-106.65,35.05,NEW MEXICO,ALBUQUERQUE INTL ARPT,3587102
1188212,5447205,-104.16667,34.51667,NEW MEXICO,FT SUMNER,3588119
1188212,5447205,-104.18333,34.5,NEW MEXICO,FT SUMNER,3588119
110361,659316,-106.55,35.1,NEW MEXICO,KIRTLAND AFB,3587112
1184988,5437930,-104.4,32.83333,NEW MEXICO,ARTESIA,3588210
110205,659597,-104.1183,32.6473,NEW MEXICO,CARLSBAD,3588210
1184988,5437931,-104.25,32.41667,NEW MEXICO,CARLSBAD,3588220
37835,220138,-104.27,33.46,NEW MEXICO,ACME,3588201
37835,220139,-105.3314,33.4137,NEW MEXICO,SAN PATRICIO,3588336
37835,220140,-105.26,33.38,NEW MEXICO,HONDO,3588336
37835,220141,-105.14,33.35,NEW MEXICO,PICACHO,3588343
37835,220142,-105.5493,33.3682,NEW MEXICO,RUIDOSO DOWNS,3588346
37835,220142,-105.5473,33.3714,NEW MEXICO,RUIDOSO DOWNS,3588346
37836,220144,-104.8014,33.0,NEW MEXICO,LAKE ARTHUR,3588203
1140588,5309669,-105.65,32.96667,NEW MEXICO,CLOUDCROFT,3588317
1184988,5437931,-104.21667,32.43333,NEW MEXICO,CARLSBAD,3588220
22252,130895,-106.0003,35.1099,NEW MEXICO,STANLEY,3587056
38075,221419,-103.19,35.85,NEW MEXICO,AMISTAD,3588410
38075,221426,-103.17,36.45,NEW MEXICO,CLAYTON,3588415
38075,221441,-104.17,36.41,NEW MEXICO,FARLEY,3587747
110361,659320,-106.54,35.19,NEW MEXICO,ALBUQUERQUE,3587122
110361,659321,-106.56,35.18,NEW MEXICO,ALBUQUERQUE,3587113
38075,225313,-103.1661,35.9648,NEW MEXICO,AMISTAD,3588410
38075,225313,-103.194,35.8859,NEW MEXICO,AMISTAD,3588410
38075,225317,-103.1326,36.0731,NEW MEXICO,SEDAN,3588436
38075,225317,-103.0727,36.1991,NEW MEXICO,SEDAN,3588436
38075,236235,-103.1445,36.3571,NEW MEXICO,(CAO)CLAYTON ARPT,3588415
38075,236235,-103.1219,36.3889,NEW MEXICO,(CAO)CLAYTON ARPT,3588415
110361,659323,-107.1716,34.9806,NEW MEXICO,CORREO,3587026
38075,221439,-103.1118,36.3337,NEW MEXICO,(CAO)CLAYTON ARPT,3588415
110361,659402,-104.63,33.57,NEW MEXICO,ROSWELL,3588201
110477,659957,-108.7375,32.3591,NEW MEXICO,LORDSBURG,3588045
110482,659966,-105.8327,32.95,NEW MEXICO,HIGH ROLLS,3588325
110482,659967,-105.7424,32.9564,NEW MEXICO,CLOUDCROFT,3588317
117310,705515,-106.3,35.16,NEW MEXICO,SANDIA PARK,3587047
117310,705516,-106.36,35.17,NEW MEXICO,SANDIA PARK,3587047
110482,659968,-105.9549,32.9345,NEW MEXICO,BOLES,3588310
110482,659969,-105.8627,33.0035,NEW MEXICO,PINTO,3588337
110482,659970,-105.7764,33.1676,NEW MEXICO,MESCALERO,3588340
110483,659971,-107.6488,33.35,NEW MEXICO,WINSTON,3587943
22252,130897,-105.9446,35.15,NEW MEXICO,STANLEY,3587056
110477,659957,-108.7427,32.3557,NEW MEXICO,LORDSBURG,3588045
38075,221425,-103.17,36.45,NEW MEXICO,CLAYTON,3588415
38075,221439,-103.1307,36.2749,NEW MEXICO,SEDAN,3588415
110361,659319,-106.56,35.14,NEW MEXICO,ALBUQUERQUE,3587109
38075,221427,-103.17,36.45,NEW MEXICO,CLAYTON,3588415
38075,221428,-103.2,36.46,NEW MEXICO,CLAYTON,3588415
38075,221429,-103.17,36.28,NEW MEXICO,SEDAN,3588415
38075,221430,-103.22,35.61,NEW MEXICO,NARA VISA,3588430
38075,221431,-103.17,35.65,NEW MEXICO,NARA VISA,3588430
127573,764828,-106.24,35.1,NEW MEXICO,EDGEWOOD,3587015
127573,764825,-104.69,36.63,NEW MEXICO,DAWSON,3587728
127573,764824,-105.57,35.44,NEW MEXICO,SOUTH SAN YSIDRO,3587538
127573,764823,-105.2459,36.5373,NEW MEXICO,EAGLE NEST,3587718
127573,764823,-105.2861,36.531,NEW MEXICO,IDLEWILD,3587718
38075,221438,-103.1328,36.2305,NEW MEXICO,SEDAN,3588436
127573,764822,-105.27,36.53,NEW MEXICO,EAGLE NEST,3587710
38075,221433,-103.22,36.28,NEW MEXICO,SEDAN,3588415
38075,221434,-103.17,36.45,NEW MEXICO,CLAYTON,3588415
38075,221436,-103.18,35.87,NEW MEXICO,AMISTAD,3588410
38075,221437,-103.1445,36.3571,NEW MEXICO,(CAO)CLAYTON ARPT,3588415
38075,221437,-103.0024,36.5577,NEW MEXICO,SENECA,3588415
38075,221438,-103.1659,36.1056,NEW MEXICO,SEDAN,3588436
45352,263073,-106.0275,32.477,NEW MEXICO,OROGRANDE,
45352,263074,-105.9947,32.5237,NEW MEXICO,TURQUOISE,
110361,659317,-106.53,35.08,NEW MEXICO,CARNUEL,3587123
110361,659318,-106.56,35.12,NEW MEXICO,ALBUQUERQUE,3587110
38075,221432,-103.44,35.36,NEW MEXICO,LOGAN,3588426
100102,599667,-103.85,34.44,NEW MEXICO,TOLAR,3588124
20324,121092,-108.15,32.8,NEW MEXICO,FT BAYARD,3588041
1188888,5446315,-103.96667,35.76667,NEW MEXICO,MOSQUERO,3587746
126523,758396,-103.4402,32.696999999999996,NEW MEXICO,BUCKEYE,3588240
30071,175992,-103.2,34.41,NEW MEXICO,CLOVIS,3588101
30071,175991,-103.1,34.43,NEW MEXICO,(CVN)CLOVIS MUNI AIRPORT,3588101
30071,175990,-103.63,34.43,NEW MEXICO,MELROSE,3588124
30071,175988,-103.9,34.69,NEW MEXICO,HOUSE,3588121
38597,223899,-104.4493,33.2852,NEW MEXICO,(ROW)ROSWELL IND AIRPORT,3588230
31694,186184,-105.0627,36.1902,NEW MEXICO,OCATE,3587734
1188888,5446318,-104.06667,35.1,NEW MEXICO,MONTOYA,3588401
1188888,5446319,-103.73333000000001,34.76667,NEW MEXICO,RAGLAND,3588427
1188888,5446320,-103.73333000000001,34.76667,NEW MEXICO,RAGLAND,3588427
1188888,5446321,-103.76666999999999,34.7,NEW MEXICO,MC ALISTER,3588427
1188888,5446322,-103.26666999999999,34.45,NEW MEXICO,CLOVIS,3588101
1188888,5446323,-103.2,34.4,NEW MEXICO,CLOVIS,3588101
126467,758058,-106.7158,32.3231,NEW MEXICO,FT FILLMORE,3588011
99982,599587,-104.7,33.37,NEW MEXICO,ROSWELL,3588203
99982,599588,-104.34,34.95,NEW MEXICO,CUERVO,3588435
125366,751825,-103.5,36.66,NEW MEXICO,GRENVILLE,3588424
125366,751826,-103.19,35.92,NEW MEXICO,AMISTAD,3588410
125366,751827,-103.333,36.1593,NEW MEXICO,CLAPHAM,3588415
126523,758397,-103.4708,32.6435,NEW MEXICO,BUCKEYE,3588240
125366,751828,-103.33,36.27,NEW MEXICO,CLAPHAM,3588415
1188888,5446317,-104.53333,36.53333,NEW MEXICO,MAXWELL,3587747
99982,599586,-104.69,33.38,NEW MEXICO,ROSWELL,3588203
1188884,5446235,-103.15,35.83333,NEW MEXICO,AMISTAD,3588410
1188885,5446304,-106.21667,35.15,NEW MEXICO,STANLEY,3587015
1188886,5446307,-104.63333,33.28333,NEW MEXICO,ROSWELL,3588203
1188886,5446308,-104.36667,33.2,NEW MEXICO,DEXTER,3588230
1188886,5446310,-104.21667,33.01667,NEW MEXICO,HAGERMAN,3588203
1188888,5446312,-104.25,36.15,NEW MEXICO,MILLS,3587730
97221,584667,-104.68,34.969,NEW MEXICO,SANTA ROSA,3588435
1188888,5446313,-104.11667,36.01667,NEW MEXICO,ROY,3587743
1138550,5303878,-104.23333000000001,32.35,NEW MEXICO,CARLSBAD,3588220
1188888,5446313,-104.2,35.95,NEW MEXICO,ROY,3587743
1188888,5446314,-104.2,35.95,NEW MEXICO,ROY,3587743
99982,599584,-106.8925,34.0308,NEW MEXICO,(ONM)SOCORRO ARPT,3587801
1138553,5303939,-104.73333000000001,32.75,NEW MEXICO,HOPE,3588250
1138553,5303943,-104.23333000000001,32.41667,NEW MEXICO,CARLSBAD,3588220
1138553,5303944,-104.31667,32.48333,NEW MEXICO,CARLSBAD,3588220
1138553,5303945,-104.23333000000001,32.41667,NEW MEXICO,CARLSBAD,3588220
1138553,5303946,-104.38333,32.53333,NEW MEXICO,CARLSBAD,3588220
1138557,5303950,-102.96667,32.93333,NEW MEXICO,KNOWLES,
99982,599585,-106.8893,34.041,NEW MEXICO,SOCORRO,3587801
1188888,5446316,-104.18333,35.36667,NEW MEXICO,CONCHAS DAM,3588416
1207361,5501192,-104.3667,32.33333,NEW MEXICO,CARLSBAD,3588220
125366,751829,-105.21,33.37,NEW MEXICO,TINNIE,3588351
125367,751831,-103.73,36.91,NEW MEXICO,FOLSOM,3588419
27688,162688,-103.0861,34.2437,NEW MEXICO,CAMEO,3588130
27688,162685,-103.9,34.65,NEW MEXICO,HOUSE,3588121
1205007,5494604,-104.3667,32.31667,NEW MEXICO,CARLSBAD,3588220
1205007,5494603,-104.2333,32.41667,NEW MEXICO,CARLSBAD,3588220
1205007,5494603,-104.2667,32.38333,NEW MEXICO,CARLSBAD,3588220
1205007,5494602,-104.4,32.83333,NEW MEXICO,ARTESIA,3588210
1205007,5494601,-104.1667,32.35,NEW MEXICO,OTIS,3588220
1205007,5494600,-104.2667,32.25,NEW MEXICO,CARLSBAD ARPT,3588220
113554,679811,-105.21,35.98,NEW MEXICO,RAINSVILLE,3587736
99982,599589,-106.31,35.89,NEW MEXICO,LOS ALAMOS,3587544
99982,599590,-106.31,35.89,NEW MEXICO,LOS ALAMOS,3587544
1205007,5494599,-103.1,32.7,NEW MEXICO,HOBBS,3588240
1205007,5494598,-103.15,32.25,NEW MEXICO,EUNICE,3588252
99982,599596,-106.78,34.66,NEW MEXICO,BELEN,3587002
38597,223901,-104.37,33.2,NEW MEXICO,DEXTER,3588230
38597,223902,-105.68,35.49,NEW MEXICO,ROWE,3587562
1191319,5457054,-103.1333,32.7,NEW MEXICO,HOBBS,3588240
42024,245111,-105.23,33.37,NEW MEXICO,TINNIE,3588351
1191316,5457292,-103.2667,32.61667,NEW MEXICO,MONUMENT,3588265
27721,162805,-104.79,34.97,NEW MEXICO,SANTA ROSA,3588435
125367,751830,-103.13,36.14,NEW MEXICO,SEDAN,3588436
27721,162806,-104.62,34.83,NEW MEXICO,PUERTO DE LUNA,3588435
113554,679810,-104.37,33.19,NEW MEXICO,DEXTER,3588230
125367,751835,-103.4099,36.6573,NEW MEXICO,MT DORA,3588424
104746,627257,-103.24,35.14,NEW MEXICO,BARD,3588411
104746,627258,-103.33,35.11,NEW MEXICO,SAN JON,3588434
104746,627259,-103.21,35.13,NEW MEXICO,BARD,3588411
125367,751835,-103.3999,36.6547,NEW MEXICO,MT DORA,3588424
104746,627260,-103.7,34.49,NEW MEXICO,MELROSE,3588124
104746,627261,-103.81,34.55,NEW MEXICO,TOLAR,3588124
104748,627265,-103.9,34.65,NEW MEXICO,HOUSE,3588121
1205256,5495471,-103.1333,36.15,NEW MEXICO,SEDAN,3588436
1205256,5495470,-103.3167,36.15,NEW MEXICO,SEDAN,3588415
1205255,5495469,-103.7667,33.68333,NEW MEXICO,ELKINS,3588201
113554,679805,-105.23,32.9,NEW MEXICO,ELK,3588339
1205007,5494607,-104.6833,32.2,NEW MEXICO,LAKEWOOD,3588220
1205007,5494604,-104.2167,32.4,NEW MEXICO,CARLSBAD,3588220
113554,679806,-105.26,32.93,NEW MEXICO,ELK,3588339
38597,223900,-104.41,33.27,NEW MEXICO,DEXTER,3588230
113554,679807,-105.26,32.93,NEW MEXICO,ELK,3588339
113554,679808,-105.35,32.93,NEW MEXICO,ELK,3588339
113554,679809,-104.53,33.13,NEW MEXICO,DEXTER,3588232
27721,162807,-105.22,35.6,NEW MEXICO,LAS VEGAS,3587701
1191316,5457291,-103.5333,32.11667,NEW MEXICO,JAL,3588252
1207361,5501192,-104.2333,32.41667,NEW MEXICO,CARLSBAD,3588220
1207361,5501191,-104.3667,32.18333,NEW MEXICO,WHITES CITY,3588220
1181485,5427240,-106.88333,34.05,NEW MEXICO,SOCORRO,3587801
1181485,5427239,-106.76666999999999,34.66667,NEW MEXICO,BELEN,3587002
1181485,5427238,-106.56667,35.08333,NEW MEXICO,ALBUQUERQUE,3587108
1181485,5427237,-106.68333,35.18333,NEW MEXICO,ALAMEDA,3587114
1181485,5427236,-106.63333,35.28333,NEW MEXICO,CORRALES,3587144
1181485,5427235,-105.15,33.35,NEW MEXICO,PICACHO,3588343
1181485,5427234,-106.76666999999999,34.66667,NEW MEXICO,BELEN,3587002
1181484,5427233,-106.33333,35.15,NEW MEXICO,SANDIA PARK,3587047
1181484,5427232,-105.53333,34.65,NEW MEXICO,ENCINO,3588321
1181484,5427232,-105.45,34.65,NEW MEXICO,ENCINO,3588321
1181484,5427231,-104.23333000000001,34.46667,NEW MEXICO,FT SUMNER,3588119
99568,597469,-103.94,36.04,NEW MEXICO,YATES,3587743
1181484,5427230,-105.2,34.6,NEW MEXICO,VAUGHN,3588353
1181484,5427229,-105.56667,34.65,NEW MEXICO,ENCINO,3588321
1181484,5427228,-106.66667,35.25,NEW MEXICO,RIO RANCHO,3587124
1181484,5427227,-106.66667,35.16667,NEW MEXICO,PARADISE HILLS,3587120
1181484,5427227,-106.56667,35.08333,NEW MEXICO,PARADISE HILLS,3587108
1181484,5427225,-106.61667,35.08333,NEW MEXICO,ALBUQUERQUE,3587106
1181484,5427225,-106.63333,35.08333,NEW MEXICO,ALBUQUERQUE,3587106
1181485,5427241,-106.9,34.05,NEW MEXICO,ESCONDIDA,3587801
1181484,5427175,-106.61667,35.05,NEW MEXICO,ALBUQUERQUE,3587106
1181486,5427242,-104.35,33.08333,NEW MEXICO,GREENFIELD,3588232
1188879,5446215,-103.76666999999999,34.31667,NEW MEXICO,ELIDA,3588118
1188878,5447014,-103.41667,36.15,NEW MEXICO,SEDAN,3588415
1188878,5447015,-103.75,36.3,NEW MEXICO,GLADSTONE,3588424
1188879,5446200,-105.3,35.53333,NEW MEXICO,LAS VEGAS,3587701
1188879,5446201,-105.21667,35.5,NEW MEXICO,ANTON CHICO,3587701
1188879,5446202,-105.13333,35.21667,NEW MEXICO,SANTA ROSA,3587711
1188879,5446203,-104.43333,34.73333,NEW MEXICO,BELLVIEW,3588435
1188879,5446204,-103.11667,34.81667,NEW MEXICO,YESO,3588112
1188879,5446205,-104.61667,34.43333,NEW MEXICO,PLEASANT HILL,3588136
1188879,5446206,-103.06667,34.51667,NEW MEXICO,FT SUMNER,3588135
1188879,5446207,-104.38333,34.58333,NEW MEXICO,FT SUMNER,3588119
1188879,5446208,-104.23333000000001,34.7,NEW MEXICO,PLEASANT HILL,3588119
113700,680605,-104.734,34.1096,NEW MEXICO,DUNLAP,3588119
1188879,5446209,-103.06667,34.51667,NEW MEXICO,FT SUMNER,3588135
1188879,5446210,-104.23333000000001,34.46667,NEW MEXICO,CLOVIS,3588119
1188879,5446211,-103.13333,34.45,NEW MEXICO,FT SUMNER,3588101
1188879,5446212,-104.23333000000001,34.4,NEW MEXICO,TAIBAN,3588119
113700,680605,-104.7277,34.1138,NEW MEXICO,DUNLAP,3588119
1188879,5446213,-104.0,34.28333,NEW MEXICO,TAIBAN,3588134
1188879,5446214,-104.0,34.26667,NEW MEXICO,TOLAR,3588134
1181486,5427243,-104.36667,33.2,NEW MEXICO,DEXTER,3588230
1207361,5501191,-104.2333,32.41667,NEW MEXICO,WHITES CITY,3588220
99682,598314,-107.52,35.1234,NEW MEXICO,CUBERO,3587049
1188879,5446216,-103.65,33.93333,NEW MEXICO,DEXTER,3588116
1188882,5446224,-104.5,35.08333,NEW MEXICO,SANTA ROSA,3588417
1188883,5446225,-104.43333,37.01667,NEW MEXICO,RATON,
1188883,5446226,-103.9,35.6,NEW MEXICO,CONCHAS DAM,3587746
1188883,5446227,-103.65,35.51667,NEW MEXICO,MOSQUERO,3588426
1188883,5446228,-104.26666999999999,35.06667,NEW MEXICO,NEWKIRK,3588431
30071,175996,-103.9633,36.1171,NEW MEXICO,YATES,3587743
30071,175995,-104.01,34.44,NEW MEXICO,TAIBAN,3588134
1188883,5446229,-103.75,34.93333,NEW MEXICO,QUAY,3588401
1188883,5446230,-103.33333,33.95,NEW MEXICO,SAN JON,3588130
1188883,5446231,-103.31667,34.38333,NEW MEXICO,CANNON AFB,3588103
1188883,5446232,-103.05,33.73333,NEW MEXICO,LINGO,3588113
1188883,5446233,-103.58333,35.46667,NEW MEXICO,MOSQUERO,3588426
30071,175994,-103.98,34.42,NEW MEXICO,TAIBAN,3588134
115678,695167,-106.0201,33.0335,NEW MEXICO,TULAROSA,3588352
115678,695168,-105.9522,32.8,NEW MEXICO,(ALM)WH SANDS/ALAMAG,3588310
1188883,5446233,-103.58333,35.45,NEW MEXICO,MOSQUERO,3588426
115678,695169,-105.9453,32.9051,NEW MEXICO,ALAMOGORDO,3588310
1188883,5446234,-104.18333,35.36667,NEW MEXICO,CONCHAS DAM,3588416
1188884,5446235,-103.15,35.75,NEW MEXICO,AMISTAD,3588410
1188881,5446223,-104.5,35.08333,NEW MEXICO,SANTA ROSA,3588417
21418,126595,-104.36,36.33,NEW MEXICO,ABBOTT,3587747
1188880,5446222,-105.21667,35.6,NEW MEXICO,LAS VEGAS,3587701
1148990,5347518,-103.6,34.8,NEW MEXICO,FORREST,3588124
1188879,5446217,-104.36667,33.2,NEW MEXICO,SANTA ROSA,3588230
1188879,5447016,-104.36667,34.68333,NEW MEXICO,LAS VEGAS,3588119
1188880,5446218,-105.21667,35.5,NEW MEXICO,LAS VEGAS,3587701
1188880,5446219,-105.3,35.53333,NEW MEXICO,LAS VEGAS,3587701
129908,778195,-104.6,33.46,NEW MEXICO,ROSWELL,3588201
99766,598310,-103.79,34.3,NEW MEXICO,TOLAR,3588118
1181484,5427174,-106.86667,34.98333,NEW MEXICO,ALBUQUERQUE,3587121
1181483,5427173,-104.7,34.4,NEW MEXICO,YESO,3588136
1181234,5426482,-103.28333,32.86667,NEW MEXICO,LOVINGTON,3588260
1181234,5426481,-103.98333000000001,32.81667,NEW MEXICO,LOCO HILLS,3588255
1181234,5426479,-104.16667,32.35,NEW MEXICO,CARLSBAD,3588220
1181234,5426479,-104.23333000000001,32.41667,NEW MEXICO,CARLSBAD,3588220
97291,585886,-103.73,35.17,NEW MEXICO,TUCUMCARI,3588401
1181233,5426478,-103.16667,33.25,NEW MEXICO,TATUM,3588267
1181233,5426478,-103.31667,33.25,NEW MEXICO,TATUM,3588267
1181232,5426396,-104.15,32.21667,NEW MEXICO,MALAGA,3588220
1181232,5426395,-104.41667,32.06667,NEW MEXICO,WHITES CITY,3588220
1181231,5426394,-103.38333,32.93333,NEW MEXICO,LOVINGTON,3588260
1188880,5446220,-105.36667,35.26667,NEW MEXICO,VILLANUEVA,3587583
1188880,5446221,-105.3,35.06667,NEW MEXICO,ANTON CHICO,3587560
1188878,5447013,-103.76666999999999,36.46667,NEW MEXICO,GLADSTONE,3588424
1191314,5457155,-103.35,32.96667,NEW MEXICO,LOVINGTON,3588260
27505,161458,-105.25,35.91,NEW MEXICO,BUENA VISTA,3587712
41093,241442,-103.16,32.73,NEW MEXICO,HOBBS,3588240
41093,241443,-103.16,32.78,NEW MEXICO,HOBBS IND ARPT,3588242
41093,241444,-103.98,32.82,NEW MEXICO,LOCO HILLS,3588255
41098,239004,-108.1542,33.0317,NEW MEXICO,REDSTONE,3588061
125796,754421,-103.8468,32.3686,NEW MEXICO,LOVING,3588256
125923,754935,-104.39,34.62,NEW MEXICO,FT SUMNER,3588119
105638,633761,-106.6611,32.3124,NEW MEXICO,UNIVERSITY PARK,3588011
105638,633760,-107.6403,31.8401,NEW MEXICO,COLUMBUS,3588029
105638,633759,-106.762,32.2596,NEW MEXICO,MESILLA PARK,3588005
105638,633758,-106.7567,32.2836,NEW MEXICO,MESILLA PARK,3588001
105638,633757,-106.9038,32.4601,NEW MEXICO,LEASBURG,3588007
41136,241470,-103.13,32.62,NEW MEXICO,NADINE,3588240
41165,241126,-104.24,32.35,NEW MEXICO,(CNM)CARLSBAD ARPT,3588220
41165,241127,-104.24,32.3,NEW MEXICO,(CNM)CARLSBAD ARPT,3588220
41165,241128,-104.2,32.37,NEW MEXICO,OTIS,3588220
41165,241129,-103.98,32.82,NEW MEXICO,LOCO HILLS,3588255
41165,241130,-103.98,32.82,NEW MEXICO,LOCO HILLS,3588255
41165,241131,-103.65,33.08,NEW MEXICO,NORTH BUCKEYE,3588260
41165,241132,-104.37,32.52,NEW MEXICO,LAKEWOOD,3588220
41093,241441,-103.16,32.73,NEW MEXICO,HOBBS,3588240
1137427,5300310,-104.98333000000001,34.93333,NEW MEXICO,SANTA ROSA,3588435
41008,238675,-108.08,35.3,NEW MEXICO,BLUEWATER,3587045
1144513,5323030,-107.31667,32.96667,NEW MEXICO,CABALLO,3587931
29995,175688,-105.2136,33.4736,NEW MEXICO,HONDO,3588351
1189186,5451337,-104.13333,32.38333,NEW MEXICO,CARLSBAD,3588220
1189186,5451337,-104.28333,32.38333,NEW MEXICO,CARLSBAD,3588220
1189184,5451219,-104.21667,32.33333,NEW MEXICO,CARLSBAD ARPT,3588220
1189184,5451219,-104.31667,32.33333,NEW MEXICO,CARLSBAD ARPT,3588220
1189183,5451216,-103.13333,32.7,NEW MEXICO,HOBBS,3588240
1189183,5451215,-103.13333,32.75,NEW MEXICO,HOBBS,3588240
1189183,5451215,-103.3,32.63333,NEW MEXICO,HOBBS,3588265
115877,696361,-106.29,35.15,NEW MEXICO,SANDIA PARK,3587047
115877,696360,-106.26,35.17,NEW MEXICO,SANDIA PARK,3587047
115874,700741,-105.329,35.7468,NEW MEXICO,SAN IGNACIO,3587745
115874,696356,-105.4,35.61,NEW MEXICO,MINERAL HILL,3587701
115874,696355,-105.3942,35.5804,NEW MEXICO,SAN GERONIMO,3587701
115870,696342,-104.71,36.01,NEW MEXICO,WAGON MOUND,3587752
115870,696341,-104.66,36.0,NEW MEXICO,WAGON MOUND,3587752
115870,696338,-103.92,36.85,NEW MEXICO,FOLSOM,3588419
1137426,5300309,-104.68333,35.15,NEW MEXICO,SANTA ROSA,3588435
125665,753668,-103.88,36.8,NEW MEXICO,DES MOINES,3588418
1144510,5323027,-106.63333,31.866670000000003,NEW MEXICO,SUNLAND PARK,
1144514,5323031,-106.08333,32.4,NEW MEXICO,OROGRANDE,3588310
115899,696454,-107.51,34.42,NEW MEXICO,ALAMO,3587825
1137428,5300311,-104.18333,35.13333,NEW MEXICO,NEWKIRK,3588431
1137430,5300314,-103.2,34.46667,NEW MEXICO,CLOVIS,3588101
26764,156870,-104.23,32.4345,NEW MEXICO,CARLSBAD,3588220
26746,157086,-104.785,33.528,NEW MEXICO,ROSWELL,3588201
26746,156918,-104.52,33.5682,NEW MEXICO,ROSWELL,3588201
26746,156733,-104.19,35.4,NEW MEXICO,CONCHAS DAM,
26746,156731,-104.19,35.4,NEW MEXICO,CONCHAS DAM,
26746,156727,-104.52,33.5971,NEW MEXICO,ROSWELL,3588201
26746,156726,-105.17,33.5511,NEW MEXICO,ARABELA,3588351
1137446,5300415,-103.2,34.4,NEW MEXICO,CLOVIS,3588101
1137446,5300414,-103.2,34.46667,NEW MEXICO,CLOVIS,3588101
1137446,5300413,-103.08333,34.51667,NEW MEXICO,PLEASANT HILL,3588135
1137445,5300412,-105.76666999999999,35.58333,NEW MEXICO,GLORIETA,3587535
1137444,5300411,-104.2,35.95,NEW MEXICO,ROY,3587743
1137440,5300333,-105.11667,36.06667,NEW MEXICO,OJO FELIZ,3587735
105248,630825,-107.5671,32.9191,NEW MEXICO,HILLSBORO,3588042
1137443,5300410,-104.3,33.88333,NEW MEXICO,ELKINS,3588116
1137441,5300334,-104.23333000000001,34.21667,NEW MEXICO,FT SUMNER,3588119
1137441,5300335,-104.23333000000001,34.21667,NEW MEXICO,FT SUMNER,3588119
1137442,5300336,-104.61667,36.36667,NEW MEXICO,SPRINGER,3587747
1137442,5300337,-104.43333,36.9,NEW MEXICO,RATON,3587740
105340,631580,-105.24,35.52,NEW MEXICO,ROMEROVILLE,3587701
1137429,5300313,-103.41667,35.36667,NEW MEXICO,LOGAN,3588426
1137447,5300416,-103.33333,34.08333,NEW MEXICO,PORTALES,3588130
1137449,5300420,-103.61667,34.43333,NEW MEXICO,MELROSE,3588124
1137430,5300316,-103.13333,34.45,NEW MEXICO,PLEASANT HILL,3588101
1137452,5300424,-104.25,36.15,NEW MEXICO,MILLS,3587730
1137451,5300423,-104.23333000000001,34.25,NEW MEXICO,FT SUMNER,3588119
135567,813340,-105.9964,32.8008,NEW MEXICO,(ALM)WH SANDS/ALAMAG,3588311
1137431,5300318,-104.11667,36.41667,NEW MEXICO,ABBOTT,3587747
1137431,5300319,-103.96667,36.45,NEW MEXICO,GLADSTONE,3588422
1137431,5300320,-104.08333,36.45,NEW MEXICO,ABBOTT,3588422
1137432,5300321,-104.43333,36.61667,NEW MEXICO,RATON,3587740
1137432,5300322,-104.2,36.35,NEW MEXICO,ABBOTT,3587747
1137433,5300323,-104.9,36.68333,NEW MEXICO,CIMARRON,
1137433,5300325,-104.53333,36.56667,NEW MEXICO,MAXWELL,3587728
1137435,5300327,-105.13333,35.43333,NEW MEXICO,CERRILLOS,3587701
1137436,5300328,-104.0,34.43333,NEW MEXICO,TAIBAN,3588134
1137437,5300329,-105.38333,36.03333,NEW MEXICO,HOLMAN,3587723
1137438,5300330,-104.23333000000001,34.38333,NEW MEXICO,FT SUMNER,3588119
1137439,5300331,-104.15,34.4,NEW MEXICO,FT SUMNER,3588119
1137439,5300332,-104.4,35.03333,NEW MEXICO,CUERVO,3588417
1137451,5300422,-104.23333000000001,34.4,NEW MEXICO,FT SUMNER,3588119
105111,629989,-104.48,36.04,NEW MEXICO,WAGON MOUND,3587752
1137449,5300418,-103.53333,34.43333,NEW MEXICO,MELROSE,3588124
27505,161459,-105.22,35.6,NEW MEXICO,LAS VEGAS,3587701
115899,696455,-106.33,35.9,NEW MEXICO,LOS ALAMOS,3587544
29995,175693,-104.7878,34.2887,NEW MEXICO,BUCHANAN,3588119
1191308,5456964,-104.0333,32.58333,NEW MEXICO,CARLSBAD,3588210
1191308,5456964,-104.1333,32.5,NEW MEXICO,CARLSBAD,3588220
1191308,5456910,-104.0833,32.53333,NEW MEXICO,CARLSBAD,3588210
104880,628151,-104.4827,36.9757,NEW MEXICO,RATON,3587740
104882,628161,-105.47,35.01,NEW MEXICO,(CQC)CLINES CORNERS,3588321
104882,628162,-105.6,34.88,NEW MEXICO,(CQC)CLINES CORNERS,3588321
104882,628164,-105.47,35.01,NEW MEXICO,(CQC)CLINES CORNERS,3588321
41659,242788,-104.37700000000001,36.9845,NEW MEXICO,SUGARITE,3587740
27136,159217,-105.97,36.65,NEW MEXICO,TRES PIEDRAS,3587577
1191308,5456909,-104.15,32.55,NEW MEXICO,LAKEWOOD,3588220
1191308,5456909,-104.3667,32.63333,NEW MEXICO,LAKEWOOD,3588254
104960,628806,-104.23,32.4055,NEW MEXICO,CARLSBAD,3588220
104960,628811,-104.2204,32.452,NEW MEXICO,LA HUERTA,3588220
104960,635073,-104.1755,32.4389,NEW MEXICO,LA HUERTA,3588220
104964,628832,-103.13,32.7,NEW MEXICO,HOBBS,3588240
104964,628841,-103.13,32.7,NEW MEXICO,HOBBS,3588240
1137425,5300308,-104.18333,35.36667,NEW MEXICO,CONCHAS DAM,3588416
1144324,5320976,-103.15,35.83333,NEW MEXICO,AMISTAD,3588410
1144325,5320977,-103.43333,35.76667,NEW MEXICO,MOSQUERO,3588410
1186577,5445590,-104.05,32.56667,NEW MEXICO,ARTESIA,3588210
1144326,5320978,-103.31667,34.38333,NEW MEXICO,CANNON AFB,3588103
1186577,5445590,-104.4,32.96667,NEW MEXICO,ARTESIA,3588253
106059,636742,-103.1302,32.7276,NEW MEXICO,HOBBS,3588240
27505,161457,-105.22,35.6,NEW MEXICO,LAS VEGAS,3587701
1191314,5457154,-103.35,32.96667,NEW MEXICO,BUCKEYE,3588260
126308,757102,-106.5068,35.1008,NEW MEXICO,CARNUEL,3587112
1191314,5457154,-103.4833,32.75,NEW MEXICO,BUCKEYE,3588240
1191314,5457153,-103.2167,32.36667,NEW MEXICO,EUNICE,3588231
1144182,5318506,-103.01666999999999,32.43333,NEW MEXICO,EUNICE,
1144182,5318509,-103.26666999999999,32.11667,NEW MEXICO,JAL,3588252
1144184,5318591,-103.13333,32.7,NEW MEXICO,HOBBS,3588240
1144184,5318592,-103.15,32.43333,NEW MEXICO,EUNICE,3588231
1144184,5318593,-103.13333,32.7,NEW MEXICO,HOBBS,3588240
1144184,5318594,-103.26666999999999,32.11667,NEW MEXICO,JAL,3588252
1144185,5318595,-104.23333000000001,32.41667,NEW MEXICO,CARLSBAD,3588220
1144185,5318595,-104.26666999999999,32.38333,NEW MEXICO,CARLSBAD,3588220
99982,599608,-106.1079,35.9693,NEW MEXICO,ESPANOLA,3587532
1186577,5445493,-104.4,32.96667,NEW MEXICO,ARTESIA,3588253
1186577,5445494,-104.26666999999999,32.28333,NEW MEXICO,CARLSBAD ARPT,3588220
1186577,5445494,-104.36667,32.16667,NEW MEXICO,CARLSBAD ARPT,3588220
1144188,5318662,-103.13333,32.7,NEW MEXICO,HOBBS,3588240
1144198,5318844,-103.15,32.43333,NEW MEXICO,EUNICE,3588231
106059,636722,-103.26,32.8423,NEW MEXICO,HUMBLE CITY,3588242
115899,696456,-106.31,35.89,NEW MEXICO,LOS ALAMOS,3587544
31827,187439,-108.6242,35.3511,NEW MEXICO,PINEHAVEN CHURCH,3587305
38628,224060,-103.25,35.13,NEW MEXICO,BARD,3588411
1133695,5293402,-103.53333,32.11667,NEW MEXICO,JAL,3588252
115911,696623,-106.19,35.17,NEW MEXICO,EDGEWOOD,3587015
115911,696620,-105.7355,35.5669,NEW MEXICO,GLORIETA,3587535
29995,175697,-105.26100000000001,32.94,NEW MEXICO,ELK,3588339
115911,696618,-105.69,35.55,NEW MEXICO,PECOS,3587552
115911,696617,-105.68,35.57,NEW MEXICO,PECOS,3587552
115911,696616,-105.75,35.65,NEW MEXICO,GLORIETA,3587535
115899,696663,-104.8113,36.0819,NEW MEXICO,WAGON MOUND,3587752
115899,696662,-105.3677,33.4798,NEW MEXICO,LINCOLN,3588338
115899,696661,-105.38,33.49,NEW MEXICO,LINCOLN,3588338
115899,696477,-105.42,35.0,NEW MEXICO,DERRAMADERO,3588321
115899,696476,-105.4454,35.0009,NEW MEXICO,(CQC)CLINES CORNERS,3588321
115899,696470,-105.38,35.0,NEW MEXICO,DERRAMADERO,3588321
115899,696468,-105.22,35.6,NEW MEXICO,LAS VEGAS,3587701
115899,696467,-104.59,36.36,NEW MEXICO,SPRINGER,3587747
115899,696465,-105.23,33.37,NEW MEXICO,TINNIE,3588351
115899,696459,-105.25,35.77,NEW MEXICO,SAPELLO,3587745
115899,696458,-106.32,35.89,NEW MEXICO,LOS ALAMOS,3587544
115899,696457,-106.31,35.89,NEW MEXICO,LOS ALAMOS,3587544
1133695,5293403,-103.36667,32.26667,NEW MEXICO,JAL,3588252
1144327,5320979,-106.68333,34.91667,NEW MEXICO,ISLETA,3587105
115911,696624,-106.12,34.67,NEW MEXICO,ESTANCIA,3587016
115911,696625,-106.15,34.76,NEW MEXICO,ESTANCIA,3587016
1189196,5450489,-103.66667,31.95,NEW MEXICO,JAL,
1189196,5450487,-104.3,32.83333,NEW MEXICO,ARTESIA,3588210
1189196,5450486,-104.36667,32.63333,NEW MEXICO,LAKEWOOD,3588254
1189196,5450485,-103.35,32.93333,NEW MEXICO,LOVINGTON,3588260
1189195,5450483,-103.2,32.76667,NEW MEXICO,HOBBS,3588240
1189195,5450483,-103.11667,32.68333,NEW MEXICO,HOBBS,3588240
1189187,5451426,-104.18333,32.38333,NEW MEXICO,CARLSBAD,3588220
1189187,5451346,-104.06667,32.21667,NEW MEXICO,MALAGA,3588263
1189187,5451346,-104.06667,32.2,NEW MEXICO,MALAGA,3588263
1189186,5451344,-103.9,32.3,NEW MEXICO,CARLSBAD,3588256
1189186,5451343,-103.93333,32.31667,NEW MEXICO,CARLSBAD,3588256
1189186,5451342,-103.25,32.5,NEW MEXICO,EUNICE,3588231
1189186,5451342,-103.3,32.43333,NEW MEXICO,EUNICE,3588231
1189186,5451341,-103.86667,32.28333,NEW MEXICO,CARLSBAD,3588256
1189186,5451341,-103.8,32.41667,NEW MEXICO,CARLSBAD,3588220
1189186,5451339,-104.23333000000001,32.4,NEW MEXICO,CARLSBAD,3588220
1189186,5451338,-104.23333000000001,32.36667,NEW MEXICO,CARLSBAD,3588220
115911,696651,-103.5,36.66,NEW MEXICO,GRENVILLE,3588424
115911,696650,-105.65,33.39,NEW MEXICO,ALTO,3588345
1133695,5293404,-103.43333,32.11667,NEW MEXICO,JAL,3588252
1188878,5447012,-103.76666999999999,36.46667,NEW MEXICO,GLADSTONE,3588424
28849,169649,-104.44,36.81,NEW MEXICO,VAN HOUTEN,3587740
38528,231410,-104.55,32.95,NEW MEXICO,ARTESIA ARPT,3588253
104480,625924,-103.301,34.2152,NEW MEXICO,PORTALES,3588130
104480,625923,-103.36,34.18,NEW MEXICO,PORTALES,3588130
104480,625921,-103.38,34.18,NEW MEXICO,PORTALES ARPT,3588130
30141,176505,-104.44,36.9,NEW MEXICO,RATON,3587740
100095,599627,-106.59,35.33,NEW MEXICO,BERNALILLO,3587144
38528,231419,-104.1694,32.3688,NEW MEXICO,CARLSBAD,3588220
100102,599665,-104.0,34.14,NEW MEXICO,TAIBAN,3588134
38528,231420,-104.4,32.6853,NEW MEXICO,ARTESIA,3588210
32271,189039,-107.8233,35.0402,NEW MEXICO,SAN RAFAEL,3587051
32271,189041,-108.19,36.75,NEW MEXICO,FARMINGTON,3587401
32271,189042,-106.9531,33.7947,NEW MEXICO,SAN ANTONIO,3587832
38528,231421,-104.73,32.829,NEW MEXICO,HOPE,3588250
100095,599628,-105.23,32.9,NEW MEXICO,ELK,3588339
38535,229652,-103.7842,32.42,NEW MEXICO,CARLSBAD,3588220
38535,229653,-103.48,32.78,NEW MEXICO,BUCKEYE,3588260
97409,586146,-103.23,34.52,NEW MEXICO,RANCHVALE,3588101
97409,586145,-103.2,34.41,NEW MEXICO,CLOVIS,3588101
114080,683133,-104.4065,32.5993,NEW MEXICO,LAKEWOOD,3588210
114080,683134,-104.4,32.584,NEW MEXICO,ARTESIA,3588220
100095,599626,-106.64,35.25,NEW MEXICO,CORRALES,3587124
19896,118410,-105.74,33.98,NEW MEXICO,LUNA,3588301
100095,599621,-108.88,33.32,NEW MEXICO,GLENWOOD,3588039
104480,625927,-103.16,34.42,NEW MEXICO,CLOVIS,3588101
104480,625926,-103.2,34.41,NEW MEXICO,CLOVIS,3588101
100095,599622,-105.35,34.17,NEW MEXICO,(4CR)CORONA,3588318
100095,599623,-108.87,33.28,NEW MEXICO,PLEASANTON,3588039
126798,760078,-105.23,36.13,NEW MEXICO,GUADALUPITA,3587722
38535,229666,-103.06,33.26,NEW MEXICO,GLADIOLA,3588267
100095,599624,-105.36,33.48,NEW MEXICO,LINCOLN,3588338
100102,599664,-103.79,34.3,NEW MEXICO,TOLAR,3588118
126798,760081,-105.25,35.91,NEW MEXICO,BUENA VISTA,3587712
19896,118360,-105.25,35.91,NEW MEXICO,BUENA VISTA,3587712
126798,760082,-105.25,35.77,NEW MEXICO,SAPELLO,3587745
126801,760228,-105.95,35.65,NEW MEXICO,SANTA FE,3587505
114080,683137,-104.2543,32.4405,NEW MEXICO,CARLSBAD,3588220
114080,683136,-104.37,32.63,NEW MEXICO,LAKEWOOD,3588254
19896,118408,-105.39,35.01,NEW MEXICO,PALMA,3588321
104339,624924,-108.87,33.27,NEW MEXICO,PLEASANTON,3588039
19896,118409,-105.59,34.93,NEW MEXICO,(CQC)CLINES CORNERS,3588321
100095,599625,-105.14,35.2,NEW MEXICO,ANTON CHICO,3587711
104480,625928,-103.09,34.52,NEW MEXICO,PLEASANT HILL,3588135
100102,599663,-103.97,34.34,NEW MEXICO,TAIBAN,3588134
38535,229655,-103.48,32.8958,NEW MEXICO,BUCKEYE,3588260
1197339,5472505,-104.5667,32.8,NEW MEXICO,HOPE,3588210
1197339,5472504,-103.3333,33.26667,NEW MEXICO,TATUM,3588267
1197336,5473818,-104.3833,32.53333,NEW MEXICO,LAKEWOOD,3588220
1197336,5473816,-104.3833,32.3,NEW MEXICO,WHITES CITY,3588220
1197336,5473816,-104.2333,32.41667,NEW MEXICO,WHITES CITY,3588220
1197325,5469414,-103.1333,32.7,NEW MEXICO,HOBBS,3588240
30298,177305,-103.3402,32.4965,NEW MEXICO,EUNICE,3588231
38528,231409,-104.55,32.95,NEW MEXICO,ARTESIA ARPT,3588253
126860,760430,-106.55,35.18,NEW MEXICO,ALBUQUERQUE,3587122
42546,248212,-106.8163,32.3507,NEW MEXICO,LAS CRUCES,3588007
100095,599631,-103.31,34.19,NEW MEXICO,PORTALES,3588130
99280,596259,-104.59,33.42,NEW MEXICO,ROSWELL,3588201
31474,184874,-104.69,35.53,NEW MEXICO,TRUJILLO,3587701
100095,599632,-103.34,34.17,NEW MEXICO,PORTALES,3588130
100095,599634,-103.21,34.29,NEW MEXICO,CAMEO,3588130
31474,185099,-106.3849,35.0771,NEW MEXICO,TIJERAS,3587059
99280,596260,-103.58,35.04,NEW MEXICO,(TCC)TUCUMCARI ARPT,3588401
1197342,5472510,-104.7,32.2,NEW MEXICO,QUEEN,3588220
99280,596258,-104.69,33.38,NEW MEXICO,ROSWELL,3588203
99274,596242,-105.7681,33.3598,NEW MEXICO,MESCALERO,3588340
99274,596242,-105.7647,33.3608,NEW MEXICO,MESCALERO,3588340
98992,594430,-107.6413,33.303000000000004,NEW MEXICO,CHLORIDE,3587943
98994,594442,-107.6811,33.3433,NEW MEXICO,CHLORIDE,3587943
98994,594448,-107.6435,33.3427,NEW MEXICO,WINSTON,3587943
99004,594457,-108.7087,32.3498,NEW MEXICO,LORDSBURG,3588045
99004,594459,-107.7512,32.2117,NEW MEXICO,(DMN)DEMING ARPT,3588030
99004,594460,-107.7113,32.1812,NEW MEXICO,(DMN)DEMING ARPT,3588030
99004,594461,-107.7582,32.2664,NEW MEXICO,DEMING,3588030
99004,594469,-106.6973,31.8723,NEW MEXICO,STRAUSS,3588008
100102,599662,-104.5644,33.6793,NEW MEXICO,ACME,3588201
38535,229663,-103.1451,33.2614,NEW MEXICO,GLADIOLA,3588267
1197324,5469410,-103.3167,33.25,NEW MEXICO,TATUM,3588267
100095,599638,-103.28,34.13,NEW MEXICO,PORTALES,3588130
100095,599637,-105.17,32.88,NEW MEXICO,DUNKEN,3588250
100095,599629,-103.32,34.17,NEW MEXICO,PORTALES,3588130
100095,599630,-103.31,34.17,NEW MEXICO,PORTALES,3588130
97384,585887,-103.58,36.66,NEW MEXICO,GRENVILLE,3588418
100095,599636,-106.78,33.92,NEW MEXICO,KINNEY WELLS,3587832
99270,596233,-106.6976,31.8717,NEW MEXICO,STRAUSS,3588008
100102,599661,-106.9,34.06,NEW MEXICO,SOCORRO,3587801
104480,625929,-103.07,34.59,NEW MEXICO,PLEASANT HILL,3588135
100095,599635,-104.1,34.6,NEW MEXICO,FT SUMNER,3588119
38528,231415,-104.74,32.82,NEW MEXICO,HOPE,3588250
38528,231418,-104.75,32.81,NEW MEXICO,HOPE,3588250
38528,231417,-104.74,32.82,NEW MEXICO,HOPE,3588250
1188877,5447011,-104.43333,37.0,NEW MEXICO,RATON,
30111,176321,-106.27,35.78,NEW MEXICO,FRIJOLES,3587041
30111,176318,-105.95,35.68,NEW MEXICO,SANTA FE,3587505
21317,126008,-104.79,33.945,NEW MEXICO,MESA,3588201
38528,231411,-104.17,32.4,NEW MEXICO,OTIS,3588220
104480,625930,-103.725,35.1576,NEW MEXICO,TUCUMCARI,3588401
38528,231416,-103.53,32.55,NEW MEXICO,MONUMENT,
30111,176322,-105.5832,34.65,NEW MEXICO,ENCINO,3588321
38528,231412,-104.43,32.93,NEW MEXICO,ESPUELA,3588210
38528,231413,-104.54,32.94,NEW MEXICO,ARTESIA ARPT,3588253
30111,176319,-106.31,35.89,NEW MEXICO,LOS ALAMOS,3587544
38527,233858,-103.19,32.11,NEW MEXICO,JAL,3588252
38527,233860,-104.0058,32.82,NEW MEXICO,LOCO HILLS,3588255
100095,599617,-108.87,33.28,NEW MEXICO,PLEASANTON,3588039
38527,233841,-103.19,32.11,NEW MEXICO,JAL,3588252
100095,599616,-108.88,33.27,NEW MEXICO,PLEASANTON,3588039
30111,176323,-104.52,33.4307,NEW MEXICO,ROSWELL,3588201
1181489,5427248,-104.6,33.38333,NEW MEXICO,ROSWELL,3588203
38528,231414,-104.24,32.4,NEW MEXICO,CARLSBAD,3588220
38527,233842,-104.74,32.85,NEW MEXICO,HOPE,3588250
113903,682191,-103.99,36.78,NEW MEXICO,CAPULIN,3588414
1197106,5469743,-105.0333,35.75,NEW MEXICO,LAS VEGAS,3587745
100095,599620,-108.8,33.4,NEW MEXICO,MOGOLLON,3588039
1197105,5469742,-106.2,35.25,NEW MEXICO,EDGEWOOD,3587047
100095,599619,-108.88,33.32,NEW MEXICO,GLENWOOD,3588039
1181516,5427328,-106.6,32.41667,NEW MEXICO,ORGAN,3588011
38527,233854,-103.75,32.85,NEW MEXICO,MALJAMAR,3588264
100095,599618,-108.88,33.31,NEW MEXICO,GLENWOOD,3588039
1137534,5301429,-107.58333,32.7,NEW MEXICO,HILLSBORO,3588042
38527,233857,-103.35,32.93,NEW MEXICO,LOVINGTON,3588260
1197105,5469741,-105.2167,35.26667,NEW MEXICO,GOLDEN,3587711
30111,176320,-105.95,35.68,NEW MEXICO,SANTA FE,3587505
1197106,5469743,-105.2167,35.8,NEW MEXICO,LAS VEGAS,3587745
1197106,5469744,-105.3,35.38333,NEW MEXICO,CHAPELLE,3587569
1197107,5469746,-103.7333,35.16667,NEW MEXICO,TUCUMCARI,3588401
114080,683141,-103.7328,32.42,NEW MEXICO,CARLSBAD,3588220
42674,248881,-104.43,32.89,NEW MEXICO,ILLINOIS CAMP,3588210
38528,231408,-104.24,32.33,NEW MEXICO,(CNM)CARLSBAD ARPT,3588220
38527,233840,-103.18,32.12,NEW MEXICO,JAL,3588252
42674,248883,-104.6,32.06,NEW MEXICO,QUEEN,3588220
38438,223172,-103.9,35.68,NEW MEXICO,BELL RANCH,3587746
114080,683140,-104.2058,32.4405,NEW MEXICO,CARLSBAD,3588220
38527,233842,-104.4,32.8011,NEW MEXICO,ARTESIA,3588210
