EPISODE_ID,EVENT_ID,LONGITUDE,LATITUDE,STATE,LOCATION,ZIPCODE
131963,789514,-122.9666,44.7362,OREGON,JEFFERSON,4197392
76473,462686,-121.1695,43.37,OREGON,FT ROCK,
1192070,5455598,-121.2833,44.16667,OREGON,TUMALO,4197701
1217989,5526073,-120.8333,44.31667,OREGON,PRINEVILLE,4197754
1192071,5455599,-121.3,44.01667,OREGON,BEND,4197702
11099,61049,-122.9,44.5734,OREGON,LEBANON,4197355
46909,272912,-122.835,44.8643,OREGON,SHAW,4197325
1192073,5455601,-121.3167,44.03333,OREGON,BEND,4197702
106834,641336,-116.9,45.67,OREGON,IMNAHA,4197846
40956,238388,-117.4506,45.48,OREGON,LOSTINE,4197857
1192074,5455602,-121.3,44.06667,OREGON,BEND,4197701
1192075,5455603,-121.3,44.01667,OREGON,BEND,4197702
39009,226346,-118.8374,45.4864,OREGON,PILOT ROCK,4197868
1192076,5455604,-121.3167,44.03333,OREGON,BEND,4197702
1192072,5455600,-121.3333,44.01667,OREGON,BEND,4197702
1122677,5267005,-119.05,43.58333,OREGON,BURNS,4197720
5025,29017,-123.02,44.95,OREGON,SALEM,4197301
87563,528530,-118.36,45.43,OREGON,KAMELA,
76468,462703,-123.0225,42.2166,OREGON,RUCH,4197530
87895,530594,-121.87,42.16,OREGON,WEST KLAMATH,4197601
106832,641333,-117.0445,45.5045,OREGON,ROBERTS BUTTE,4197828
1209623,5506998,-117.2,45.96667,OREGON,PARADISE,4197828
76471,462715,-122.7524,42.2295,OREGON,TALENT,4197540
1192065,5455293,-118.1833,45.8,OREGON,TOLLGATE,4197886
64328,385547,-123.39,42.74,OREGON,GLENDALE,4197442
44089,256232,-121.37,45.1055,OREGON,PINE GROVE,4197037
1192069,5455297,-121.25,44.03333,OREGON,BEND,4197702
1093513,5139140,-117.81667,45.3,OREGON,COVE,4197824
106833,641361,-119.01,44.91,OREGON,RITTER,4197856
1093513,5139141,-117.93333,45.56667,OREGON,ELGIN,4197827
1093513,5139142,-117.86667,45.2,OREGON,UNION,4197883
87563,528531,-118.49,45.22,OREGON,STARKEY,
5028,29022,-122.27,45.4,OREGON,SANDY,4197055
1161413,5333214,-120.16667,45.23333,OREGON,CONDON,4197823
106833,641334,-118.0,45.49,OREGON,SUMMERVILLE,4197876
1192077,5455605,-121.4,43.88333,OREGON,SUNRIVER,4197707
1161415,5333547,-119.5,45.58333,OREGON,LEXINGTON,4197839
1161416,5333548,-119.31667,45.81667,OREGON,HERMISTON,4197838
61718,369237,-123.3051,43.1713,OREGON,DIXONVILLE,4197470
78532,472478,-121.31,44.07,OREGON,BEND,4197701
76473,462686,-121.2,43.36,OREGON,FT ROCK,4197735
76473,462689,-121.9375,42.1166,OREGON,KENO,4197627
106834,641362,-117.43,45.49,OREGON,LOSTINE,4197857
1217988,5526068,-120.8333,44.3,OREGON,PRINEVILLE,4197754
1217988,5526067,-120.8667,44.31667,OREGON,PRINEVILLE,4197754
1217987,5526064,-120.95,44.3,OREGON,POWELL BUTTE,4197753
1217988,5526066,-120.8333,44.31667,OREGON,PRINEVILLE,4197754
1217987,5526065,-121.0833,44.2,OREGON,POWELL BUTTE,4197753
78532,472497,-119.3,45.23,OREGON,LENA,4197836
117100,704505,-123.2154,45.8408,OREGON,VERNONIA ARPT,4197064
1212313,5511850,-123.0833,44.05,OREGON,EUGENE,4197401
11099,61055,-123.08,44.63,OREGON,ALBANY,4197322
11099,61052,-122.9,44.5589,OREGON,LEBANON,4197355
11099,61050,-122.4849,45.53,OREGON,PORTLAND,4197230
1161420,5333552,-121.31667,44.45,OREGON,CULVER,4197760
1218004,5526189,-117.9333,45.58333,OREGON,ELGIN,4197827
1212313,5511851,-122.9,44.53333,OREGON,LEBANON,4197355
78532,472477,-121.5,43.91,OREGON,BEND SUNRIVER ARPT,
1217989,5526070,-120.8333,44.35,OREGON,PRINEVILLE,4197754
1161416,5333548,-119.35,45.83333,OREGON,HERMISTON,4197838
1161417,5333549,-121.21667,44.51667,OREGON,CULVER,4197734
1192078,5455606,-121.3,43.85,OREGON,BEND,
1192084,5455612,-121.4833,43.73333,OREGON,LA PINE,4197739
1217989,5526072,-120.8833,44.28333,OREGON,PRINEVILLE ARPT,4197754
84660,511249,-118.84,44.99,OREGON,DALE,
1217989,5526071,-120.8167,44.28333,OREGON,PRINEVILLE,4197754
1161417,5333549,-121.18333,44.73333,OREGON,CULVER,4197741
1161419,5333551,-121.3,44.45,OREGON,CULVER,4197760
79831,478454,-117.05,42.97,OREGON,JORDAN VLY,4197910
1161257,5374844,-121.51666999999999,45.71667,OREGON,HOOD RIVER,4197031
44089,256234,-121.52,43.76,OREGON,STEARNS,4197739
44089,256235,-121.48,43.72,OREGON,LA PINE,4197739
44089,256236,-121.49,43.82,OREGON,BEND SUNRIVER ARPT,4197707
1137862,5304946,-117.05,42.96667,OREGON,JORDAN VLY,4197910
84660,511248,-118.93,44.99,OREGON,DALE,4197880
79831,478454,-117.1199,42.9188,OREGON,JORDAN VLY,4197910
78532,472470,-121.77,43.91,OREGON,LAVA LAKE,4197701
46909,272912,-122.8789,44.8398,OREGON,AUMSVILLE,4197325
1122677,5267006,-119.05,43.58333,OREGON,BURNS,4197720
1161256,5374843,-122.46667,43.75,OREGON,OAKRIDGE,4197492
1116594,5251464,-118.41667,44.91667,OREGON,GRANITE,
30310,177374,-123.1401,42.1965,OREGON,APPLEGATE,4197530
1209589,5506797,-117.15,45.61667,OREGON,ROBERTS BUTTE,4197828
1139360,5307485,-118.83333,45.7,OREGON,(PDT)PENDLETON ARPT,4197801
1139339,5307253,-120.05,44.98333,OREGON,KINZUA,4197830
1139338,5307252,-121.63333,44.46667,OREGON,CAMP SHERMAN,
1139337,5307251,-121.38333,45.23333,OREGON,WAMIC,4197063
1139334,5307184,-121.01666999999999,44.25,OREGON,POWELL BUTTE,4197753
1218002,5526184,-118.45,45.5,OREGON,MEACHAM,4197859
1139333,5307183,-121.01666999999999,44.08333,OREGON,ALFALFA,4197701
1179959,5422527,-116.83333,45.5,OREGON,IMNAHA,4197842
1139332,5307182,-118.08333,45.33333,OREGON,LA GRANDE,4197850
30310,177371,-122.8376,42.5369,OREGON,EAGLE PT,4197524
30310,177366,-122.8,42.47,OREGON,EAGLE PT,4197524
30310,177366,-122.8804,42.38,OREGON,CENTRAL PT,4197504
5029,29024,-122.527,45.5289,OREGON,(PDX)PORTLAND INTL A,4197230
1179958,5422526,-118.41667,44.83333,OREGON,GRANITE,4197877
1188658,5446139,-117.61667,43.86667,OREGON,HARPER,4197906
1174499,5410224,-117.81667,44.86667,OREGON,BAKER,4197814
30310,177363,-122.13,42.9,OREGON,CRATER LAKE,4197604
1139329,5307174,-117.28333,45.43333,OREGON,ENTERPRISE,4197828
52390,312997,-117.92,45.6,OREGON,ELGIN,4197827
1139328,5307173,-119.71667,45.83333,OREGON,BOARDMAN,4197818
1179961,5422529,-116.9,45.31667,OREGON,ENTERPRISE,4197842
1116595,5251465,-118.63333,45.05,OREGON,UKIAH,
40945,238349,-117.93,45.03,OREGON,NORTH POWDER,4197867
30310,177374,-123.03,42.23,OREGON,RUCH,4197530
30310,177372,-122.7,42.2145,OREGON,ASHLAND,4197520
40945,238348,-117.971,45.03,OREGON,NORTH POWDER,4197867
1217994,5526079,-120.1167,44.73333,OREGON,SERVICE CREEK,4197874
40945,238348,-117.93,45.03,OREGON,NORTH POWDER,4197867
1217994,5526080,-119.9667,44.71667,OREGON,SERVICE CREEK,4197874
1217999,5526179,-121.7167,43.98333,OREGON,SUNRIVER,4197701
1218000,5526180,-120.8167,44.28333,OREGON,PRINEVILLE,4197754
52390,313003,-117.41,45.98,OREGON,TROY,4197828
1116597,5251467,-118.51666999999999,45.98333,OREGON,UMAPINE,4197862
1158944,5378320,-116.96667,44.03333,OREGON,ONTARIO,4197914
52390,313001,-117.45,45.95,OREGON,TROY,4197828
1209585,5506793,-118.05,45.48333,OREGON,ELGIN,4197876
18233,107789,-122.113,45.5769,OREGON,ONEONTA,4197014
1218000,5526181,-120.8333,44.31667,OREGON,PRINEVILLE,4197754
52390,313000,-117.43,45.88,OREGON,TROY,4197828
1209586,5506794,-117.2,45.96667,OREGON,PARADISE,4197828
1218000,5526182,-120.8333,44.31667,OREGON,PRINEVILLE,4197754
1174501,5410229,-117.68333,43.93333,OREGON,WESTFALL,4197920
1221256,5534616,-122.6,45.35,OREGON,OREGON CITY,4197045
1209586,5506794,-117.2167,45.95,OREGON,PARADISE,4197828
1139327,5307172,-120.75,44.73333,OREGON,ASHWOOD,4197711
1188712,5446650,-122.7,42.2,OREGON,ASHLAND,4197520
44926,260341,-124.4682,42.6711,OREGON,PORT ORFORD,
116799,702336,-121.29,44.87,OREGON,KAH-NEE-TA,4197761
30311,177380,-122.27,42.54,OREGON,ROCKY PT,4197601
1217991,5526075,-120.15,44.9,OREGON,FOSSIL,4197830
1209596,5506809,-119.6667,45.83333,OREGON,BOARDMAN,4197818
1196445,5470230,-120.7667,42.96667,OREGON,SUMMER LAKE,4197640
1209596,5506809,-119.6833,45.83333,OREGON,BOARDMAN,4197818
1196446,5470231,-121.65,43.41667,OREGON,CRESCENT,
1212313,5511849,-122.2667,45.4,OREGON,SANDY,4197055
95,257,-124.25,43.42,OREGON,(OTH)NORTH BEND ARPT,4197459
1116593,5251410,-117.16667,45.35,OREGON,JOSEPH,4197846
1116592,5251409,-117.93333,45.03333,OREGON,NORTH POWDER,4197867
1209621,5506996,-121.15,44.11667,OREGON,BEND,4197701
53577,320870,-121.31,44.07,OREGON,BEND,4197701
53577,320872,-121.33,44.06,OREGON,BEND,4197701
38138,221706,-121.18,44.28,OREGON,REDMOND,4197756
38136,221701,-118.65,45.67,OREGON,MISSION,4197801
38136,221700,-118.8,45.67,OREGON,PENDLETON,4197801
1209622,5506997,-118.05,45.48333,OREGON,ELGIN,4197876
38136,221695,-119.0,45.45,OREGON,VINSON,4197868
1144841,5322558,-124.28333,42.05,OREGON,BROOKINGS,4197415
1116591,5251408,-118.08333,45.03333,OREGON,NORTH POWDER,4197867
116799,702338,-120.43,44.93,OREGON,CLARNO,4197830
19082,112416,-122.9,43.93,OREGON,TRENT,4197455
1209595,5506808,-119.9,45.71667,OREGON,BOARDMAN,4197818
19082,112417,-122.84,43.92,OREGON,DEXTER,4197431
1188713,5446651,-122.78333,42.25,OREGON,TALENT,4197540
1188714,5446727,-121.93333,42.13333,OREGON,KENO,4197601
1218004,5526186,-118.0333,45.56667,OREGON,ELGIN,4197876
1218004,5526187,-117.9333,45.56667,OREGON,ELGIN,4197827
1209589,5506798,-117.1333,45.65,OREGON,ROBERTS BUTTE,4197828
1218004,5526188,-117.9333,45.56667,OREGON,ELGIN,4197827
1209590,5506799,-121.0833,45.16667,OREGON,MAUPIN,4197037
87902,530610,-123.0,42.8,OREGON,ANCHOR,4197410
30310,177375,-122.6309,42.2512,OREGON,ASHLAND,4197520
30311,177378,-122.1,42.95,OREGON,CRATER LAKE,4197604
1116589,5251406,-119.11667,44.71667,OREGON,LONG CREEK,4197856
1209591,5506800,-118.0833,45.33333,OREGON,LA GRANDE,4197850
1217994,5526078,-120.1167,44.73333,OREGON,SERVICE CREEK,4197874
44926,260341,-124.456,42.6749,OREGON,PORT ORFORD,
18193,106594,-120.6183,43.2374,OREGON,SUMMER LAKE,4197641
18193,106593,-121.691,42.15,OREGON,(LMT)KLAMATH FALLS A,4197603
1174496,5410221,-117.81667,44.78333,OREGON,BAKER,4197814
19082,112418,-122.45,45.18,OREGON,COLTON,4197017
1217993,5526077,-119.55,45.35,OREGON,HEPPNER,4197836
1217992,5526076,-120.35,44.7,OREGON,SERVICE CREEK,4197750
1209592,5506802,-118.1,45.78333,OREGON,TOLLGATE,4197886
1209593,5506805,-120.7833,45.36667,OREGON,GRASS VLY,4197039
1209591,5506801,-118.1167,45.31667,OREGON,LA GRANDE,4197850
38136,221699,-118.98,45.58,OREGON,BARNHART,4197801
1215065,5521209,-121.9833,43.51667,OREGON,CRESCENT LAKE,4197733
67824,406854,-121.37,43.99,OREGON,LAVA BUTTE,4197702
94662,569111,-117.96,45.47,OREGON,IMBLER,4197841
6514,38030,-121.4,42.2145,OREGON,BONANZA,4197623
6514,38028,-120.35,42.2145,OREGON,LAKEVIEW,4197630
52419,313220,-117.9,45.24,OREGON,UNION JCT,4197850
52419,313218,-118.0,45.28,OREGON,LA GRANDE ARPT,4197850
116678,701554,-121.3,44.07,OREGON,BEND,4197701
1104065,5161173,-122.56667,45.31667,OREGON,OREGON CITY,4197045
116678,701558,-121.3,44.44,OREGON,CULVER CHINOOK ARPT,4197760
116678,701559,-121.29,44.45,OREGON,CULVER CHINOOK ARPT,4197760
116678,701563,-121.49,44.29,OREGON,CLOVERDALE,4197759
116678,701565,-121.13,44.63,OREGON,MADRAS,4197741
94662,569110,-118.05,45.4,OREGON,CONLEY,4197850
116678,701568,-121.31,44.46,OREGON,CULVER CHINOOK ARPT,4197760
1104064,5161172,-122.61667,45.15,OREGON,MOLALLA,4197038
1176271,5414327,-118.75,44.38333,OREGON,PRAIRIE CITY,4197869
77527,467797,-118.03,45.55,OREGON,SUMMERVILLE,4197876
1176282,5414338,-121.28333,44.06667,OREGON,BEND,4197701
87578,528568,-121.44,43.88,OREGON,BEND SUNRIVER ARPT,4197707
1176281,5414337,-119.15,44.88333,OREGON,RITTER,4197856
1176281,5414337,-119.2,44.88333,OREGON,RITTER,4197856
77527,467798,-117.99,45.62,OREGON,ELGIN,
77532,468822,-121.13,44.63,OREGON,MADRAS,4197741
1176272,5414328,-120.31667,44.31667,OREGON,POST,4197754
77532,468823,-121.13,44.63,OREGON,MADRAS,4197741
116678,701570,-121.19,44.63,OREGON,MADRAS,4197741
94662,569107,-119.69,45.37,OREGON,LEXINGTON,4197836
94662,569105,-118.09,45.31,OREGON,LA GRANDE,4197850
94662,569104,-118.09,45.31,OREGON,LA GRANDE,4197850
38253,222207,-120.75,45.21,OREGON,KENT,4197029
77526,467791,-121.23,44.13,OREGON,DESCHUTES,4197701
38254,222213,-120.04,45.13,OREGON,LONEROCK,4197823
38254,222215,-118.99,45.54,OREGON,VINSON,4197801
1187667,5442679,-119.28333,45.78333,OREGON,STANFIELD,4197875
1176295,5414418,-119.0,45.03333,OREGON,UKIAH,4197880
77527,467795,-120.96,44.25,OREGON,POWELL BUTTE,4197753
73896,447153,-118.9,44.41,OREGON,CANYON CITY,4197845
1218051,5525083,-117.9167,44.91667,OREGON,HAINES,4197833
1176282,5414338,-121.15,43.96667,OREGON,BEND,4197702
78569,472622,-119.79,45.44,OREGON,IONE,4197843
77527,467796,-120.84,44.31,OREGON,PRINEVILLE,4197754
106771,640986,-117.89,44.89,OREGON,HAINES,4197814
1159774,5334597,-117.16667,43.98333,OREGON,VALE,4197918
27035,158574,-117.12,44.94,OREGON,CARSON,4197834
52421,313234,-117.85,45.62,OREGON,ELGIN,4197827
52420,313226,-118.27,45.73,OREGON,BINGHAM SPGS,4197810
52420,313225,-118.26,45.36,OREGON,HILGARD,4197850
94662,569101,-118.0,45.49,OREGON,SUMMERVILLE,4197876
1218853,5530411,-117.3,45.45,OREGON,ENTERPRISE,4197828
52419,317151,-118.13799999999999,45.3,OREGON,PERRY,4197850
5341,31112,-116.85,45.04,OREGON,HOMESTEAD,4197840
5341,31111,-117.12,44.94,OREGON,CARSON,4197834
5341,31110,-117.1585,44.9104,OREGON,CARSON,4197834
94662,569102,-120.22,44.95,OREGON,FOSSIL,4197830
1114162,5243250,-121.13333,44.63333,OREGON,MADRAS,4197741
38253,222204,-120.74,45.23,OREGON,KENT,4197029
77532,468825,-121.12,44.62,OREGON,MADRAS,4197741
1218848,5530406,-119.2667,44.15,OREGON,IZEE,4197820
77532,468829,-121.33,44.15,OREGON,TUMALO,4197701
41003,239303,-121.31,44.07,OREGON,BEND,4197701
1152005,5356801,-118.55,45.35,OREGON,INDIAN LAKE,
22585,132726,-121.1902,44.28,OREGON,REDMOND,4197756
40956,238389,-118.09,45.31,OREGON,LA GRANDE,4197850
41536,242122,-117.2577,43.9934,OREGON,VALE,4197918
22585,132724,-121.3824,44.52,OREGON,CULVER,4197734
1163293,5336412,-121.73333000000001,45.33333,OREGON,ZIGZAG,4197049
1163377,5371468,-119.15,44.65,OREGON,FOX,4197856
1213986,5518689,-122.2,44.11667,OREGON,MC KENZIE BRIDGE,4197413
41003,239304,-121.32,44.05,OREGON,BEND,4197702
77532,468828,-120.94,44.31,OREGON,PRINEVILLE ARPT,4197754
33365,194174,-117.57,45.6,OREGON,WALLOWA,4197885
9865,55102,-118.1293,45.8005,OREGON,TOLLGATE,4197886
1152003,5356799,-121.2,44.06667,OREGON,BEND,4197701
9865,55101,-119.8142,45.5267,OREGON,IONE,4197843
33365,194172,-117.28,45.43,OREGON,ENTERPRISE,4197828
33362,194166,-120.79,44.18,OREGON,PRINEVILLE ARPT,4197754
1218846,5530402,-119.6833,45.06667,OREGON,HARDMAN,4197836
1152002,5356798,-119.0,45.01667,OREGON,UKIAH,4197880
1218845,5530401,-120.5667,44.11667,OREGON,PRINEVILLE RESERVOIR,4197754
4644,26522,-121.3045,44.6765,OREGON,WARM SPGS,4197761
4645,26525,-118.95,45.0,OREGON,DALE,4197880
4645,26527,-118.93,45.13,OREGON,UKIAH,4197880
9868,55110,-121.1843,44.2698,OREGON,REDMOND,4197756
22585,132726,-121.1777,44.2934,OREGON,REDMOND,4197756
22585,132731,-121.53,43.76,OREGON,STEARNS,4197739
41003,239303,-121.28,44.04,OREGON,BEND,4197702
77532,468826,-121.14,44.37,OREGON,TERREBONNE,4197760
1218847,5530405,-120.5667,44.16667,OREGON,PRINEVILLE RESERVOIR,4197754
1218847,5530404,-120.9833,43.7,OREGON,MILLICAN,
1218847,5530403,-121.45,43.85,OREGON,SUNRIVER,4197707
1114162,5243251,-121.08333,44.78333,OREGON,GATEWAY,4197741
1114165,5243255,-120.76666999999999,43.81667,OREGON,BROTHERS,
1176274,5414330,-117.91667,45.03333,OREGON,NORTH POWDER,4197867
1114165,5243255,-120.78333,43.81667,OREGON,BROTHERS,4197701
41268,240195,-120.9,42.4,OREGON,PLUSH,
1176275,5414331,-119.13333,44.88333,OREGON,RITTER,4197856
1113065,5239248,-121.95,45.63333,OREGON,BONNEVILLE,
1176277,5414333,-118.4,45.16667,OREGON,STARKEY,
1176278,5414334,-118.66667,45.15,OREGON,LEHMAN,4197880
22585,132749,-117.91,45.72,OREGON,TOLLGATE,4197827
22585,132739,-118.8884,45.4391,OREGON,PILOT ROCK,4197868
1176278,5414334,-118.55,45.06667,OREGON,LEHMAN,
22585,132736,-118.8774,45.3998,OREGON,PILOT ROCK,4197868
22585,132734,-121.35700000000001,44.0291,OREGON,BEND,4197702
22585,132733,-121.45700000000001,43.7101,OREGON,LA PINE,4197739
77532,468827,-120.63,45.24,OREGON,KENT,4197033
78130,470511,-121.83,45.3,OREGON,GOVERNMENT CAMP,4197028
4636,26496,-121.8,43.1188,OREGON,CHEMULT,4197731
1120990,5262047,-119.05,43.58333,OREGON,BURNS,4197720
94115,566006,-120.47,42.14,OREGON,WEST SIDE,4197630
41000,238640,-118.05,45.26,OREGON,LONE TREE,4197850
1218849,5530407,-117.3167,45.9,OREGON,FLORA,4197828
38253,222200,-120.55,45.49,OREGON,KLONDIKE,4197065
1218049,5525081,-117.05,42.96667,OREGON,JORDAN VLY,4197910
1150231,5351727,-123.03333,44.98333,OREGON,KEIZER,4197303
41158,239438,-118.0604,45.3478,OREGON,MAY PARK,4197850
40957,238393,-117.16,45.36,OREGON,JOSEPH,4197846
41158,239446,-116.83,45.56,OREGON,IMNAHA,4197842
67535,404891,-117.73,44.48,OREGON,BRIDGEPORT,4197819
41158,239447,-116.83,45.56,OREGON,IMNAHA,4197842
1196447,5470232,-121.65,43.41667,OREGON,CRESCENT,
67535,404891,-117.6583,44.5312,OREGON,BRIDGEPORT,4197905
1190456,5451696,-121.3667,44.51667,OREGON,CULVER,4197734
1214330,5516637,-119.8833,43.48333,OREGON,WAGONTIRE,
1190445,5451685,-121.4833,43.75,OREGON,LA PINE,4197739
1190444,5451684,-121.35,43.96667,OREGON,BEND,4197702
1093513,5139139,-117.93333,45.56667,OREGON,ELGIN,4197827
40957,238392,-117.21,45.27,OREGON,JOSEPH,4197846
1218008,5526194,-118.6667,45.16667,OREGON,LEHMAN,4197880
1218008,5526195,-118.9167,45.13333,OREGON,UKIAH,4197880
1218008,5526196,-118.4,45.21667,OREGON,STARKEY,
1218008,5526197,-118.4,45.21667,OREGON,STARKEY,
1218009,5526198,-119.25,45.13333,OREGON,HEPPNER,
1218009,5526199,-119.2833,45.26667,OREGON,HEPPNER,4197836
96271,578707,-122.9395,42.9243,OREGON,TILLER,4197484
1218009,5526200,-119.2667,45.35,OREGON,HEPPNER,4197836
1218010,5526201,-117.9333,45.03333,OREGON,NORTH POWDER,4197867
61605,368594,-120.22,45.0,OREGON,FOSSIL,4197830
61605,368571,-120.47,44.92,OREGON,CLARNO,4197830
44485,258125,-117.3502,44.1538,OREGON,VALE,4197918
1160047,5334500,-123.61667,42.28333,OREGON,SELMA,4197538
1215066,5521210,-121.05,43.36667,OREGON,FT ROCK,4197735
1160046,5334499,-122.1,42.95,OREGON,CRATER LAKE,4197604
41858,244598,-122.98,42.39,OREGON,TOLO,4197502
41858,244596,-122.91,42.37,OREGON,CENTRAL PT,4197502
17876,105783,-121.4309,44.15,OREGON,TUMALO,4197701
17876,105784,-121.4156,44.2114,OREGON,TUMALO,4197701
17876,105784,-121.4299,44.2216,OREGON,TUMALO,4197701
67443,404407,-122.1399,44.7341,OREGON,MILL CITY,
126686,759371,-116.83,45.56,OREGON,IMNAHA,4197842
74284,449258,-123.4162,43.2799,OREGON,WINCHESTER,4197471
105243,630812,-118.91,45.14,OREGON,UKIAH,4197880
105243,630811,-118.93,45.13,OREGON,UKIAH,4197880
105243,630810,-119.41,44.84,OREGON,MONUMENT ARPT,4197864
105243,630809,-119.42,44.82,OREGON,MONUMENT,4197864
105243,630808,-119.65,44.65,OREGON,KIMBERLY,4197848
105243,630807,-119.65,44.76,OREGON,KIMBERLY,4197848
105243,630805,-119.87,44.54,OREGON,WATERMAN,
105243,630797,-119.946,44.541000000000004,OREGON,WATERMAN,4197750
105243,630797,-119.95,44.54,OREGON,WATERMAN,4197750
67443,404407,-121.8549,44.4032,OREGON,UPPER SODA,4197759
1209551,5506319,-121.7667,42.23333,OREGON,KLAMATH FALLS,4197601
1120667,5260845,-121.31667,44.51667,OREGON,CULVER,4197734
1160045,5334495,-122.7,42.2,OREGON,ASHLAND,4197520
1160045,5334496,-122.86667,42.33333,OREGON,MEDFORD,4197504
1160045,5334497,-122.86667,42.33333,OREGON,MEDFORD,4197504
1160045,5334498,-122.86667,42.33333,OREGON,MEDFORD,4197504
1120666,5260844,-118.36667,45.78333,OREGON,WESTON,4197886
61605,368570,-120.809,44.75,OREGON,ASHWOOD,4197711
61605,368568,-121.28,44.43,OREGON,CULVER CHINOOK ARPT,4197760
1218010,5526202,-117.9667,45.48333,OREGON,IMBLER,4197841
44485,258125,-117.4208,44.1028,OREGON,VALE,4197918
77522,467777,-117.87,45.21,OREGON,UNION,4197883
77522,467778,-117.81,45.3,OREGON,COVE,4197824
40957,238396,-117.79,45.26,OREGON,COVE,4197824
77522,467780,-120.99,45.04,OREGON,DANT,4197037
28106,164981,-121.2814,44.0755,OREGON,BEND,4197701
71866,432912,-122.52,45.375,OREGON,CARVER,4197045
1120660,5260837,-121.48333000000001,43.66667,OREGON,LA PINE,4197739
76793,470499,-121.77,45.31,OREGON,GOVERNMENT CAMP,4197028
1150175,5353730,-118.93333,45.13333,OREGON,UKIAH,4197880
76793,470509,-122.47,43.75,OREGON,OAKRIDGE,4197492
71866,432912,-122.52,45.37,OREGON,REDLAND,4197045
1218047,5525079,-119.2667,43.58333,OREGON,HINES,
1172269,5404772,-120.18333,45.23333,OREGON,CONDON,4197823
1172270,5404773,-118.83333,44.41667,OREGON,JOHN DAY,4197845
1172274,5404094,-119.26666999999999,45.75,OREGON,STANFIELD,4197826
95659,574620,-121.5194,43.7431,OREGON,STEARNS,4197739
98987,594410,-117.87,45.2,OREGON,UNION,4197883
22408,131603,-121.5363,45.6265,OREGON,ODELL,4197031
22409,131608,-122.33,43.65,OREGON,FIELDS,
1176332,5414515,-122.73333000000001,44.58333,OREGON,LACOMB,4197355
73896,447153,-118.92,44.4,OREGON,CANYON CITY,4197845
94002,565337,-123.0288,44.0132,OREGON,EUGENE,4197405
1218047,5525079,-119.0833,43.56667,OREGON,HINES,4197738
1161421,5333553,-120.01666999999999,44.63333,OREGON,MITCHELL,
106771,640986,-117.8421,44.923,OREGON,HAINES,4197814
77522,467775,-117.86,45.21,OREGON,UNION,4197883
67824,406855,-121.33,44.01,OREGON,BEND,4197702
77522,467774,-117.88,45.21,OREGON,UNION,4197883
18117,105811,-120.8223,44.3134,OREGON,PRINEVILLE,4197754
1214326,5516619,-117.0333,42.95,OREGON,JORDAN VLY,4197910
1214325,5516618,-117.7167,43.98333,OREGON,WESTFALL,4197920
1218010,5526203,-117.9333,45.58333,OREGON,ELGIN,4197827
1214324,5516617,-118.8833,43.01667,OREGON,DIAMOND,
1094661,5143140,-117.93333,45.6,OREGON,ELGIN,4197827
1094656,5143505,-119.28333,45.83333,OREGON,HERMISTON,4197838
1094656,5143504,-118.51666999999999,45.51667,OREGON,MEACHAM,4197859
1094656,5143503,-118.8,45.66667,OREGON,PENDLETON,4197801
40957,238394,-117.15,45.43,OREGON,ENTERPRISE ARPT,4197828
1218010,5526204,-117.9333,45.58333,OREGON,ELGIN,4197827
40957,238395,-117.76,45.22,OREGON,UNION,4197883
1120665,5260843,-121.5,44.33333,OREGON,SISTERS,4197759
1218011,5526205,-121.4833,43.68333,OREGON,LA PINE,4197739
78532,472499,-119.31,45.24,OREGON,LENA,4197836
41858,244594,-122.87,42.34,OREGON,MEDFORD,4197504
1120662,5260839,-118.76666999999999,44.66667,OREGON,GALENA,4197817
1143001,5316826,-117.28333,45.43333,OREGON,ENTERPRISE,4197828
1218011,5526206,-121.5167,43.73333,OREGON,LA PINE,4197739
78532,472505,-121.55,44.29,OREGON,SISTERS,4197759
1143000,5316825,-121.36667,44.51667,OREGON,CULVER,4197734
105110,629987,-120.823,43.0636,OREGON,SUMMER LAKE,4197638
1218011,5526207,-121.55,43.65,OREGON,LA PINE,4197739
1142998,5316823,-121.3,44.06667,OREGON,BEND,4197701
1218011,5526208,-121.2833,44.05,OREGON,BEND,4197702
78532,472513,-120.62,45.4,OREGON,MORO,4197039
18117,105810,-120.8223,44.2866,OREGON,PRINEVILLE,4197754
1093511,5142177,-122.81667,45.86667,OREGON,ST HELENS,4197051
9865,55103,-119.87,44.9145,OREGON,WINLOCK,4197830
40583,236123,-121.87,42.1601,OREGON,WEST KLAMATH,4197601
19440,115018,-120.97,44.29,OREGON,POWELL BUTTE,4197753
19440,115019,-121.04,44.17,OREGON,POWELL BUTTE,4197753
19440,115020,-121.6601,43.67,OREGON,LA PINE,
19440,115023,-121.1762,44.2735,OREGON,REDMOND,4197756
19440,115024,-120.7913,44.2331,OREGON,PRINEVILLE,4197754
19440,115026,-120.8157,44.3102,OREGON,PRINEVILLE,4197754
75788,457435,-123.1871,45.2176,OREGON,MC MINNVILLE,4197128
28147,165277,-119.9,42.4595,OREGON,ADEL,4197637
75788,457435,-123.1849,45.2144,OREGON,MC MINNVILLE,4197128
19440,115016,-120.69,44.13,OREGON,PRINEVILLE RESERVOIR,4197754
41858,244615,-122.7602,42.3403,OREGON,VOORHIES,4197504
41858,244613,-122.21,42.88,OREGON,CRATER LAKE,
118235,710520,-121.72,42.2,OREGON,ALTAMONT,4197603
41858,244612,-122.87,42.33,OREGON,MEDFORD,4197501
8850,50389,-122.85,45.35,OREGON,SHERWOOD,4197140
8850,50391,-122.82,45.48,OREGON,BEAVERTON,4197005
41858,244611,-122.84,42.35,OREGON,MEDFORD,4197504
94949,570731,-123.29,42.22,OREGON,WILLIAMS,4197544
30948,183539,-123.2,44.4934,OREGON,PEORIA,4197377
30948,183520,-122.98,44.32,OREGON,ROWLAND,4197327
41858,244614,-122.13,42.9,OREGON,CRATER LAKE,4197604
30948,183519,-122.8,44.23,OREGON,MABEL,4197454
19440,115012,-119.3184,45.8189,OREGON,HERMISTON,4197838
19440,115012,-119.2918,45.8382,OREGON,HERMISTON,4197838
31334,184105,-118.66,45.15,OREGON,LEHMAN,4197880
31334,184097,-120.84,44.38,OREGON,PRINEVILLE,4197754
31334,184095,-120.77,44.23,OREGON,PRINEVILLE,4197754
31334,184084,-120.85,44.33,OREGON,PRINEVILLE,4197754
31332,184074,-121.79,44.9,OREGON,GOVERNMENT CAMP,
31331,184055,-118.25,45.35,OREGON,HILGARD,4197850
89098,536893,-118.84,43.03,OREGON,DIAMOND,4197722
89098,536893,-118.54799999999999,43.1731,OREGON,PRINCETON,4197721
1112773,5240493,-120.71667,43.85,OREGON,BROTHERS,
54898,329825,-121.69,43.68,OREGON,ROUND MOUNTAIN,4197739
19440,115003,-120.7469,44.8198,OREGON,ANTELOPE,4197711
86967,525141,-121.65,45.02,OREGON,BEAR SPGS,
86967,525142,-121.32,44.08,OREGON,BEND,4197701
86967,525143,-121.3,44.06,OREGON,BEND,4197701
19440,115005,-119.8142,45.5267,OREGON,IONE,4197843
86967,525144,-121.31,44.07,OREGON,BEND,4197701
86967,525145,-121.22,43.98,OREGON,BEND,4197702
51439,312528,-118.96,45.78,OREGON,LONOLEY,4197801
51439,312527,-119.29,45.23,OREGON,LENA,4197836
86968,525146,-121.5,44.29,OREGON,SISTERS STATE ARPT,4197759
86967,525140,-121.31,44.07,OREGON,BEND,4197701
41858,244609,-122.56,42.54,OREGON,BUTTE FALLS,4197522
41858,244607,-122.84,42.36,OREGON,(MFR)MEDFORD ARPT,4197504
41858,244605,-122.89,42.36,OREGON,CENTRAL PT,4197501
62731,375115,-123.32,42.44,OREGON,GRANTS PASS,4197526
62731,375118,-122.87,42.33,OREGON,MEDFORD,4197501
62731,375119,-122.6047,43.083999999999996,OREGON,TOKETEE FALLS,
49837,292735,-119.7096,45.4208,OREGON,LEXINGTON,4197839
49837,292735,-119.7076,45.419,OREGON,LEXINGTON,4197839
131963,789508,-122.6772,45.5893,OREGON,ST JOHNS,4197217
131963,789508,-122.6598,45.6006,OREGON,ST JOHNS,4197211
101983,609960,-124.42,42.25,OREGON,GOLD BEACH,
131963,789511,-123.1372,45.5584,OREGON,FOREST GROVE,4197116
110967,662224,-123.94,45.72,OREGON,MANZANITA,4197130
131963,789511,-123.1386,45.5586,OREGON,FOREST GROVE,4197116
131963,789514,-122.9666,44.7348,OREGON,JEFFERSON,4197392
115072,690720,-121.2966,44.0229,OREGON,BEND,4197702
115072,690720,-121.2976,44.0222,OREGON,BEND,4197702
86490,525134,-121.46,45.52,OREGON,FIVEMILE BUTTE,4197031
86490,525132,-121.48,45.1,OREGON,BEAR SPGS,
86490,525131,-121.45,44.38,OREGON,HENKLE BUTTE,4197759
86490,521843,-121.18,45.48,OREGON,FOLEY BUTTE,4197058
86490,521841,-121.55,44.29,OREGON,SISTERS,4197759
86490,521840,-121.57,44.29,OREGON,SISTERS,4197759
3619,19963,-121.891,42.13,OREGON,KENO,4197601
110967,662226,-123.97,45.47,OREGON,OCEANSIDE,4197134
110967,662232,-123.9528,46.2022,OREGON,FT STEVENS,4197121
1101416,5173831,-119.68333,45.16667,OREGON,HARDMAN,4197836
75964,458481,-121.9518,43.5405,OREGON,CRESCENT LAKE,4197733
41858,244604,-122.85,42.38,OREGON,(MFR)MEDFORD ARPT,4197504
19440,115027,-120.7462,44.7311,OREGON,ASHWOOD,4197711
41858,244601,-122.91,42.37,OREGON,CENTRAL PT,4197502
41858,244599,-122.85,42.34,OREGON,MEDFORD,4197504
75964,458491,-122.0383,43.22,OREGON,CHEMULT,
19440,115028,-121.46,43.8,OREGON,STEARNS,4197707
94928,570561,-117.92,45.6,OREGON,ELGIN,4197827
94928,570560,-118.0,45.49,OREGON,SUMMERVILLE,4197876
94928,570559,-119.79,44.83,OREGON,SPRAY,4197874
1123171,5268727,-120.28333,43.81667,OREGON,BROTHERS,4197754
1123171,5268727,-120.3,43.73333,OREGON,BROTHERS,4197712
128816,772551,-121.47,44.24,OREGON,CLOVERDALE,4197701
19440,115030,-121.73,43.76,OREGON,ROUND MOUNTAIN,
19440,115032,-121.24,44.39,OREGON,OPAL CITY,4197760
19440,115033,-120.7527,44.1663,OREGON,PRINEVILLE,4197754
1112767,5240411,-118.25,45.78333,OREGON,TOLLGATE,4197886
94928,570558,-118.27,45.32,OREGON,HILGARD,4197850
94928,570557,-118.42,45.51,OREGON,(MEH)MEACHAM,4197859
94928,570556,-118.38,45.46,OREGON,KAMELA,
48105,280755,-123.42,42.52,OREGON,MERLIN,4197532
31337,184114,-121.22,44.52,OREGON,CULVER,4197734
31337,184120,-121.18,44.29,OREGON,REDMOND,4197756
31337,184121,-121.52,43.76,OREGON,STEARNS,4197739
1167459,5389523,-121.73333000000001,42.15,OREGON,KLAMATH FALLS ARPT,4197603
27703,162727,-118.4836,45.7252,OREGON,THORN HOLLOW,4197810
27703,162727,-118.5161,45.7202,OREGON,CAYUSE,4197810
27703,162738,-117.53,45.578,OREGON,WALLOWA,4197885
1178793,5419051,-122.46667,43.75,OREGON,OAKRIDGE,4197492
27703,162738,-117.535,45.578,OREGON,WALLOWA,4197885
27703,162743,-118.5076,45.715,OREGON,THORN HOLLOW,4197810
27708,162749,-117.32,45.9362,OREGON,FLORA,4197828
27709,162750,-118.38,45.37,OREGON,HILGARD,
27709,162751,-118.91,45.13,OREGON,UKIAH,4197880
27703,162721,-118.6287,45.7291,OREGON,ADAMS,4197810
27709,162752,-121.47,43.82,OREGON,BEND SUNRIVER ARPT,4197707
27709,162754,-121.22,43.98,OREGON,BEND,4197702
27709,162755,-121.16,44.01,OREGON,BEND,4197702
27709,162756,-121.25,44.77,OREGON,WARM SPGS,4197761
31383,184331,-119.06,43.59,OREGON,BURNS,4197720
27760,163021,-121.17,44.3524,OREGON,REDMOND,4197760
28151,165286,-123.17,42.2211,OREGON,APPLEGATE,4197530
27760,163026,-119.6697,45.17,OREGON,HARDMAN,4197836
1178741,5418953,-121.3,44.03333,OREGON,BEND,4197702
28147,165279,-121.3484,42.43,OREGON,BEATTY,4197639
27709,162753,-121.23,44.0,OREGON,BEND,4197702
1178744,5418956,-121.43333,44.21667,OREGON,SISTERS,4197701
1178775,5419033,-121.3,44.01667,OREGON,BEND,4197702
1178774,5419032,-121.33333,44.0,OREGON,BEND,4197702
121585,727779,-123.844,45.4562,OREGON,TILLAMOOK,4197141
1178759,5419017,-121.26666999999999,44.01667,OREGON,BEND,4197702
1178754,5418966,-118.6,45.48333,OREGON,PILOT ROCK,4197868
1178753,5418965,-120.0,45.15,OREGON,LONEROCK,4197823
1178752,5418964,-119.8,45.28333,OREGON,HEPPNER,4197836
1178751,5418963,-120.0,45.15,OREGON,LONEROCK,4197823
1178750,5418962,-120.13333,45.06667,OREGON,FOSSIL,4197830
121038,724675,-122.7653,45.254,OREGON,AURORA ARPT,4197002
121038,724675,-122.7778,45.2555,OREGON,AURORA ARPT,4197002
1178749,5418961,-119.1,44.71667,OREGON,LONG CREEK,4197856
104174,623444,-118.02,45.3,OREGON,LONE TREE,4197850
104174,623445,-118.04,45.29,OREGON,LONE TREE,4197850
104174,623446,-117.65,45.56,OREGON,WALLOWA STATE ARPT,4197885
104174,623447,-117.96,45.46,OREGON,IMBLER,4197841
104174,623448,-118.0,45.49,OREGON,SUMMERVILLE,4197876
1178748,5418960,-118.38333,45.93333,OREGON,MILTON FREEWATER,4197862
1178747,5418959,-118.51666999999999,45.66667,OREGON,MISSION,4197810
1178746,5418958,-118.4,45.21667,OREGON,STARKEY,
1178760,5419018,-121.35,44.03333,OREGON,BEND,4197702
1178762,5419020,-119.86667,43.95,OREGON,PAULINA,
1178773,5419031,-118.38333,45.93333,OREGON,MILTON FREEWATER,4197862
1178740,5418952,-118.48333000000001,44.6,OREGON,AUSTIN,
86490,521839,-121.37,44.57,OREGON,CULVER CHINOOK ARPT,4197734
64104,385327,-119.69,45.45,OREGON,LEXINGTON,4197839
64104,385325,-117.87,45.35,OREGON,COVE,4197824
30547,178957,-118.67,42.26,OREGON,FIELDS,4197710
30558,179009,-117.27,44.35,OREGON,HUNTINGTON,4197907
64104,385270,-118.23,45.8,OREGON,BINGHAM SPGS,4197886
64104,385269,-118.19,45.72,OREGON,BINGHAM SPGS,4197810
64104,385268,-118.47,45.55,OREGON,(MEH)MEACHAM,4197859
64104,385267,-119.18,45.83,OREGON,STANFIELD,4197875
64104,385266,-119.19,45.74,OREGON,ECHO,4197826
64100,383846,-117.78,45.21,OREGON,UNION,4197883
64100,383838,-117.79,45.3,OREGON,COVE,4197824
30547,178952,-118.24,42.28,OREGON,FIELDS,4197710
64100,383836,-121.25,44.49,OREGON,CULVER,4197734
20062,119616,-117.1622,44.7834,OREGON,RICHLAND,4197870
1174044,5407659,-122.85,45.35,OREGON,SHERWOOD,4197140
1174046,5407661,-122.88333,46.05,OREGON,RAINIER,4197048
19680,116758,-122.32,42.2,OREGON,PINEHURST,
17358,100453,-123.1677,42.4316,OREGON,ROGUE RIVER,4197537
73475,444292,-117.3716,45.5209,OREGON,LOSTINE,4197885
73475,444292,-117.3716,45.521,OREGON,LOSTINE,4197885
31337,184123,-121.52,43.73,OREGON,LA PINE,4197739
35275,203900,-124.01,45.01,OREGON,NEOTSU,
64100,383834,-121.25,44.56,OREGON,COVE PALISADES ST PK,4197734
55113,331158,-117.9591,44.8531,OREGON,HAINES,4197814
55113,331158,-118.1278,44.8688,OREGON,SUMPTER,4197814
8375,47996,-122.7,42.2,OREGON,ASHLAND,4197520
64104,385324,-117.96,45.46,OREGON,IMBLER,4197841
64104,385322,-117.97,45.41,OREGON,ALICEL,4197824
64104,385321,-118.08,45.31,OREGON,LA GRANDE,4197850
64104,385319,-118.1,45.39,OREGON,LA GRANDE,4197850
64104,385318,-118.15,45.35,OREGON,PERRY,4197850
1206874,5496330,-117.25,43.98333,OREGON,VALE,4197918
1140618,5309840,-117.78333,42.71667,OREGON,ROME,4197910
1140610,5309769,-117.91667,44.91667,OREGON,SUMPTER,4197833
64104,385314,-117.31,45.83,OREGON,FLORA,4197828
64104,385312,-117.54,45.57,OREGON,WALLOWA,4197885
64104,385310,-117.53,45.57,OREGON,WALLOWA,4197885
1140610,5309769,-118.2,44.91667,OREGON,SUMPTER,
8259,47445,-118.7,44.47,OREGON,PRAIRIE CITY,4197869
8259,47446,-118.669,44.5234,OREGON,PRAIRIE CITY,4197869
64104,385309,-117.76,45.62,OREGON,PALMER JCT,4197827
64104,385308,-119.55,45.35,OREGON,HEPPNER,4197836
64104,385307,-119.33,45.3,OREGON,LENA,4197836
64104,385306,-119.3,45.23,OREGON,LENA,4197836
64104,385305,-118.39,45.26,OREGON,STARKEY,
64104,385272,-118.23,45.8,OREGON,BINGHAM SPGS,4197886
64104,385271,-118.15,45.78,OREGON,TOLLGATE,4197886
64104,385326,-117.82,45.54,OREGON,ELGIN,4197827
86489,521837,-120.9,44.4,OREGON,PRINEVILLE,4197754
1155171,5365318,-123.18333,44.85,OREGON,INDEPENDENCE,4197351
86489,521835,-121.29,44.03,OREGON,BEND,4197702
63899,382684,-121.45,43.71,OREGON,LA PINE,4197739
104310,630421,-121.44,43.88,OREGON,BEND SUNRIVER ARPT,4197707
104310,624670,-118.95,44.99,OREGON,DALE,4197880
104310,624669,-121.01,43.81,OREGON,PINE MTN OBSERVATORY,
104310,624667,-121.01,44.26,OREGON,POWELL BUTTE,4197753
40729,237078,-122.1383,43.1753,OREGON,DIAMOND LAKE,4197447
63899,382690,-121.47,43.85,OREGON,BEND SUNRIVER ARPT,4197707
40729,237081,-122.48,42.75,OREGON,PROSPECT,4197536
63899,382690,-121.46,43.84,OREGON,BEND SUNRIVER ARPT,4197707
96555,580654,-118.6249,43.0689,OREGON,DIAMOND,4197722
114200,683987,-123.36,43.07,OREGON,DOLE,4197457
96555,580654,-118.84,43.03,OREGON,DIAMOND,4197722
114200,683988,-122.8,42.48,OREGON,EAGLE PT,4197524
1217982,5525979,-121.3333,44.0,OREGON,BEND,4197702
1217983,5525980,-121.3,44.11667,OREGON,BEND,4197701
63899,382692,-120.08,44.64,OREGON,MITCHELL,4197750
114200,683989,-122.46,42.89,OREGON,UNION CREEK,4197536
1217983,5525981,-121.2667,44.01667,OREGON,BEND,4197702
40788,237457,-121.0576,43.1166,OREGON,SILVER LAKE,4197638
1217982,5525978,-121.3,44.01667,OREGON,BEND,4197702
63899,382693,-120.83,44.3,OREGON,PRINEVILLE,4197754
63899,382682,-121.54,43.73,OREGON,LA PINE,4197739
63899,382688,-120.84,44.32,OREGON,PRINEVILLE,4197754
63899,382685,-121.7,44.42,OREGON,BLACK BUTTE,
1217987,5526062,-120.8333,44.31667,OREGON,PRINEVILLE,4197754
1174158,5408193,-118.31667,45.88333,OREGON,MILTON FREEWATER,4197862
1174162,5408197,-120.08333,44.1,OREGON,PAULINA,4197751
63899,382680,-121.48,43.72,OREGON,LA PINE,4197739
1174165,5408200,-119.68333,45.16667,OREGON,HARDMAN,4197836
124476,746822,-119.87,42.73,OREGON,VALLEY FALLS,4197637
63899,382686,-120.79,44.45,OREGON,FOLEY BUTTE,4197754
63899,382688,-120.83,44.29,OREGON,PRINEVILLE,4197754
1217979,5525972,-118.5,45.55,OREGON,MEACHAM,4197859
1174169,5408204,-118.83333,45.48333,OREGON,PILOT ROCK,4197868
1174172,5408207,-121.15,44.63333,OREGON,MADRAS,4197741
1099185,5163375,-118.41667,44.81667,OREGON,GRANITE,4197877
1174175,5408210,-120.83333,44.3,OREGON,PRINEVILLE,4197754
63899,382681,-121.5,43.73,OREGON,LA PINE,4197739
1217980,5525973,-118.1333,45.8,OREGON,TOLLGATE,4197886
1217980,5525974,-118.0333,45.81667,OREGON,TOLLGATE,
1217982,5525976,-121.4,43.9,OREGON,SUNRIVER,
1217982,5525977,-121.3833,44.0,OREGON,BEND,4197702
1217987,5526063,-120.9833,44.3,OREGON,POWELL BUTTE,4197753
114200,683990,-122.7,42.66,OREGON,MC LEOD,4197541
1099183,5163373,-121.16667,44.28333,OREGON,REDMOND,4197756
1217986,5526061,-121.5833,44.28333,OREGON,SISTERS,4197759
124607,747668,-118.6258,42.0451,OREGON,FIELDS,4197710
1217984,5525984,-121.3,44.06667,OREGON,BEND,4197701
128236,769224,-122.9481,45.449,OREGON,FARMINGTON,4197123
1217984,5525985,-121.3333,44.11667,OREGON,BEND,4197701
1217983,5525983,-121.2333,44.06667,OREGON,BEND,4197701
114200,685363,-122.41,42.93,OREGON,UNION CREEK,
1217983,5525982,-121.2333,44.06667,OREGON,BEND,4197701
1178291,5417927,-122.26666999999999,43.08333,OREGON,DIAMOND LAKE,
124607,747668,-118.63,42.01,OREGON,FIELDS,4197710
128236,769149,-121.5442,45.6266,OREGON,ODELL,4197031
124591,747604,-117.94,44.87,OREGON,WINGVILLE,4197833
86489,521832,-121.5,43.77,OREGON,STEARNS,4197739
1217984,5525986,-121.1,44.08333,OREGON,ALFALFA,4197701
114200,683991,-122.71,42.66,OREGON,MC LEOD,4197541
86489,521834,-121.31,44.07,OREGON,BEND,4197701
114200,683992,-122.44,42.91,OREGON,UNION CREEK,4197536
1217983,5525981,-121.2667,44.0,OREGON,BEND,4197702
86489,521836,-121.26,44.04,OREGON,BEND,4197702
86489,521831,-121.5,43.77,OREGON,STEARNS,4197739
124591,747604,-117.7858,44.9325,OREGON,HAINES,4197814
114200,685360,-122.35,42.79,OREGON,PROSPECT,
1889,9299,-122.9044,45.0318,OREGON,SALEM,4197305
86489,521833,-121.31,44.07,OREGON,BEND,4197701
