EPISODE_ID,EVENT_ID,LONGITUDE,LATITUDE,STATE,LOCATION,ZIPCODE
10669,59890,-111.61,40.16,UTAH,SPRINGVILLE,4984663
10669,59889,-110.4,39.55,UTAH,COLUMBIA JCT,4984539
1105875,5177625,-111.71667,40.35,UTAH,LINDON,4984042
1105879,5177631,-112.03333,40.51667,UTAH,HERRIMAN,4984096
10669,59886,-111.49,41.02,UTAH,HENEFER,4984033
1105882,5177903,-112.43333,37.81667,UTAH,PANGUITCH,4984759
1105883,5177904,-112.33333,38.96667,UTAH,FILLMORE,4984631
10669,59888,-111.39,40.92,UTAH,COALVILLE,4984017
1105883,5177904,-112.41667,38.88333,UTAH,FILLMORE,4984637
1105885,5177910,-112.0,37.53333,UTAH,HENRIEVILLE,4984718
1105890,5177916,-112.63333,37.26667,UTAH,ORDERVILLE,4984741
1105881,5177902,-112.26666999999999,38.16667,UTAH,CIRCLEVILLE,4984723
1105837,5178371,-113.13333,40.46667,UTAH,CENTRAL PORTION,
96851,582681,-111.85,40.57,UTAH,SANDY CITY,4984092
42565,252317,-113.65,37.13,UTAH,SANTA CLARA,4984765
1105844,5178478,-111.86667,39.55,UTAH,LEVAN,4984639
90482,543275,-112.05,37.57,UTAH,CANNONVILLE,
1105845,5178479,-111.81667,40.66667,UTAH,HOLLADAY,4984117
1105836,5178369,-111.7,40.31667,UTAH,OREM,4984057
55240,331796,-109.4615,40.8829,UTAH,DUTCH JOHN,4984023
1218773,5529884,-111.8667,40.9,UTAH,CENTERVILLE,4984010
1105846,5178480,-111.93333,40.6,UTAH,WEST JORDAN,4984088
1105846,5178481,-112.05,40.7,UTAH,KEARNS,4984128
1105858,5178684,-111.86667,40.91667,UTAH,CENTERVILLE,4984014
77850,469323,-111.94,40.52,UTAH,RIVERTON,4984065
77850,469321,-111.32,40.5,UTAH,CENTER CREEK,4984032
77850,469320,-111.16,39.6,UTAH,WATTIS JCT,4984526
1105871,5177621,-111.88333,40.88333,UTAH,BOUNTIFUL,4984010
34063,197536,-110.96,39.33,UTAH,HUNTINGTON,4984528
34063,197537,-111.59,39.53,UTAH,MORONI,4984646
1195159,5468643,-110.25,40.33333,UTAH,ALTAMONT,4984001
1218761,5529581,-111.4,40.65,UTAH,HEBER CITY,4984036
1105843,5178476,-111.81667,39.15,UTAH,GUNNISON,4984634
96838,582638,-111.66,37.07,UTAH,GLEN CANYON,4984741
1218768,5529880,-111.9333,40.66667,UTAH,TAYLORSVILLE,4984123
96842,582654,-111.85,40.57,UTAH,SANDY CITY,4984092
96851,582679,-110.06,39.99,UTAH,MYTON,
96851,582683,-112.08,41.63,UTAH,HONEYVILLE,4984314
31848,187125,-109.5379,40.4492,UTAH,VERNAL,4984078
1125839,5275345,-113.06667,41.48333,UTAH,CENTRAL PORTION,
8342,47811,-112.1399,41.88,UTAH,PLYMOUTH,4984330
89998,540993,-111.94,40.52,UTAH,RIVERTON,4984065
89998,540992,-112.42,40.59,UTAH,MARSHALL,4984029
89998,540990,-112.47,40.59,UTAH,GRANTSVILLE,4984029
89995,540984,-113.98,40.03,UTAH,IBAPAH,4984034
89959,540876,-112.01,40.69,UTAH,HUNTER,4984120
31848,187063,-109.4726,40.4216,UTAH,NAPLES,4984078
31848,187064,-109.7457,40.9808,UTAH,MANILA,4984046
1216224,5524227,-109.55,38.65,UTAH,MOAB,4984532
42564,252223,-110.7379,39.5394,UTAH,(PUC)CARBON CO ARPT,4984542
1175532,5413273,-109.68333,40.96667,UTAH,MANILA,4984046
1218780,5529967,-110.7333,40.55,UTAH,WELLINGTON,4984031
55816,334478,-110.71,40.35,UTAH,TABIONA,4984072
1221535,5533744,-109.85,40.28333,UTAH,FT DUCHESNE,4984026
1221530,5533694,-109.8,38.5,UTAH,MOAB,4984532
1092984,5138066,-109.55,38.61667,UTAH,MOAB,4984532
89999,540998,-111.85,40.4,UTAH,LEHI,4984043
89999,540999,-110.4,39.55,UTAH,COLUMBIA JCT,4984539
31848,187063,-109.5601,40.4109,UTAH,(VEL)VERNAL ARPT,4984078
1125875,5275567,-111.13333,39.1,UTAH,FERRON,4984523
1125839,5275345,-112.01666999999999,41.51667,UTAH,CENTRAL PORTION,4984302
1125843,5275350,-111.75,40.75,UTAH,SUGAR HOUSE,4984108
1125846,5275353,-111.9,40.6,UTAH,MIDVALE,4984047
1125847,5275419,-111.58333,38.4,UTAH,LYMAN,4984749
1125851,5275423,-113.01666999999999,38.4,UTAH,MILFORD,4984751
115596,694245,-111.93,41.13,UTAH,SOUTH WEBER,4984405
115596,694245,-112.06,41.1,UTAH,SYRACUSE,4984075
1125864,5275519,-113.13333,40.46667,UTAH,CENTRAL PORTION,
1125872,5275527,-113.01666999999999,38.4,UTAH,MILFORD,4984751
1125838,5275344,-111.6,37.76667,UTAH,ESCALANTE,4984726
1125874,5275566,-112.11667,38.63333,UTAH,MONROE,4984754
1125832,5275277,-111.43333,39.63333,UTAH,FAIRVIEW,4984629
256,1054,-110.0,38.95,UTAH,CRESCENT JCT,4984525
256,1054,-110.04,38.95,UTAH,CRESCENT JCT,
1139998,5311499,-109.33333,40.36667,UTAH,JENSEN,4984035
1221535,5533744,-109.65,40.23333,UTAH,FT DUCHESNE,4984063
8342,47811,-112.1351,41.88,UTAH,PLYMOUTH,4984330
89999,541000,-111.86,40.88,UTAH,BOUNTIFUL,4984010
89999,541001,-110.9,39.76,UTAH,UTAH RAILWAY JCT,4984526
1103468,5174320,-109.35,37.86667,UTAH,MONTICELLO,4984535
85304,515349,-112.05,41.92,UTAH,CLARKSTON,4984305
30795,180854,-109.3104,40.3537,UTAH,JENSEN,4984035
18548,108600,-109.8669,40.1385,UTAH,RANDLETT,4984052
1103464,5174026,-109.66667,38.81667,UTAH,MOAB,
1103464,5174026,-109.78333,38.76667,UTAH,MOAB,
54371,326468,-111.91,41.95,UTAH,UTIDA,4984320
1103461,5174023,-109.25,39.1,UTAH,CISCO,
1103461,5174023,-109.21667,39.15,UTAH,CISCO,4984540
1125877,5275569,-111.08333,39.93333,UTAH,SOLDIER SUMMIT,4984526
1125878,5275570,-111.1,39.13333,UTAH,CLAWSON,4984516
31848,187123,-109.6628,40.1988,UTAH,LEOTA,4984063
1125879,5275571,-110.81667,39.6,UTAH,PRICE,4984501
79102,475116,-111.96,41.08,UTAH,LAYTONA,4984041
31848,187125,-109.5303,40.4534,UTAH,VERNAL,4984078
1103469,5174321,-109.23333000000001,37.86667,UTAH,MONTICELLO,4984535
1092984,5138066,-109.55,38.6,UTAH,MOAB,4984532
41471,241728,-112.03,40.52,UTAH,HERRIMAN,4984096
1218774,5529885,-110.8667,40.68333,UTAH,HELPER,4984031
93075,558269,-109.6079,40.4813,UTAH,MAESER,4984078
93075,558269,-109.5485,40.4767,UTAH,VERNAL,4984078
89999,541002,-111.11,39.41,UTAH,MOHRLAND,4984528
1218779,5529966,-111.3,40.71667,UTAH,OAKLEY,4984055
1218778,5529965,-110.3833,39.55,UTAH,EAST CARBON CITY,
31848,187064,-109.8224,40.9802,UTAH,MANILA,4984046
31848,187065,-109.47,40.7551,UTAH,DUTCH JOHN,
31848,187065,-109.4908,40.654,UTAH,DUTCH JOHN,4984078
31848,187123,-109.7012,40.1873,UTAH,LEOTA,4984063
43681,254130,-109.5009,40.4782,UTAH,VERNAL,4984078
1179528,5422459,-112.01666999999999,41.51667,UTAH,BRIGHAM CITY,4984302
1218777,5529964,-110.0833,40.41667,UTAH,NEOLA,4984053
1218776,5529963,-111.0833,39.26667,UTAH,CASTLE DALE,4984537
43681,254133,-109.5364,40.4528,UTAH,VERNAL,4984078
1218775,5529886,-111.3833,40.53333,UTAH,HEBER CITY,4984032
30795,180844,-109.8,40.23,UTAH,RANDLETT,4984063
1125876,5275568,-111.83333,39.71667,UTAH,NEPHI,4984648
98324,591714,-111.95,41.97,UTAH,CORNISH,4984308
42564,252223,-110.74,39.54,UTAH,(PUC)CARBON CO ARPT,4984542
57439,346603,-113.1633,37.0972,UTAH,GRAFTON,4984737
79872,519531,-109.28,37.83,UTAH,MONTICELLO,4984535
1213351,5513620,-111.6167,40.13333,UTAH,SPRINGVILLE,4984663
1213352,5513622,-111.65,40.11667,UTAH,SPANISH FORK,4984660
1100298,5155231,-109.56667,40.86667,UTAH,MANILA,4984023
1213355,5513913,-110.2167,38.98333,UTAH,GREEN RIVER,4984525
68146,409087,-114.0446,38.2809,UTAH,NEWHOUSE,
68146,409087,-114.0434,38.2812,UTAH,NEWHOUSE,
110140,658301,-112.41,37.8,UTAH,PANGUITCH,4984759
56852,345087,-111.89,40.65,UTAH,MURRAY,4984107
110067,658029,-111.67,40.05,UTAH,SALEM,4984653
110067,658029,-111.73,40.03,UTAH,PAYSON,4984651
110067,658025,-113.54,37.05,UTAH,BLOOMINGTON,4984790
110067,658024,-111.9,40.71,UTAH,REDWOOD,4984115
57753,346617,-110.7,38.58,UTAH,MOORE,4984525
110067,658023,-113.2,37.2,UTAH,VIRGIN,4984779
110067,658022,-112.63,37.28,UTAH,ORDERVILLE,4984758
110067,658021,-112.67,37.23,UTAH,MT CARMEL,4984758
110067,658020,-113.0,37.18,UTAH,SPRINGDALE,4984767
100026,600650,-112.3,41.8,UTAH,BOTHWELL,
56852,345088,-111.6,37.76,UTAH,ESCALANTE,4984726
110067,658018,-112.67,37.23,UTAH,MT CARMEL,4984758
110067,658017,-111.27,40.64,UTAH,KAMAS,4984036
110060,657990,-110.36,40.24,UTAH,DUCHESNE ARPT,4984021
110060,657989,-110.74,40.22,UTAH,FRUITLAND,4984021
79872,519533,-109.48,37.73,UTAH,BLANDING,4984511
79872,519535,-109.37,37.06,UTAH,MONTEZUMA CREEK,4984534
1213351,5513619,-110.8167,39.53333,UTAH,PRICE,4984501
1221359,5533305,-110.7333,39.6,UTAH,PRICE,4984501
56848,345072,-111.73,40.03,UTAH,PAYSON,4984651
127481,764130,-111.8362,40.7556,UTAH,SALT LAKE CITY,4984113
127481,764127,-111.93,40.57,UTAH,SOUTH JORDAN,4984095
106291,638288,-110.04,40.44,UTAH,MEOLA,4984053
1196874,5468968,-112.1333,41.06667,UTAH,BOUNTIFUL,
1196874,5468968,-112.0833,41.03333,UTAH,BOUNTIFUL,
106291,638289,-112.08,41.1,UTAH,WEST PT,4984075
106291,638292,-111.82,40.67,UTAH,HOLLADAY,4984117
106291,638302,-111.72,40.34,UTAH,LINDON,4984042
106291,638302,-111.73,40.37,UTAH,PLEASANT GROVE,4984062
56848,345073,-112.26,38.16,UTAH,CIRCLEVILLE,4984723
1196874,5468969,-111.8833,40.88333,UTAH,BOUNTIFUL,4984010
110060,657988,-111.89,40.49,UTAH,NASH,4984020
106293,638306,-111.85,39.92,UTAH,GOSHEN,4984633
56848,345074,-111.77,40.46,UTAH,ALPINE,4984004
1196876,5468973,-113.3667,37.25,UTAH,LEEDS,4984746
1196877,5468977,-110.25,40.33333,UTAH,ALTAMONT,4984001
1196878,5468978,-113.9167,37.8,UTAH,MODENA,4984753
1196879,5468979,-111.0167,39.21667,UTAH,CASTLE DALE,4984513
1196879,5468980,-110.4333,38.78333,UTAH,GREEN RIVER,
1196879,5468981,-110.8167,39.6,UTAH,PRICE,4984501
1221361,5533308,-110.8667,39.6,UTAH,PRICE,
1100291,5155224,-109.43333,40.93333,UTAH,DUTCH JOHN,
56850,345079,-111.23,38.25,UTAH,FRUITA,4984775
1100294,5155227,-109.18333,40.85,UTAH,DUTCH JOHN,4984023
56850,345080,-110.96,39.33,UTAH,HUNTINGTON,4984528
106293,638308,-112.29,39.68,UTAH,CHAMPLIN SIDING,
56848,345071,-112.01,40.69,UTAH,HUNTER,4984120
1221358,5533304,-111.8833,40.4,UTAH,LEHI,4984043
1193358,5462310,-112.3,40.53333,UTAH,TOOELE,4984074
31456,184812,-111.99,41.86,UTAH,NEWTON,4984327
31448,184739,-112.0,41.21,UTAH,(OGD)OGDEN MUNI ARPT,4984401
31448,184738,-110.4,39.55,UTAH,COLUMBIA JCT,4984539
1182455,5427906,-112.53333,37.05,UTAH,KANAB,4984741
1143515,5320721,-109.8,40.51667,UTAH,LAPOINT,4984039
1143518,5320724,-109.83333,40.2,UTAH,RANDLETT,4984063
1143519,5320725,-109.8,40.23333,UTAH,RANDLETT,4984063
1119066,5257739,-110.11667,37.61667,UTAH,FRY CANYON,4984533
1119065,5257663,-110.05,37.55,UTAH,FRY CANYON,4984533
1197136,5469015,-111.8167,40.38333,UTAH,LEHI,4984003
38957,226189,-111.85,40.4,UTAH,LEHI,4984043
38957,226193,-111.85,40.57,UTAH,SANDY CITY,4984092
38957,226193,-111.86,40.47,UTAH,NASH,4984020
1143520,5320726,-109.2,40.1,UTAH,BONANZA,
1143563,5320931,-109.25,38.28333,UTAH,LA SAL,4984530
119973,718999,-111.9,40.61,UTAH,MIDVALE,4984047
119973,719000,-110.8,39.6,UTAH,PRICE,4984501
119974,719003,-112.03,40.52,UTAH,HERRIMAN,4984096
38957,226194,-111.96,41.31,UTAH,NORTH OGDEN,4984414
29022,170376,-112.03,41.47,UTAH,PERRY,4984302
29022,170912,-112.0297,41.4046,UTAH,WILLARD,4984340
29022,170912,-112.0348,41.4035,UTAH,WILLARD,4984340
29026,170869,-113.1123,38.4,UTAH,MILFORD,
1177224,5416904,-109.7,40.98333,UTAH,MANILA,4984046
1177224,5416904,-109.75,40.98333,UTAH,MANILA,4984046
1198704,5476399,-111.15,38.28333,UTAH,FRUITA,4984775
1198706,5476402,-111.4,40.06667,UTAH,HEBER CITY,4984660
1198706,5476403,-111.8667,39.55,UTAH,LEVAN,4984639
1198706,5476404,-110.5,38.73333,UTAH,GREEN RIVER,
1192811,5458769,-110.1167,38.95,UTAH,CRESCENT JCT,4984525
1193357,5462259,-111.8333,39.71667,UTAH,NEPHI,4984648
1193356,5462258,-111.7333,40.36667,UTAH,PLEASANT GROVE,4984062
1193356,5462254,-111.4167,39.56667,UTAH,MT PLEASANT,4984647
1193355,5462252,-110.55,40.16667,UTAH,DUCHESNE,4984021
79435,476565,-110.39,40.18,UTAH,DUCHESNE,4984021
127481,764127,-111.8,40.62,UTAH,COTTONWOOD HGTS,4984121
79435,476564,-111.02,39.22,UTAH,CASTLE DALE,4984513
79435,476563,-110.41,39.54,UTAH,COLUMBIA JCT,4984520
19673,116719,-112.28,39.53,UTAH,LEAMINGTON,4984638
79433,476561,-113.47,37.16,UTAH,HARRISBURG JCT,4984780
79432,478905,-111.7631,40.3965,UTAH,AMERICAN FORK,4984062
1221357,5533303,-113.65,37.13333,UTAH,SANTA CLARA,4984765
79432,478905,-111.7622,40.3953,UTAH,AMERICAN FORK,4984062
107600,644874,-111.82,40.69,UTAH,EAST MILL CREEK,4984109
87953,530760,-110.22,40.35,UTAH,BLUEBELL,4984007
107600,644872,-111.9,40.61,UTAH,MIDVALE,4984047
107600,644870,-112.01,40.69,UTAH,HUNTER,4984120
107600,644870,-112.01,40.65,UTAH,SALT LAKE NO TWO ARP,4984118
107600,644869,-112.01,40.69,UTAH,HUNTER,4984120
38957,226189,-111.91,40.36,UTAH,LEHI,4984045
107600,644869,-112.01,40.6,UTAH,SALT LAKE NO TWO ARP,4984081
107600,644868,-112.03,41.46,UTAH,PERRY,4984302
107600,644867,-112.01,41.51,UTAH,BRIGHAM CITY,4984302
107600,644865,-112.9,40.82,UTAH,LOW,
44978,262571,-111.81,40.46,UTAH,ALPINE,4984003
87953,530760,-110.07,40.2,UTAH,MYTON,4984052
56848,345071,-112.01,40.65,UTAH,SALT LAKE NO TWO ARP,4984118
57439,346603,-113.18,37.09,UTAH,HURRICANE ARPT,4984737
87672,528998,-109.48,37.57,UTAH,(4BL)BLANDING MUNI A,4984511
9968,55556,-113.92,41.35,UTAH,LUCIN,4984083
67318,403698,-113.29,37.24,UTAH,TOQUERVILLE,4984774
110619,660568,-112.4309,37.8339,UTAH,PANGUITCH,4984759
110619,660568,-112.4422,37.8276,UTAH,PANGUITCH,4984759
110619,660560,-111.9627,41.1834,UTAH,WASHINGTON TERRACE,4984403
1218031,5525002,-111.6833,40.73333,UTAH,SALT LAKE CITY,4984109
45731,265999,-110.7106,37.4624,UTAH,WHITE CANYON,4984533
45731,266009,-110.2581,38.2854,UTAH,(HVE)HANKSVILLE ARPT,
9968,55557,-111.96,41.31,UTAH,NORTH OGDEN,4984414
9966,55549,-111.96,41.16,UTAH,WASHINGTON TERRACE,4984405
87672,529000,-109.4,37.6,UTAH,BLANDING,4984511
45731,266009,-110.28,38.28,UTAH,(4HV)HANKSVILLE,
87672,528999,-109.48,37.58,UTAH,(4BL)BLANDING MUNI A,4984511
98324,591715,-111.85,41.71,UTAH,RIVER HGTS,4984321
110619,660560,-112.0104,41.1631,UTAH,ROY,4984405
110619,660529,-112.02,41.1,UTAH,CLEARFIELD,4984015
22754,133429,-111.94,40.52,UTAH,RIVERTON,4984065
22754,133427,-111.8127,40.6979,UTAH,EAST MILL CREEK,4984109
22754,133427,-111.8316,40.6898,UTAH,EAST MILL CREEK,4984109
45731,265385,-110.17,38.99,UTAH,GREEN RIVER,4984525
1097836,5154528,-109.68333,40.1,UTAH,OURAY,4984063
9966,55548,-112.02,41.1,UTAH,CLEARFIELD,4984015
128031,767910,-109.5932,40.4781,UTAH,MAESER,4984078
128031,767909,-109.5365,40.4517,UTAH,VERNAL,4984078
45731,265384,-110.8,39.6,UTAH,PRICE,4984501
87672,529004,-109.53,40.47,UTAH,VERNAL,4984078
1221361,5533309,-110.0667,40.2,UTAH,MYTON,4984052
1155372,5366757,-109.53333,40.56667,UTAH,VERNAL,4984078
87672,529003,-109.8,40.39,UTAH,LAPOINT,4984039
87672,529002,-109.53,40.55,UTAH,VERNAL,4984078
10235,56793,-109.43,40.93,UTAH,DUTCH JOHN,
9966,55547,-112.1,41.12,UTAH,WEST PT,4984015
87672,529005,-109.53,40.47,UTAH,VERNAL,4984078
87672,529006,-109.53,40.45,UTAH,VERNAL,4984078
1155372,5366757,-109.53333,40.55,UTAH,VERNAL,4984078
87672,529007,-109.57,40.46,UTAH,MAESER,4984078
87672,529008,-109.53,40.45,UTAH,VERNAL,4984078
1152086,5357302,-109.51666999999999,40.43333,UTAH,(VEL)VERNAL ARPT,4984078
87672,529001,-109.38,37.59,UTAH,(4BL)BLANDING MUNI A,4984511
126727,759711,-112.09,40.7,UTAH,MAGNA,4984044
98330,591735,-112.681,37.5184,UTAH,ALTON SWAINS ARPT,4984762
98330,591733,-111.2624,38.2914,UTAH,FRUITA,4984775
45731,265997,-111.28,37.03,UTAH,NAVAJO MTN TRDNG POS,
1152085,5357301,-109.85,40.28333,UTAH,FT DUCHESNE,4984026
1181113,5426453,-109.53333,38.01667,UTAH,MONTICELLO,4984535
98324,591713,-112.57,41.62,UTAH,PROMONTORY,4984307
98324,591712,-112.05,41.92,UTAH,CLARKSTON,4984305
1102398,5156937,-109.81667,40.91667,UTAH,MANILA,4984046
44322,257635,-110.06,40.19,UTAH,MYTON,4984052
52457,313370,-111.85,40.4,UTAH,LEHI,4984043
1199031,5474325,-109.85,38.95,UTAH,CRESCENT JCT,
1199031,5474325,-109.9833,38.95,UTAH,CRESCENT JCT,4984525
1199028,5474322,-109.7167,38.96667,UTAH,THOMPSON,4984540
21558,127429,-112.01,40.65,UTAH,SALT LAKE NO TWO ARP,4984118
44317,257590,-112.64,38.28,UTAH,BEAVER,4984713
1121816,5264307,-109.71667,40.91667,UTAH,MANILA,
44317,257541,-111.66,38.41,UTAH,LOA,4984747
68931,414053,-111.89,40.99,UTAH,FARMINGTON,4984025
68931,414052,-114.03,38.93,UTAH,GARRISON,4984728
68931,414050,-113.64,40.74,UTAH,ARINOSA,4984083
99434,596849,-110.5807,40.9955,UTAH,PINEVIEW,4982930
99434,596850,-112.82,37.83,UTAH,PAROWAN ARPT,4984761
68931,414048,-111.83,39.71,UTAH,NEPHI,4984648
64354,385502,-112.77,37.89,UTAH,PAROWAN ARPT,4984760
30621,179379,-111.81,41.71,UTAH,PROVIDENCE,4984332
17767,102841,-110.69,37.6,UTAH,(U07) BULLFROG/GLEN,4984533
30621,179381,-111.81,40.61,UTAH,BUTLERVILLE,4984121
79102,475116,-111.94,41.03,UTAH,KAYSVILLE,4984037
9971,55565,-111.93,40.34,UTAH,LEHI,4984045
87678,529049,-109.48,37.57,UTAH,(4BL)BLANDING MUNI A,4984511
22754,133421,-112.03,40.52,UTAH,HERRIMAN,4984096
6251,36451,-114.05,37.5,UTAH,GOLDSTRIKE,
30478,178568,-112.17,41.71,UTAH,TREMONTON,4984337
126734,759732,-112.7122,41.9703,UTAH,SNOWVILLE,4984336
22754,133421,-111.9395,40.52,UTAH,RIVERTON,4984065
22754,133419,-112.47,40.59,UTAH,GRANTSVILLE,4984029
110619,660528,-112.1169,41.1177,UTAH,WEST PT,4984015
1209811,5506834,-110.4,40.16667,UTAH,DUCHESNE,4984021
1121817,5264308,-109.55,40.83333,UTAH,DUTCH JOHN,
44317,257606,-111.73,40.37,UTAH,PLEASANT GROVE,4984062
44317,257605,-111.94,40.52,UTAH,RIVERTON,4984065
44317,257604,-111.76,40.4,UTAH,AMERICAN FORK,4984062
1121817,5264308,-109.6,40.88333,UTAH,DUTCH JOHN,
44317,257593,-111.85,40.57,UTAH,SANDY CITY,4984092
290,1211,-109.72,38.97,UTAH,THOMPSON,4984540
126734,759732,-112.714,41.9697,UTAH,SNOWVILLE,4984336
290,1211,-109.76,38.97,UTAH,THOMPSON,
10235,56793,-109.4571,40.9096,UTAH,DUTCH JOHN,4984023
1199032,5474326,-109.8167,38.95,UTAH,CRESCENT JCT,4984540
1199032,5474326,-109.6167,38.95,UTAH,CRESCENT JCT,
9968,55559,-111.87,41.33,UTAH,LIBERTY,4984310
9971,55564,-112.0,40.6001,UTAH,SALT LAKE NO TWO ARP,4984088
9258,52120,-111.3,40.66,UTAH,MARION,4984036
126734,759730,-111.1321,40.1438,UTAH,WALLSBURG,
126734,759730,-111.13,40.14,UTAH,WALLSBURG,
