EPISODE_ID,EVENT_ID,LONGITUDE,LATITUDE,STATE,LOCATION,ZIPCODE
107347,643632,-71.88,44.35,VERMONT,LOWER WATERFORD,5005819
107347,643631,-73.24,44.63,VERMONT,WEST MILTON,
1214383,5517316,-72.01666999999999,44.41667,VERMONT,ST JOHNSBURY,5005819
1214386,5517320,-72.95,44.8,VERMONT,FAIRFIELD,5005455
1214387,5517321,-73.08333,44.56667,VERMONT,WESTFORD,5005452
1214382,5517315,-71.88333,44.43333,VERMONT,CONCORD,5005824
20288,120967,-73.32,43.98,VERMONT,BRIDPORT,5005734
73497,444486,-73.04,44.94,VERMONT,HIGHGATE,5005459
1214379,5517310,-73.21667,44.45,VERMONT,SOUTH BURLINGTON,5005401
73430,443737,-73.16,44.72,VERMONT,GEORGIA PLAIN,5005468
73430,443738,-73.18,43.61,VERMONT,CASTLETON,5005735
73430,443739,-73.03,43.71,VERMONT,PITTSFORD,5005763
73430,443740,-72.95,43.71,VERMONT,CHITTENDEN,5005737
73430,443741,-73.03,43.71,VERMONT,PITTSFORD,5005763
1197945,5471616,-72.71667,44.38333,VERMONT,WATERBURY CENTER,5005677
1197946,5471617,-73.08333,44.13333,VERMONT,BRISTOL,5005443
1197946,5471618,-72.98333000000001,44.06667,VERMONT,SOUTH LINCOLN,5005443
73430,443742,-73.04,43.66,VERMONT,PROCTOR,5005765
73430,443743,-72.23,43.94,VERMONT,WEST FAIRLEE CENTER,5005045
73430,443744,-72.9873,43.6569,VERMONT,EAST PITTSFORD,5005701
96922,583030,-71.8,44.9855,VERMONT,NORTON,5005907
73497,444487,-73.25,44.21,VERMONT,FERRISBURG,5005456
73497,444488,-73.12,44.92,VERMONT,SWANTON,5005488
1195664,5465954,-73.28333,44.81667,VERMONT,NORTH HERO,
1195665,5465956,-73.11667,44.91667,VERMONT,SWANTON,5005488
1220449,5531580,-72.36667,44.66667,VERMONT,CRAFTSBURY,5005827
105831,634867,-72.91,44.68,VERMONT,BINGHAMVILLE,5005444
107347,643629,-72.5,44.94,VERMONT,JAY,5005859
1117331,5252512,-72.61667,43.16667,VERMONT,GRAFTON,5005146
96922,583034,-72.0092,44.9777,VERMONT,HOLLAND,5005830
1117331,5252511,-72.56667,43.13333,VERMONT,ATHENS,5005146
107347,643630,-72.21,44.94,VERMONT,NEWPORT,5005855
1214378,5517309,-72.21667,44.53333,VERMONT,STANNARD,5005842
75371,455195,-72.81,43.77,VERMONT,PITTSFIELD,5005762
107347,643633,-72.13,43.99,VERMONT,BRADFORD,5005033
75230,454561,-72.9011,43.13,VERMONT,BONDVILLE,5005340
1214388,5517322,-73.0,43.98333,VERMONT,RIPTON,5005766
7167,41158,-72.67,45.0,VERMONT,RICHFORD,5005476
1158116,5375654,-73.26666999999999,42.8,VERMONT,NORTH POWNAL,5005260
1158116,5375654,-73.1,43.11667,VERMONT,NORTH POWNAL,5005250
52691,314763,-71.54,44.99,VERMONT,CANAAN,5005903
52691,314762,-72.1,44.21,VERMONT,RYEGATE,5005042
52691,314761,-73.18,44.46,VERMONT,(BTV)BURLINGTON ARPT,5005403
115095,690784,-73.21,44.54,VERMONT,COLCHESTER,5005446
115095,690788,-73.34,43.77,VERMONT,CHIPMANS PT,5005760
115095,690789,-72.4198,44.526,VERMONT,HARDWICK,5005680
115095,690791,-72.28,44.51,VERMONT,EAST HARDWICK,5005836
1142316,5313047,-72.5,43.18333,VERMONT,ROCKINGHAM,5005101
115095,690800,-72.33,43.7,VERMONT,WILDER,5005055
124117,744779,-72.67,45.0,VERMONT,RICHFORD,5005476
1158116,5375655,-72.91667,43.03333,VERMONT,STRATTON,5005360
124117,744780,-73.23,44.38,VERMONT,SHELBURNE,5005482
105585,633453,-73.07,44.25,VERMONT,STARKSBORO,5005487
105584,633451,-73.08,44.96,VERMONT,HIGHGATE SPGS,5005488
124117,744782,-72.18,44.7,VERMONT,GLOVER,5005839
1137901,5305360,-73.25,42.93333,VERMONT,NORTH BENNINGTON,5005257
20301,122117,-73.32,43.98,VERMONT,BRIDPORT,5005734
20301,121010,-73.02,43.85,VERMONT,GOSHEN,5005733
1137886,5306067,-72.73333000000001,43.18333,VERMONT,WINDHAM,5005359
1137886,5306065,-73.25,42.93333,VERMONT,NORTH BENNINGTON,5005257
20301,121007,-73.09,43.8,VERMONT,BRANDON,5005733
20301,121006,-73.24,43.5,VERMONT,POULTNEY,5005764
20288,120970,-73.35,44.0,VERMONT,BRIDPORT,5005734
20288,120969,-72.03,44.63,VERMONT,SUTTON,5005867
20288,120968,-71.98,44.64,VERMONT,WEST BURKE,5005871
124117,744781,-73.04,44.44,VERMONT,WILLISTON,5005495
1158173,5375553,-73.31667,43.9,VERMONT,SHOREHAM,5005770
1192500,5460324,-73.1,43.25,VERMONT,DORSET,5005251
120499,722249,-72.61,42.87,VERMONT,WEST BRATTLEBORO,5005301
7167,41163,-72.2,44.82,VERMONT,ORLEANS,5005860
7167,41162,-73.1,44.97,VERMONT,HIGHGATE SPGS,5005488
7167,41161,-72.4,45.0,VERMONT,NORTH TROY,5005859
1115649,5250614,-72.48333000000001,43.3,VERMONT,SPRINGFIELD,5005156
19703,116915,-73.24,42.76,VERMONT,POWNAL,5005261
75327,455046,-72.8,44.55,VERMONT,MORSES MILL,5005464
75327,455045,-73.18,43.61,VERMONT,CASTLETON,5005735
75327,455044,-73.3,43.8,VERMONT,ORWELL,5005760
75310,455023,-73.0723,43.1638,VERMONT,MANCHESTER,5005254
7167,41160,-72.4,45.0,VERMONT,NORTH TROY,5005859
7167,41159,-72.67,45.0,VERMONT,RICHFORD,5005476
75230,454563,-72.6553,42.9865,VERMONT,NEWFANE,5005345
42587,248453,-73.19,42.87,VERMONT,BENNINGTON,5005201
118410,711613,-72.77,42.79,VERMONT,WEST HALIFAX,5005301
118410,711612,-72.82,42.8,VERMONT,JACKSONVILLE,5005342
118348,711129,-72.91,43.2,VERMONT,PERU,5005340
20455,121906,-73.24,43.52,VERMONT,POULTNEY,5005764
20455,121905,-71.53,45.0,VERMONT,CANAAN,5005903
20455,121904,-73.0884,44.4508,VERMONT,WILLISTON,5005495
75151,454203,-73.197,42.8784,VERMONT,BENNINGTON,5005201
20455,121903,-73.0871,44.4507,VERMONT,WILLISTON,5005495
20455,121902,-73.23,44.38,VERMONT,SHELBURNE,5005482
6454,37493,-73.1,43.12,VERMONT,SUNDERLAND,5005255
1214389,5517323,-73.18333,44.55,VERMONT,COLCHESTER,5005446
1214390,5517325,-73.01666999999999,44.61667,VERMONT,WESTFORD,5005494
1214391,5517326,-72.95,44.98333,VERMONT,FRANKLIN,5005457
1214394,5517330,-73.08333,44.81667,VERMONT,ST ALBANS,5005478
20455,121901,-73.22,44.4,VERMONT,SHELBURNE,5005482
1192496,5460320,-73.25,43.23333,VERMONT,WEST RUPERT,5005776
107347,643634,-72.7,44.95,VERMONT,EAST BERKSHIRE,5005476
115095,690792,-72.03,44.38,VERMONT,PASSUMPSIC,5005819
6100,35549,-71.95,44.6,VERMONT,EAST BURKE,5005832
52924,316483,-72.98,43.61,VERMONT,RUTLAND,5005701
1140632,5311357,-72.28333,44.58333,VERMONT,GREENSBORO,5005841
1140633,5311358,-72.85,44.11667,VERMONT,WARREN,5005674
1140634,5311359,-72.73333000000001,44.1,VERMONT,ROXBURY,5005669
1140637,5311363,-72.6,44.05,VERMONT,BROOKFIELD,5005036
1140639,5311366,-72.46667,43.63333,VERMONT,TAFTSVILLE,5005091
1140641,5311368,-72.3,44.95,VERMONT,NEWPORT CENTER,5005857
1140644,5311371,-72.73333000000001,43.53333,VERMONT,PLYMOUTH,5005056
1140644,5311372,-72.55,43.46667,VERMONT,READING,5005062
51942,312986,-72.02,44.43,VERMONT,ST JOHNSBURY,5005819
115937,696606,-72.42,44.44,VERMONT,WOODBURY,5005681
115937,696605,-72.45,44.39,VERMONT,NORTH CALAIS,5005650
51942,312987,-72.01,44.41,VERMONT,ST JOHNSBURY,5005819
7908,53499,-72.83,44.65,VERMONT,JEFFERSONVILLE,5005464
51942,312988,-72.12,44.44,VERMONT,DANVILLE,5005828
7908,53500,-72.83,44.65,VERMONT,JEFFERSONVILLE,5005464
7908,53501,-72.68,44.63,VERMONT,JOHNSON,5005656
7908,53502,-72.88,44.4134,VERMONT,BOLTON,5005477
7908,53503,-72.72,44.38,VERMONT,WATERBURY CENTER,5005677
7908,53505,-71.93,44.7,VERMONT,NEWARK HOLLOW,5005871
53645,321392,-73.08,44.14,VERMONT,BRISTOL,5005443
1221437,5533958,-72.98333000000001,43.63333,VERMONT,RUTLAND,5005701
1221437,5533959,-72.93333,43.58333,VERMONT,RUTLAND,5005701
115789,695835,-72.01,44.46,VERMONT,ST JOHNSBURY CENTER,5005819
53645,321393,-73.16,44.01,VERMONT,MIDDLEBURY,5005753
53645,321394,-73.11,43.97,VERMONT,EAST MIDDLEBURY,5005753
7908,53498,-72.83,44.65,VERMONT,JEFFERSONVILLE,5005464
53645,321395,-73.06,43.98,VERMONT,RIPTON,5005753
66339,397854,-72.83,44.15,VERMONT,IRASVILLE,5005673
66339,397852,-73.13,44.38,VERMONT,RHODE IS CORNERS,5005495
51942,312968,-73.15,44.15,VERMONT,NEW HAVEN,5005472
66339,397808,-73.31,43.99,VERMONT,BRIDPORT,5005734
66339,397809,-73.22,44.07,VERMONT,WEYBRIDGE,5005753
66339,397810,-73.15,44.12,VERMONT,NEW HAVEN,5005472
66339,397811,-73.31,43.99,VERMONT,BRIDPORT,5005734
66339,397812,-73.08,44.14,VERMONT,BRISTOL,5005443
66339,397813,-73.15,44.09,VERMONT,NEW HAVEN MILLS,5005472
66339,397837,-73.13,44.35,VERMONT,HINESBURG,5005461
66339,397838,-73.11,44.34,VERMONT,HINESBURG,5005461
66339,397839,-73.0,44.11,VERMONT,LINCOLN,5005443
66339,397841,-73.08,44.1,VERMONT,NEW HAVEN MILLS,5005443
66339,397843,-73.02,44.13,VERMONT,WEST LINCOLN,5005443
66339,397844,-73.21,44.49,VERMONT,BURLINGTON,5005401
51942,312969,-72.83,44.19,VERMONT,IRASVILLE,5005673
51942,312971,-72.81,44.99,VERMONT,EAST FRANKLIN,5005450
51942,312981,-72.0,44.39,VERMONT,PASSUMPSIC,5005819
51942,312982,-72.01,44.42,VERMONT,ST JOHNSBURY,5005819
51942,312984,-72.02,44.41,VERMONT,ST JOHNSBURY,5005819
1140629,5310052,-73.31667,44.65,VERMONT,SOUTH HERO,5005486
1140631,5311356,-72.0,44.53333,VERMONT,LYNDONVILLE,5005851
66339,397845,-73.01,44.16,VERMONT,SOUTH STARKSBORO,5005443
66339,397847,-73.22,44.06,VERMONT,WEYBRIDGE,5005753
66339,397848,-73.11,44.33,VERMONT,HINESBURG,5005461
66339,397849,-72.82,44.18,VERMONT,WAITSFIELD,5005673
66339,397850,-73.15,44.54,VERMONT,COLCHESTER,5005446
66339,397853,-72.88,44.23,VERMONT,FAYSTON,5005673
66323,397758,-73.05,44.47,VERMONT,NORTH WILLISTON,5005495
53645,321396,-73.1,43.98,VERMONT,MIDDLEBURY ARPT,5005753
53660,321574,-73.1529,43.0722,VERMONT,EAST ARLINGTON,5005250
53660,339577,-72.66,42.99,VERMONT,NEWFANE,5005345
53660,339578,-73.19,42.87,VERMONT,BENNINGTON,5005201
53660,339579,-72.72,42.86,VERMONT,MARLBORO,5005301
53660,339580,-72.87,42.87,VERMONT,WILMINGTON,5005363
53660,339581,-72.57,42.86,VERMONT,BRATTLEBORO,5005301
53660,339582,-72.5657,42.8203,VERMONT,GUILFORD,5005301
53660,339583,-72.75,42.77,VERMONT,HALIFAX,5005358
6041,35312,-72.3101,44.12,VERMONT,WEST TOPSHAM,5005086
6041,35313,-72.7,43.4,VERMONT,LUDLOW,5005149
6041,35314,-72.4,43.42,VERMONT,ASCUTNEY,5005089
1176491,5413911,-73.05,44.93333,VERMONT,HIGHGATE,5005478
1176488,5413905,-72.96667,44.53333,VERMONT,UNDERHILL,5005465
1176487,5413904,-73.11667,44.33333,VERMONT,HINESBURG,5005461
1176487,5413903,-73.0,44.5,VERMONT,JERICHO,5005465
1176487,5413902,-73.25,44.3,VERMONT,CHARLOTTE,5005445
1176485,5413898,-73.15,44.46667,VERMONT,(BTV)BURLINGTON ARPT,5005403
1176485,5413897,-73.21667,44.45,VERMONT,SOUTH BURLINGTON,5005401
1176484,5413896,-73.31667,43.9,VERMONT,SHOREHAM,5005770
1176474,5414096,-73.3,44.96667,VERMONT,ALBURG,5005440
1176474,5414095,-73.28333,44.71667,VERMONT,GRAND ISLE,5005458
37918,220666,-72.8,44.59,VERMONT,MORSES MILL,5005464
37918,220665,-72.86,44.53,VERMONT,UNDERHILL CENTER,5005489
37918,220664,-72.82,44.53,VERMONT,UNDERHILL CENTER,5005672
66517,398867,-72.97,43.52,VERMONT,CLARENDON,5005759
74897,455041,-72.9,44.51,VERMONT,UNDERHILL CENTER,5005489
53660,339577,-72.65,43.03,VERMONT,HARMONYVILLE,5005353
53645,321399,-73.05,43.83,VERMONT,FOREST DALE,5005733
53660,339576,-72.57,42.86,VERMONT,BRATTLEBORO,5005301
51943,314443,-72.28,44.09,VERMONT,WAITS RIVER,5005086
53660,321575,-72.859,42.9422,VERMONT,WEST DOVER,5005356
51942,312989,-72.03,44.38,VERMONT,PASSUMPSIC,5005819
51942,312990,-72.17,44.33,VERMONT,PEACHAM,5005862
51942,314400,-71.98,44.39,VERMONT,WEST WATERFORD,5005819
51942,314401,-72.51,44.2,VERMONT,BARRE,5005641
51942,314402,-72.13,44.41,VERMONT,DANVILLE,5005828
53660,321576,-72.77,42.95,VERMONT,EAST DOVER,5005341
51942,314403,-71.95,44.38,VERMONT,WEST WATERFORD,5005819
51942,314404,-72.04,44.33,VERMONT,EAST BARNET,5005819
51942,314405,-72.14,44.31,VERMONT,WEST BARNET,5005821
51942,314406,-72.83,44.19,VERMONT,IRASVILLE,5005673
51943,314421,-72.7,43.4,VERMONT,LUDLOW,5005149
51943,314423,-72.31,44.41,VERMONT,CABOT,5005647
51943,314425,-73.32,43.89,VERMONT,SHOREHAM,5005770
51943,314428,-72.72,44.38,VERMONT,WATERBURY CENTER,5005677
53660,321587,-73.19,43.0,VERMONT,SHAFTSBURY,5005262
53660,321588,-73.19,43.0,VERMONT,SHAFTSBURY,5005262
53660,321589,-73.17,43.0,VERMONT,SHAFTSBURY,5005262
51943,314429,-72.55,44.37,VERMONT,WORCESTER,5005682
8158,47016,-72.55,43.15,VERMONT,CAMBRIDGEPORT,5005101
8158,47015,-72.67,43.05,VERMONT,TOWNSHEND,5005353
8158,47014,-72.72,43.08,VERMONT,WEST TOWNSHEND,5005359
51943,314432,-71.68,44.46,VERMONT,LUNENBURG,5005906
51943,314434,-72.42,43.65,VERMONT,QUECNEE,5005001
51943,314437,-72.42,43.65,VERMONT,QUECNEE,5005001
51943,314445,-73.31,43.9,VERMONT,SHOREHAM,5005770
52919,316439,-72.96,43.71,VERMONT,CHITTENDEN,5005737
66323,397757,-73.06,44.51,VERMONT,ESSEX CENTER,5005452
66323,397754,-73.15,44.54,VERMONT,COLCHESTER,5005446
97301,585157,-72.99,44.33,VERMONT,HUNTINGTON,5005462
97301,585158,-72.98,44.4,VERMONT,RICHMOND,5005477
97301,585160,-72.99,44.41,VERMONT,RICHMOND,5005477
97301,585161,-72.99,44.41,VERMONT,RICHMOND,5005477
97301,585162,-72.95,44.41,VERMONT,JONESVILLE,5005477
97301,585163,-72.93,44.45,VERMONT,NASHVILLE,5005465
97301,585164,-72.83,44.53,VERMONT,UNDERHILL CENTER,5005489
51942,312899,-72.43,44.89,VERMONT,WESTFIELD,5005874
97301,585165,-72.21,44.94,VERMONT,NEWPORT,5005855
97301,585166,-73.0,44.11,VERMONT,LINCOLN,5005443
97301,585168,-72.2,44.95,VERMONT,NEWPORT,5005855
97301,585169,-73.03,43.97,VERMONT,RIPTON,5005766
97301,585170,-72.3,44.59,VERMONT,GREENSBORO,5005841
51942,312900,-72.24,44.91,VERMONT,(EFK)NEWPORT ARPT,5005855
51942,312901,-72.21,44.94,VERMONT,NEWPORT,5005855
51942,312902,-72.25,44.94,VERMONT,NEWPORT CENTER,5005857
51942,312903,-73.23,44.57,VERMONT,CHAMPLAIN ARPT,
51942,312905,-73.21,44.6,VERMONT,WEST MILTON,5005446
51942,312906,-73.15,44.54,VERMONT,COLCHESTER,5005446
51942,312907,-73.15,44.54,VERMONT,COLCHESTER,5005446
51942,312908,-73.27,44.55,VERMONT,CHAMPLAIN ARPT,5005446
51942,312909,-73.13,44.63,VERMONT,CHECKERBERRY,5005468
51942,312912,-73.12,44.63,VERMONT,MILTON,5005468
51942,312914,-73.11,44.64,VERMONT,MILTON,5005468
51942,312915,-73.13,44.62,VERMONT,CHECKERBERRY,5005468
97301,585156,-73.12,44.25,VERMONT,MONKTON RIDGE,5005443
97326,585324,-72.45,44.02,VERMONT,CHELSEA,5005038
51936,309425,-72.95,44.72,VERMONT,WEST FLETCHER,5005448
51929,319539,-73.19,44.49,VERMONT,WINOOSKI,5005404
52924,316484,-72.79,43.63,VERMONT,KILLINGTON,5005751
52924,316486,-72.79,43.64,VERMONT,KILLINGTON,5005751
52924,316487,-72.78,43.67,VERMONT,KILLINGTON,5005751
52924,316488,-72.7,43.46,VERMONT,TYSON,5005149
52924,316489,-73.04,43.66,VERMONT,PROCTOR,5005765
52924,316490,-73.19,44.49,VERMONT,WINOOSKI,5005404
52924,316500,-72.81,44.47,VERMONT,STOWE FORK,5005672
106032,636317,-73.0724,43.1575,VERMONT,MANCHESTER,5005254
18624,109798,-73.23,43.26,VERMONT,RUPERT,5005776
53163,318008,-73.01,44.67,VERMONT,FAIRFAX,5005454
53163,318010,-72.8538,44.5672,VERMONT,NORTH UNDERHILL,5005489
53163,318011,-72.93,44.59,VERMONT,NORTH UNDERHILL,5005489
53163,318012,-72.6711,44.9181,VERMONT,SOUTH RICHFORD,5005476
53163,318013,-72.71,44.88,VERMONT,ENOSBURG CENTER,5005450
53163,318014,-72.64,44.9,VERMONT,MONTGOMERY,5005471
53163,318015,-72.88,44.52,VERMONT,UNDERHILL CENTER,5005489
53163,318016,-72.69,44.47,VERMONT,STOWE,5005672
51929,319527,-73.21,44.69,VERMONT,MILTONBORO,5005468
51929,319528,-73.23,44.5,VERMONT,BURLINGTON,5005408
51929,319529,-73.1983,44.4882,VERMONT,WINOOSKI,5005401
51929,319530,-73.2242,44.4868,VERMONT,BURLINGTON,5005401
53163,318017,-72.74,44.5,VERMONT,STOWE FORK,5005672
53163,318018,-72.75,44.33,VERMONT,DUXBURY,5005676
53163,318019,-73.0067,43.6882,VERMONT,PITTSFORD MILLS,5005763
6100,35548,-72.02,44.52,VERMONT,LYNDON,5005851
51929,319564,-73.03,43.97,VERMONT,RIPTON,5005766
66323,397756,-73.11,44.49,VERMONT,ESSEX JCT,5005452
97326,585329,-72.0,44.49,VERMONT,BROWN ARPT,5005819
97326,585386,-73.08,44.14,VERMONT,BRISTOL,5005443
51942,312931,-72.68,44.64,VERMONT,JOHNSON,5005656
51942,312933,-72.84,44.18,VERMONT,IRASVILLE,5005673
51942,312936,-72.79,44.25,VERMONT,MORETOWN,5005660
51942,312939,-72.89,44.65,VERMONT,BINGHAMVILLE,5005444
51942,312941,-72.84,44.16,VERMONT,IRASVILLE,5005673
51942,312943,-72.66,44.63,VERMONT,EAST JOHNSON,5005656
51942,312954,-72.55,44.2,VERMONT,(MPV)-MONTPELIER ARPT,5005641
53426,319779,-73.25,44.17,VERMONT,VERGENNES,5005491
53426,319780,-73.24,44.14,VERMONT,VERGENNES,5005491
66323,397745,-73.28,43.6,VERMONT,FAIR HAVEN,5005743
1197796,5473566,-73.0,43.23333,VERMONT,EAST DORSET,5005253
66323,397747,-73.26,44.52,VERMONT,CHAMPLAIN ARPT,5005408
1135771,5300001,-72.63333,44.9,VERMONT,MONTGOMERY,5005471
51942,312957,-72.57,44.27,VERMONT,MONTPELIER,5005602
53429,320657,-71.5167,44.8933,VERMONT,CANAAN BUNNELL ARPT,5005905
53429,320657,-71.5081,44.8967,VERMONT,CANAAN BUNNELL ARPT,
51942,312959,-72.88,44.23,VERMONT,FAYSTON,5005673
51942,312960,-72.68,44.19,VERMONT,NORTHFIELD FALLS,5005663
1135772,5300002,-72.45,44.8,VERMONT,LOWELL,5005847
66323,397748,-73.21,44.48,VERMONT,BURLINGTON,5005401
66323,397749,-73.24,44.49,VERMONT,BURLINGTON,
51942,312962,-72.66,44.15,VERMONT,NORTHFIELD,5005663
51942,312964,-72.69,44.17,VERMONT,NORTHFIELD FALLS,5005663
66323,397751,-73.09,44.49,VERMONT,ESSEX JCT,5005452
66323,397752,-73.2,44.51,VERMONT,WINOOSKI,5005446
53421,319758,-72.45,43.78,VERMONT,SHARON,5005065
97326,585331,-71.93,44.7,VERMONT,NEWARK HOLLOW,5005871
53421,319757,-72.98,43.61,VERMONT,RUTLAND,5005701
51942,312925,-72.21,44.94,VERMONT,NEWPORT,5005855
97354,585498,-73.03,44.26,VERMONT,STARKSBORO,5005487
97354,585499,-73.06,44.23,VERMONT,STARKSBORO,5005487
97354,585500,-72.57,44.39,VERMONT,MAXHAM ARPT,5005682
97354,585501,-72.57,44.27,VERMONT,MONTPELIER,5005602
51942,312916,-73.13,44.63,VERMONT,CHECKERBERRY,5005468
51942,312917,-72.88,44.95,VERMONT,FRANKLIN,5005457
97354,585502,-72.0,44.53,VERMONT,LYNDONVILLE,5005851
51942,312919,-72.31,44.95,VERMONT,NEWPORT CENTER,5005857
1193482,5461008,-72.0,44.53333,VERMONT,LYNDONVILLE,5005851
1193476,5461002,-72.5,44.26667,VERMONT,EAST MONTPELIER,5005651
114629,687525,-73.27,43.6,VERMONT,FAIR HAVEN,5005743
114629,687524,-72.22,44.06,VERMONT,EAST CORINTH,5005040
114629,687523,-72.83,44.12,VERMONT,WARREN SUGARBUSH ARP,5005674
51942,312920,-72.62,44.59,VERMONT,HYDE PARK,5005655
51942,312921,-72.68,44.64,VERMONT,JOHNSON,5005656
1193463,5460913,-72.6,43.33333,VERMONT,GASSETTS,5005143
1193463,5460912,-72.6,43.26667,VERMONT,CHESTER,5005143
53421,319756,-73.05,43.59,VERMONT,WEST RUTLAND,5005777
114629,687521,-73.26,44.09,VERMONT,ADDISON,5005491
114629,687520,-73.3955,44.0909,VERMONT,WEST ADDISON,5005491
114629,687515,-73.3,44.09,VERMONT,ADDISON,5005491
114629,687514,-73.09,44.45,VERMONT,WILLISTON,5005495
51942,312922,-72.6,44.56,VERMONT,CADYS FALLS,5005661
51942,312923,-73.01,44.67,VERMONT,FAIRFAX,5005454
51942,312924,-72.6,44.58,VERMONT,CADYS FALLS,5005661
51942,312930,-72.13,44.96,VERMONT,DERBY CENTER,5005829
53163,318020,-72.95,43.64,VERMONT,MENDON,5005701
66517,398869,-72.94,43.52,VERMONT,EAST CLARENDON,5005759
21543,127361,-72.48,43.32,VERMONT,SPRINGFIELD,5005156
21666,128057,-72.54,43.67,VERMONT,SOUTH POMFRET,5005067
21666,128056,-72.9,44.45,VERMONT,WEST BOLTON,5005465
21666,128054,-72.83,44.19,VERMONT,IRASVILLE,5005673
21666,128053,-72.31,44.4,VERMONT,CABOT,5005647
40856,238069,-72.8658,44.1682,VERMONT,IRASVILLE,5005673
40856,238067,-72.8915,44.1377,VERMONT,WARREN,5005674
40856,237976,-73.04,43.66,VERMONT,PROCTOR,5005765
40856,237975,-72.4,43.54,VERMONT,HARTLAND,5005048
1120974,5261952,-73.06667,44.75,VERMONT,NORTH FAIRFAX,5005454
1120976,5261955,-72.76666999999999,44.68333,VERMONT,WATERVILLE,5005492
1120977,5261956,-73.08333,44.13333,VERMONT,BRISTOL,5005443
1120977,5261957,-73.15,44.11667,VERMONT,NEW HAVEN,5005472
9114,51676,-73.12,44.33,VERMONT,HINESBURG,5005461
9114,51677,-72.88,44.37,VERMONT,BOLTON,5005676
9114,51679,-72.75,44.33,VERMONT,DUXBURY,5005676
1120978,5261958,-73.26666999999999,43.6,VERMONT,FAIR HAVEN,5005743
9114,51680,-72.68,44.3,VERMONT,MIDDLESEX,5005602
21666,128100,-72.8428,44.6993,VERMONT,NORTH CAMBRIDGE,5005464
9114,51681,-72.6,43.95,VERMONT,RANDOLPH CENTER,5005061
1120973,5261951,-73.28333,44.81667,VERMONT,NORTH HERO,
1120969,5261946,-73.08333,44.13333,VERMONT,BRISTOL,5005443
1098901,5165240,-73.1,43.11667,VERMONT,SUNDERLAND,5005250
62670,375616,-73.06,43.53,VERMONT,IRA,5005777
62670,375614,-72.52,43.82,VERMONT,SOUTH ROYALTON,5005068
62670,375613,-72.35,44.67,VERMONT,MILL VLG,5005827
62670,375612,-72.63,43.83,VERMONT,BETHEL,5005032
1174281,5408523,-72.53333,43.56667,VERMONT,SOUTH WOODSTOCK,5005071
5765,33767,-73.15,43.08,VERMONT,ARLINGTON,5005250
62670,375611,-72.63,43.83,VERMONT,BETHEL,5005032
62670,375610,-73.32,43.89,VERMONT,SHOREHAM,5005770
62670,375609,-73.15,44.54,VERMONT,COLCHESTER,5005446
62670,375608,-72.22,44.73,VERMONT,WEST GLOVER,5005875
62670,375607,-73.23,44.55,VERMONT,CHAMPLAIN ARPT,5005446
40856,238070,-72.8802,44.1457,VERMONT,WARREN,5005674
63706,381249,-72.23,44.43,VERMONT,WALDEN,5005873
63706,381680,-72.66,44.15,VERMONT,NORTHFIELD,5005663
21666,128102,-72.8319,44.698,VERMONT,NORTH CAMBRIDGE,5005464
21666,128102,-72.8261,44.6963,VERMONT,NORTH CAMBRIDGE,5005464
1120971,5261949,-73.3,44.96667,VERMONT,ALBURG,5005440
1098901,5165241,-73.2,42.88333,VERMONT,BENNINGTON,5005201
1171398,5401215,-73.2,42.88333,VERMONT,BENNINGTON,5005201
1120979,5262028,-72.65,44.15,VERMONT,NORTHFIELD,5005663
40856,237954,-72.23,44.02,VERMONT,CORINTH,5005039
9336,52482,-72.3,43.72,VERMONT,NORWICH,5005055
40856,237951,-72.67,44.02,VERMONT,WEST BROOKFIELD,5005060
40856,237950,-72.69,44.47,VERMONT,STOWE,5005672
62974,376735,-72.4587,43.0678,VERMONT,WESTMINSTER,5005158
62974,376736,-72.5221,42.9711,VERMONT,PUTNEY STATION,5005346
40856,237949,-72.95,44.53,VERMONT,UNDERHILL FLATS,5005489
40856,237948,-73.06,44.51,VERMONT,ESSEX CENTER,5005452
40856,237948,-73.0608,44.5319,VERMONT,ESSEX CENTER,5005452
40856,237944,-73.0,44.11,VERMONT,LINCOLN,5005443
22156,130478,-73.13,43.13,VERMONT,SUNDERLAND,5005250
22158,130488,-72.45,43.14,VERMONT,BELLOWS FALLS,
11149,61197,-71.88,44.43,VERMONT,CONCORD,5005824
22158,130489,-72.51,43.14,VERMONT,SAXTONS RIVER,5005154
22158,130490,-72.45,43.14,VERMONT,BELLOWS FALLS,
40856,237940,-73.15,44.54,VERMONT,COLCHESTER,5005446
40856,237938,-73.1648,44.5445,VERMONT,COLCHESTER,5005446
1120981,5262030,-72.7,43.46667,VERMONT,TYSON,5005056
62670,375606,-73.3,43.93,VERMONT,CREAM HILL,5005770
1120980,5262029,-72.98333000000001,44.06667,VERMONT,SOUTH LINCOLN,5005443
62670,375602,-72.54,44.71,VERMONT,EDEN,5005652
40856,237974,-72.52,43.63,VERMONT,WOODSTOCK,5005091
40856,237973,-72.49,43.61,VERMONT,TAFTSVILLE,5005091
40856,237971,-73.0996,44.1628,VERMONT,BRISTOL ARPT,5005443
40856,237970,-72.14,44.41,VERMONT,DANVILLE,5005828
40856,237968,-73.0484,44.1588,VERMONT,SOUTH STARKSBORO,5005443
40856,237966,-73.08,44.14,VERMONT,BRISTOL,5005443
40856,237964,-72.69,43.97,VERMONT,BRAINTREE HILL,5005060
40856,237962,-72.6,44.05,VERMONT,BROOKFIELD,5005036
40856,237960,-72.66,44.15,VERMONT,NORTHFIELD,5005663
62974,376731,-72.4493,43.1328,VERMONT,BELLOWS FALLS,5005101
62974,376732,-72.4446,43.1328,VERMONT,BELLOWS FALLS,5005101
62974,376733,-72.4424,43.1349,VERMONT,BELLOWS FALLS,5005101
40856,237957,-72.5451,44.019,VERMONT,EAST BROOKFIELD,5005036
40856,237955,-72.13,43.99,VERMONT,BRADFORD,5005033
62974,376734,-72.4584,43.0678,VERMONT,WESTMINSTER,5005158
62670,375605,-72.38,44.73,VERMONT,ALBANY,5005820
62670,375603,-72.45,44.8,VERMONT,LOWELL,5005847
62670,375601,-72.83,44.91,VERMONT,ENOSBURG FALLS,5005450
40856,237938,-73.1607,44.57899999999999,VERMONT,COLCHESTER,5005446
41539,242125,-72.88,44.23,VERMONT,FAYSTON,5005673
62670,375618,-72.98,43.61,VERMONT,RUTLAND,5005701
95112,571493,-72.5232,42.7813,VERMONT,NORTH VERNON,5005354
29548,173267,-73.22,44.45,VERMONT,SOUTH BURLINGTON,5005401
1155353,5366363,-73.06667,44.43333,VERMONT,WILLISTON,5005495
1124444,5270816,-73.1,43.11667,VERMONT,SUNDERLAND,5005250
1217883,5526947,-72.05,44.3,VERMONT,BARNET,5005821
1217886,5526950,-72.4,43.55,VERMONT,HARTLAND,5005048
27551,161851,-72.55,43.75,VERMONT,EAST BARNARD,5005068
27551,161850,-72.66,44.15,VERMONT,NORTHFIELD,5005663
29548,173266,-73.0,44.09,VERMONT,LINCOLN,5005443
40199,233871,-73.17,44.0,VERMONT,MIDDLEBURY,5005753
40199,233873,-73.16,44.01,VERMONT,MIDDLEBURY,5005753
27551,161844,-72.437,44.1088,VERMONT,WASHINGTON,5005675
40199,233874,-73.12,43.96,VERMONT,EAST MIDDLEBURY,5005753
27551,161844,-72.4263,44.1066,VERMONT,WASHINGTON,5005675
27551,161839,-73.32,43.98,VERMONT,BRIDPORT,5005734
1096661,5150574,-73.2,43.41667,VERMONT,WELLS,5005774
9514,53495,-73.32,43.72,VERMONT,BENSON,5005743
1217880,5526942,-72.68333,44.46667,VERMONT,STOWE,5005672
9514,53494,-72.05,44.15,VERMONT,WELLS RIVER,5005081
9336,52481,-72.4,43.55,VERMONT,HARTLAND,5005048
1217875,5526935,-73.01666999999999,44.61667,VERMONT,WESTFORD,5005494
1217872,5526932,-72.53333,44.08333,VERMONT,WILLIAMSTOWN,5005679
86778,524072,-73.09,44.45,VERMONT,WILLISTON,5005495
1217871,5526931,-72.81667,44.18333,VERMONT,WAITSFIELD,5005673
86778,524069,-72.32,43.65,VERMONT,WHITE RIVER JCT,5005001
1217870,5526930,-73.25,44.3,VERMONT,CHARLOTTE,5005445
29134,170999,-73.19,42.87,VERMONT,BENNINGTON,5005201
86778,524068,-72.89,43.65,VERMONT,MENDON,5005701
56110,336558,-72.11,44.6,VERMONT,SHEFFIELD,5005866
56110,336557,-73.09,44.78,VERMONT,OAKLAND,5005478
40999,242662,-72.2191,44.3359,VERMONT,PEACHAM,5005862
40999,242662,-72.2168,44.3369,VERMONT,PEACHAM,5005862
86778,524067,-73.13,44.62,VERMONT,CHECKERBERRY,5005468
86778,524066,-73.06,44.6,VERMONT,BOWMAN CORNERS,5005494
86778,524065,-73.21,44.27,VERMONT,CHARLOTTE,5005445
87051,525480,-73.27,43.6,VERMONT,FAIR HAVEN,5005743
1217873,5526933,-71.98333000000001,44.5,VERMONT,LYNDON,5005851
1217874,5526934,-71.83333,44.46667,VERMONT,CONCORD,5005858
1217876,5526936,-72.91667,44.98333,VERMONT,FRANKLIN,5005457
62670,375617,-72.48,43.29,VERMONT,SPRINGFIELD,5005156
29488,175144,-73.0512,44.6029,VERMONT,WESTFORD,5005494
62806,375578,-72.0,44.53,VERMONT,LYNDONVILLE,5005851
5983,35572,-72.75,44.25,VERMONT,MORETOWN,5005660
29488,173161,-73.041,44.623000000000005,VERMONT,WESTFORD,5005494
29488,173160,-73.05,44.6,VERMONT,WESTFORD,5005494
62804,375918,-72.84,43.77,VERMONT,PITTSFIELD,5005762
29488,173149,-73.02,44.62,VERMONT,WESTFORD,5005494
29488,173148,-73.11,44.64,VERMONT,MILTON,5005468
1211832,5512516,-72.2,44.93333,VERMONT,NEWPORT,5005855
1211832,5512517,-72.2,44.93333,VERMONT,NEWPORT,5005855
1171218,5401392,-73.18333,43.61667,VERMONT,CASTLETON,5005735
62670,376759,-72.2592,44.6928,VERMONT,SOUTH ALBANY,5005875
62670,376759,-72.2609,44.6965,VERMONT,SOUTH ALBANY,5005875
62670,375646,-72.96,43.6,VERMONT,RUTLAND,5005701
62670,375639,-72.94,44.88,VERMONT,SHELDON,5005483
62670,375638,-73.12,44.92,VERMONT,SWANTON,5005488
62670,375621,-72.81,44.99,VERMONT,EAST FRANKLIN,5005450
62670,375620,-72.97,43.57,VERMONT,NORTH CLARENDON,5005759
62670,375619,-73.31,43.71,VERMONT,BENSON,5005743
5983,34944,-72.45,44.17,VERMONT,EAST BARRE,5005641
62806,375579,-72.7,43.28,VERMONT,ANDOVER,5005143
5983,34943,-73.15,44.47,VERMONT,(BTV)BURLINGTON ARPT,5005403
29488,173169,-72.95,43.71,VERMONT,CHITTENDEN,5005737
62806,375577,-73.09,44.44,VERMONT,WILLISTON,5005495
62806,375576,-73.25,44.31,VERMONT,CHARLOTTE,5005445
62806,375575,-73.09,44.23,VERMONT,STARKSBORO,5005443
62806,375574,-72.37,44.5,VERMONT,HARDWICK,5005843
62806,375573,-73.25,44.19,VERMONT,FERRISBURG,5005456
62806,375572,-73.34,44.88,VERMONT,ISLE LA MOTTE,5005463
62804,375923,-72.75,44.34,VERMONT,DUXBURY,5005676
62804,375922,-72.58,44.21,VERMONT,BERLIN,5005641
62804,375920,-72.93,44.45,VERMONT,NASHVILLE,5005465
62804,375919,-73.15,44.54,VERMONT,COLCHESTER,5005446
29488,173206,-72.88,44.72,VERMONT,EAST FLETCHER,5005464
29488,173203,-72.9801,44.656000000000006,VERMONT,FAIRFAX FALLS,5005454
29488,173197,-72.9741,44.6529,VERMONT,FAIRFAX FALLS,5005454
29488,173191,-72.4821,44.0512,VERMONT,WASHINGTON,5005675
29488,173191,-72.5291,44.0711,VERMONT,WILLIAMSTOWN,5005679
29488,173171,-72.76,44.64,VERMONT,WATERVILLE,5005656
29488,173170,-72.77,43.64,VERMONT,KILLINGTON,5005751
29488,173168,-72.6,44.05,VERMONT,BROOKFIELD,5005036
40856,237936,-73.11,44.64,VERMONT,MILTON,5005468
9114,51682,-72.98,43.6345,VERMONT,RUTLAND,5005701
1120987,5262044,-72.0,44.53333,VERMONT,LYNDONVILLE,5005851
9336,52496,-71.98,44.92,VERMONT,MORGAN CENTER,5005853
1120985,5262039,-72.51666999999999,43.63333,VERMONT,WOODSTOCK,5005091
1120985,5262038,-72.61667,43.73333,VERMONT,BARNARD,5005032
1189729,5449658,-73.16667,44.01667,VERMONT,MIDDLEBURY,5005753
1189729,5449657,-71.95,44.6,VERMONT,EAST BURKE,5005832
1120984,5262037,-72.31667,43.96667,VERMONT,VERSHIRE,5005079
38289,223138,-73.11,44.64,VERMONT,MILTON,5005468
9336,52492,-73.18,43.72,VERMONT,HUBBARDTON,5005732
38289,223139,-73.11,44.64,VERMONT,MILTON,5005468
79626,477483,-73.3,44.97,VERMONT,ALBURG,5005440
79626,477482,-73.11,43.97,VERMONT,EAST MIDDLEBURY,5005753
79626,477481,-73.1,43.93,VERMONT,LAKE DUNMORE,5005769
85639,517195,-73.04,43.66,VERMONT,PROCTOR,5005765
79626,477480,-73.21,43.96,VERMONT,CORNWALL,5005753
38289,223140,-73.19,44.5,VERMONT,WINOOSKI,5005404
38289,223141,-73.205,44.4769,VERMONT,BURLINGTON,5005401
9336,52483,-72.6919,43.2705,VERMONT,SIMONSVILLE,5005143
10268,56877,-73.28,44.72,VERMONT,GRAND ISLE,
22346,131323,-72.3,44.58,VERMONT,GREENSBORO,5005841
1120984,5262036,-72.6,43.95,VERMONT,RANDOLPH CENTER,5005061
1120985,5262040,-72.51666999999999,43.7,VERMONT,POMFRET,5005067
38289,223142,-73.19,44.5,VERMONT,WINOOSKI,5005404
38289,223143,-73.26,44.31,VERMONT,CHARLOTTE,5005445
85639,517196,-73.03,43.71,VERMONT,PITTSFORD,5005763
38289,223144,-73.0787,43.7173,VERMONT,FLORENCE JCT,5005744
38289,223145,-73.1909,43.6056,VERMONT,HYDEVILLE,5005735
9336,52484,-72.8,43.28,VERMONT,WESTON,5005161
85639,517197,-73.01,43.6,VERMONT,CENTER RUTLAND,5005736
85639,517194,-73.0,43.68,VERMONT,PROCTOR,5005763
1189732,5449661,-72.7,44.93333,VERMONT,EAST BERKSHIRE,5005447
28507,167745,-73.32,44.72,VERMONT,GRAND ISLE STATION,5005458
38289,223136,-73.17,44.65,VERMONT,WEST MILTON,5005468
28507,167743,-72.77,45.01,VERMONT,EAST FRANKLIN,5005450
28507,167742,-72.87,44.95,VERMONT,FRANKLIN,5005457
1122702,5265821,-73.11667,44.33333,VERMONT,HINESBURG,5005461
79626,477485,-72.61,44.92,VERMONT,MONTGOMERY,5005476
28507,167741,-72.92,44.98,VERMONT,FRANKLIN,5005457
28507,167739,-73.1,44.97,VERMONT,HIGHGATE SPGS,5005488
28507,167738,-72.82,44.91,VERMONT,ENOSBURG FALLS,5005450
28507,167733,-73.19,44.69,VERMONT,MILTONBORO,5005468
28507,167732,-73.3,43.8,VERMONT,ORWELL,5005760
9336,52488,-72.22,44.53,VERMONT,STANNARD,5005842
85639,517193,-73.09,43.8,VERMONT,BRANDON,5005733
85637,517187,-72.98,43.61,VERMONT,RUTLAND,5005701
42553,248277,-73.2016,42.8853,VERMONT,BENNINGTON,5005201
1215332,5521623,-73.1,43.11667,VERMONT,SUNDERLAND,5005250
9336,52489,-72.05,44.9,VERMONT,WEST CHARLESTON,5005872
1189734,5449663,-71.95,44.6,VERMONT,EAST BURKE,5005832
1189733,5449662,-72.1,45.0,VERMONT,DERBY LINE,5005830
40856,237935,-73.3,44.65,VERMONT,SOUTH HERO,5005486
79626,477484,-72.63,43.83,VERMONT,BETHEL,5005032
28091,165328,-73.21,44.15,VERMONT,VERGENNES,5005472
28091,165329,-73.27,44.16,VERMONT,VERGENNES,5005491
1096659,5150572,-72.0,44.46667,VERMONT,ST JOHNSBURY CENTER,5005819
4870,27907,-73.32,43.89,VERMONT,SHOREHAM,5005770
85637,517189,-72.93,43.65,VERMONT,MENDON,5005701
38289,223137,-73.15,44.54,VERMONT,COLCHESTER,5005446
85639,517198,-72.84,43.53,VERMONT,NORTH SHREWSBURY,5005738
9336,52486,-72.3,44.52,VERMONT,EAST HARDWICK,5005836
62670,375582,-72.71,43.76,VERMONT,RIVERSIDE,5005772
22309,131146,-72.13,43.99,VERMONT,BRADFORD,5005033
22309,131145,-72.45,44.02,VERMONT,CHELSEA,5005038
22309,131143,-73.32,43.98,VERMONT,BRIDPORT,5005734
22307,131138,-72.8,43.28,VERMONT,WESTON,5005161
55875,334967,-72.93,44.59,VERMONT,NORTH UNDERHILL,5005489
21543,127357,-73.3,44.09,VERMONT,ADDISON,5005491
55875,334964,-72.63,43.83,VERMONT,BETHEL,5005032
62670,375596,-73.04,44.94,VERMONT,HIGHGATE,5005459
22307,131137,-72.97,43.59,VERMONT,NORTH CLARENDON,5005701
1120983,5262035,-72.81667,43.78333,VERMONT,PITTSFIELD,5005762
1120983,5262034,-73.08333,43.8,VERMONT,BRANDON,5005733
1120983,5262033,-73.18333,43.61667,VERMONT,CASTLETON,5005735
55875,334965,-72.3,44.58,VERMONT,GREENSBORO,5005841
38631,224128,-72.38,44.61,VERMONT,CRAFTSBURY COMMON,5005826
9196,52806,-73.19,43.0,VERMONT,SHAFTSBURY,5005262
38631,224128,-72.42,44.62,VERMONT,CRAFTSBURY COMMON,5005826
38631,224126,-71.9,44.59,VERMONT,EAST BURKE,5005832
38631,224125,-71.93,44.58,VERMONT,EAST BURKE,5005832
85792,518152,-72.0,44.53,VERMONT,LYNDONVILLE,5005851
1120982,5262032,-72.46667,43.98333,VERMONT,CHELSEA,5005038
9196,52811,-72.58,42.82,VERMONT,GUILFORD,5005301
9336,52490,-72.1292,44.83,VERMONT,BROWNINGTON VLG,5005860
21543,127360,-72.6979,43.5961,VERMONT,BRIDGEWATER CORNERS,5005035
21543,127359,-72.93,43.65,VERMONT,MENDON,5005701
21543,127358,-73.03,43.71,VERMONT,PITTSFORD,5005763
22309,131147,-72.8,44.78,VERMONT,BAKERSFIELD,5005441
62670,375595,-73.27,44.95,VERMONT,ALBURG CENTER,5005440
55875,334966,-72.01,44.91,VERMONT,MORGAN,5005853
62670,375584,-72.53,44.28,VERMONT,EAST MONTPELIER CENT,5005651
10268,56878,-73.12,44.7345,VERMONT,GEORGIA CENTER,5005478
10268,56880,-72.95,43.6911,VERMONT,CHITTENDEN,5005737
1101029,5173241,-73.21667,44.45,VERMONT,SOUTH BURLINGTON,5005401
1101029,5173240,-73.21667,44.46667,VERMONT,BURLINGTON,5005401
38631,224137,-71.92399999999999,44.568000000000005,VERMONT,EAST BURKE,5005832
62670,375585,-72.45,44.32,VERMONT,NORTH MONTPELIER,5005667
62670,375599,-73.21,43.96,VERMONT,CORNWALL,5005753
10268,56881,-73.12,43.48,VERMONT,MIDDLETOWN SPGS,5005757
10268,56879,-72.83,44.65,VERMONT,JEFFERSONVILLE,5005464
1101028,5173239,-73.36667,44.2,VERMONT,BASIN HARBOR,
62670,375598,-72.81,44.9,VERMONT,ENOSBURG FALLS,5005450
62670,375597,-72.81,44.9,VERMONT,ENOSBURG FALLS,5005450
22311,131156,-73.08,44.14,VERMONT,BRISTOL,5005443
55875,334970,-72.99,43.41,VERMONT,SOUTH WALLINGFORD,5005773
55875,334969,-72.91,44.67,VERMONT,BINGHAMVILLE,5005444
62670,375583,-72.53,43.74,VERMONT,EAST BARNARD,5005068
38631,224136,-71.99,44.574,VERMONT,EGYPT,5005851
62670,375600,-73.17,44.02,VERMONT,MIDDLEBURY,5005753
