EPISODE_ID,EVENT_ID,LONGITUDE,LATITUDE,STATE,LOCATION,ZIPCODE
1150475,5351443,-81.4,39.03333,WEST VIRGINIA,PALESTINE,5426143
18557,108734,-81.07,37.35,WEST VIRGINIA,ONEY GAP,5424740
18557,108733,-81.1534,37.3368,WEST VIRGINIA,GLENWOOD,5424740
18557,108731,-81.14,37.3094,WEST VIRGINIA,CERES,5424701
18557,108730,-81.25,37.42,WEST VIRGINIA,GIATTO,5424736
18557,108729,-81.31,37.37,WEST VIRGINIA,MC COMAS,5424747
18557,108726,-80.3034,37.783,WEST VIRGINIA,WHITE SULPHUR SPGS,5424986
18552,108666,-77.84,39.36,WEST VIRGINIA,BARDANE,5425442
86783,524115,-80.75,39.9,WEST VIRGINIA,MOUNDSVILLE,5426041
18783,110465,-81.75,38.95,WEST VIRGINIA,RAVENSWOOD,5426164
6158,35909,-82.03,39.02,WEST VIRGINIA,MASON,5425260
6158,35908,-82.18,38.77,WEST VIRGINIA,GALLIPOLIS FERRY,5425515
1150475,5351442,-81.4,39.06667,WEST VIRGINIA,ELIZABETH,5426143
18557,108742,-80.987,37.6634,WEST VIRGINIA,JUMPING BRANCH,5425969
1150475,5351444,-81.11667,38.86667,WEST VIRGINIA,MT ZION,5426147
18783,110458,-82.45,38.32,WEST VIRGINIA,LAVALETTE,5425535
1150475,5351445,-81.1,38.91667,WEST VIRGINIA,GRANTSVILLE,5426147
1094681,5143623,-79.81667,39.06667,WEST VIRGINIA,MONTROSE,5426283
1094681,5143622,-80.08333,39.1,WEST VIRGINIA,TYGART JCT,5426416
53528,320335,-80.35,39.28,WEST VIRGINIA,CLARKSBURG,5426301
66764,400525,-81.43,38.22,WEST VIRGINIA,CEDAR GROVE,5425039
1094647,5143120,-80.73333000000001,39.91667,WEST VIRGINIA,MOUNDSVILLE,5426041
1094681,5143621,-80.3,39.23333,WEST VIRGINIA,ANMOORE,5426330
122683,734919,-81.59,37.25,WEST VIRGINIA,NEWHALL,5424866
1094647,5143121,-80.65,39.93333,WEST VIRGINIA,LIMESTONE,5426041
1094648,5143123,-80.56667,39.5,WEST VIRGINIA,SMITHFIELD,5426377
1094648,5143125,-79.31667,39.1,WEST VIRGINIA,PARSONS,5426833
1094681,5142341,-81.13333,37.98333,WEST VIRGINIA,OAK HILL,5425901
1094681,5142338,-81.63333,38.35,WEST VIRGINIA,CHARLESTON,5425301
1094680,5143618,-80.86667,39.53333,WEST VIRGINIA,KIDWELL,5426155
6155,35889,-81.28,38.13,WEST VIRGINIA,ALLOY,5425118
9616,53957,-80.7112,39.92,WEST VIRGINIA,MOUNDSVILLE,5426041
1150475,5351441,-81.55,39.26667,WEST VIRGINIA,PARKERSBURG,5426101
18783,110464,-81.53,37.97,WEST VIRGINIA,WHITESVILLE,5425209
6155,35888,-81.23,38.12,WEST VIRGINIA,CHARLTON HGTS,5425173
1215522,5520172,-78.23333000000001,39.63333,WEST VIRGINIA,BERKELEY SPGS,5425411
1215522,5520222,-78.6,39.4,WEST VIRGINIA,FORKS OF CACAOH,5426757
1094680,5143534,-80.48333000000001,38.36667,WEST VIRGINIA,COWEN,5426208
1215522,5520224,-78.31667,39.6,WEST VIRGINIA,BERKELEY SPGS,5425422
1094680,5143533,-80.55,38.41667,WEST VIRGINIA,COWEN,5426206
18783,110461,-81.83,38.07,WEST VIRGINIA,MADISON,5425130
18783,110459,-81.45,37.95,WEST VIRGINIA,COLCORD,5425060
1206999,5497473,-79.96667,38.73333,WEST VIRGINIA,MILL CREEK,5426280
95165,571758,-81.9087,38.396,WEST VIRGINIA,TEAYS,5425526
1206999,5497472,-81.45,37.33333,WEST VIRGINIA,ANAWALT,5424808
18783,110457,-82.43,38.22,WEST VIRGINIA,WAYNE,5425570
1206997,5497467,-80.4,39.16667,WEST VIRGINIA,WEST MILFORD,5426385
1206997,5497466,-80.7,38.66667,WEST VIRGINIA,SUTTON,5426601
63316,379806,-80.67,37.45,WEST VIRGINIA,LINDSIDE,5424963
18783,110460,-82.4963,38.4009,WEST VIRGINIA,WESTMORELAND,5425704
1215522,5520170,-78.23333000000001,39.63333,WEST VIRGINIA,BERKELEY SPGS,5425411
1150475,5351440,-81.66667,39.26667,WEST VIRGINIA,WASHINGTON,5426181
1215522,5520169,-79.11667,39.0,WEST VIRGINIA,PETERSBURG,5426847
1215522,5520167,-79.15,39.0,WEST VIRGINIA,PETERSBURG GRANT ARP,5426847
66764,400526,-82.0,37.85,WEST VIRGINIA,LOGAN,5425601
1094680,5143618,-80.88333,39.53333,WEST VIRGINIA,KIDWELL,5426149
6155,35887,-81.45,38.15,WEST VIRGINIA,DAWES,5425134
66771,400544,-81.4,39.07,WEST VIRGINIA,ELIZABETH,5426143
1215507,5519982,-77.96667,39.45,WEST VIRGINIA,MARTINSBURG,5425401
18783,110463,-81.6913,38.7375,WEST VIRGINIA,FAIR PLAIN,5425271
18783,110462,-81.4,38.7,WEST VIRGINIA,GANDEEVILLE,5425243
126920,760720,-80.57,40.09,WEST VIRGINIA,VALLEY GROVE,5426060
126920,760721,-80.63,40.05,WEST VIRGINIA,TRIADELPHIA,5426059
41043,239833,-78.6822,39.119,WEST VIRGINIA,ROCKOAK,5426755
126920,760723,-79.63600000000001,39.5835,WEST VIRGINIA,VALLEY PT,5426519
18475,110552,-77.8462,39.2752,WEST VIRGINIA,MECHANICSTOWN,5425414
18467,108603,-78.77,39.5,WEST VIRGINIA,FT ASHBY,5426719
18467,108603,-78.85,39.43,WEST VIRGINIA,REESES MILL,5426726
126920,760724,-79.68,39.09,WEST VIRGINIA,PORTERWOOD,5426287
1215522,5520168,-79.11667,38.95,WEST VIRGINIA,PETERSBURG,5426847
126920,760722,-80.69,39.73,WEST VIRGINIA,MILLSBORO,5426055
18798,110608,-80.9866,39.4723,WEST VIRGINIA,MIDDLEBOURNE,5426146
18783,110466,-81.67,38.9,WEST VIRGINIA,SANDYVILLE,5425275
18776,110398,-81.1,38.05,WEST VIRGINIA,FAYETTEVILLE,5425840
18795,110580,-81.8,38.58,WEST VIRGINIA,PARADISE,5425168
18776,110397,-81.13,37.98,WEST VIRGINIA,OAK HILL,5425901
18776,110396,-81.673,37.8866,WEST VIRGINIA,WHARTON,5425208
18783,110473,-79.93,39.22,WEST VIRGINIA,MOATSVILLE,5426405
18783,110450,-81.0,38.12,WEST VIRGINIA,HICO,5425854
18776,110395,-81.12,38.38,WEST VIRGINIA,BICKMORE,5425019
18783,110451,-81.48,38.45,WEST VIRGINIA,ELKVIEW,5425071
18783,110452,-82.2,38.22,WEST VIRGINIA,BRANCHLAND,5425506
18798,110632,-81.4,38.6734,WEST VIRGINIA,WALTON,5425286
18803,110718,-81.23,38.45,WEST VIRGINIA,BOMONT,5425030
18803,110719,-81.35,38.48,WEST VIRGINIA,CLENDENIN,5425045
18803,110720,-82.22,38.42,WEST VIRGINIA,ONA,5425545
18776,110394,-81.63,38.35,WEST VIRGINIA,CHARLESTON,5425301
18776,110393,-81.63,38.35,WEST VIRGINIA,CHARLESTON,5425301
18776,110392,-80.18,38.9,WEST VIRGINIA,TALLMANSVILLE,5426201
18803,110721,-82.13,38.43,WEST VIRGINIA,MILTON,5425541
18776,110399,-79.95,38.93,WEST VIRGINIA,NORTON,5426285
18783,110449,-81.4246,38.42,WEST VIRGINIA,PINCH,5425071
18783,110448,-81.48,38.45,WEST VIRGINIA,ELKVIEW,5425071
18798,110630,-81.0656,38.9089,WEST VIRGINIA,GRANTSVILLE,5426147
18783,110441,-81.13,37.73,WEST VIRGINIA,DANIELS,5425832
18798,110605,-81.02,39.45,WEST VIRGINIA,SHILOH,5426146
18796,110583,-80.35,39.22,WEST VIRGINIA,MT CLARE,5426408
18783,110440,-82.4424,38.4092,WEST VIRGINIA,HUNTINGTON,5425701
18783,110444,-81.18,37.78,WEST VIRGINIA,BECKLEY,5425801
18798,110624,-80.83,38.93,WEST VIRGINIA,GLENVILLE,5426351
18783,110445,-81.45,37.85,WEST VIRGINIA,ROCK CREEK,5425174
18783,110439,-82.22,38.32,WEST VIRGINIA,SALT ROCK,5425559
18783,110453,-81.67,38.48,WEST VIRGINIA,POCATALICO,5425312
18783,110447,-81.82,37.97,WEST VIRGINIA,JEFFREY,5425114
18798,110625,-80.83,38.93,WEST VIRGINIA,GLENVILLE,5426351
18783,110438,-80.9432,38.5943,WEST VIRGINIA,SERVIA,5425063
18798,110628,-80.83,38.93,WEST VIRGINIA,GLENVILLE,5426351
18783,110436,-81.53,37.58,WEST VIRGINIA,PINEVILLE,5424874
18783,110435,-81.6412,37.5993,WEST VIRGINIA,CLEAR FORK,5424818
18783,110434,-81.6412,37.5993,WEST VIRGINIA,CLEAR FORK,5424818
18783,110433,-81.68,37.63,WEST VIRGINIA,CLEAR FORK,5424822
18783,110430,-81.73,37.6,WEST VIRGINIA,SIMON,5424839
18795,110971,-81.8226,38.6,WEST VIRGINIA,LIBERTY,5425123
18803,110722,-81.97,38.3,WEST VIRGINIA,BYRNSIDE,5425526
18776,110381,-81.97,38.03,WEST VIRGINIA,TURTLE CREEK,5425524
18776,110377,-80.63,38.75,WEST VIRGINIA,HEATERS,5426627
9612,53927,-80.02,39.68,WEST VIRGINIA,PURSGLOVE,5426501
18783,110470,-82.0,37.85,WEST VIRGINIA,LOGAN,5425601
18773,110340,-81.95,37.65,WEST VIRGINIA,HAMPDEN,5425621
18773,110339,-81.95,37.65,WEST VIRGINIA,HAMPDEN,5425621
1121217,5262937,-81.15,37.76667,WEST VIRGINIA,BECKLEY,5425801
18783,110456,-81.9,38.53,WEST VIRGINIA,RED HOUSE,5425213
9612,53928,-79.8,39.55,WEST VIRGINIA,MASONTOWN,5426542
1121217,5262934,-81.18333,37.78333,WEST VIRGINIA,BECKLEY,5425801
9612,53926,-80.74,39.92,WEST VIRGINIA,MOUNDSVILLE,5426041
1121217,5262933,-81.71667,37.96667,WEST VIRGINIA,VAN,5425206
9612,53929,-79.47,39.13,WEST VIRGINIA,DAVIS,5426260
1120685,5262678,-80.55,40.61667,WEST VIRGINIA,CHESTER,5426034
1120685,5262681,-80.46667,39.68333,WEST VIRGINIA,HUNDRED,5426575
18783,110469,-81.8698,37.692,WEST VIRGINIA,LANDVILLE,5425611
1094646,5143115,-80.6,40.26667,WEST VIRGINIA,WELLSBURG,5426070
18798,110622,-80.9474,38.6067,WEST VIRGINIA,SERVIA,5425063
1094646,5143119,-79.63333,39.65,WEST VIRGINIA,BRUCETON MILLS,5426525
18783,110467,-82.0,37.85,WEST VIRGINIA,LOGAN,5425601
1206999,5497474,-82.0,37.78333,WEST VIRGINIA,SWITZER,5425647
1120685,5262683,-79.75,39.38333,WEST VIRGINIA,TUNNELTON,5426444
18783,110471,-82.18,37.87,WEST VIRGINIA,DINGESS,5425671
18773,110342,-81.95,37.65,WEST VIRGINIA,HAMPDEN,5425621
18776,110376,-80.93,38.85,WEST VIRGINIA,NORMANTOWN,5425267
18783,110454,-81.63,38.53,WEST VIRGINIA,SISSONVILLE,5425320
18803,110723,-81.98,38.57,WEST VIRGINIA,FRAZIERS BOTTOM,5425168
18803,110724,-81.9,38.53,WEST VIRGINIA,RED HOUSE,5425213
18776,110374,-81.38,37.53,WEST VIRGINIA,BUD,5424716
18803,110725,-81.8,38.58,WEST VIRGINIA,PARADISE,5425168
18783,110455,-81.8,38.58,WEST VIRGINIA,PARADISE,5425168
1121217,5263041,-82.28333,37.93333,WEST VIRGINIA,BREEDEN,5425666
18803,110730,-81.83,38.38,WEST VIRGINIA,ST ALBANS,5425177
18773,110354,-81.63,38.35,WEST VIRGINIA,CHARLESTON,5425301
18803,110726,-81.63,38.53,WEST VIRGINIA,SISSONVILLE,5425320
18773,110349,-81.68,37.73,WEST VIRGINIA,CYCLONE,5424827
18773,110347,-81.87,37.62,WEST VIRGINIA,GILBERT,5425621
18803,110727,-81.83,38.38,WEST VIRGINIA,ST ALBANS,5425177
18773,110345,-81.88,37.73,WEST VIRGINIA,MAN,5425635
18773,110343,-81.95,37.65,WEST VIRGINIA,HAMPDEN,5425621
18803,110728,-81.83,38.38,WEST VIRGINIA,ST ALBANS,5425177
18803,110729,-81.78,38.42,WEST VIRGINIA,CROSS LANES,5425313
18773,110350,-81.7348,38.2288,WEST VIRGINIA,ALUM CREEK,5425003
18783,110468,-82.3,37.7711,WEST VIRGINIA,LENORE,5425661
18162,106318,-81.4,38.63,WEST VIRGINIA,WALTON,5425286
1150475,5351447,-80.55,38.41667,WEST VIRGINIA,COWEN,5426206
1170632,5399118,-81.83333,38.08333,WEST VIRGINIA,DANVILLE,5425053
1170632,5399119,-81.38333,37.58333,WEST VIRGINIA,MULLENS,5425882
1170632,5399120,-81.08333,38.13333,WEST VIRGINIA,ANSTED,5425812
1170632,5399121,-81.53333,37.58333,WEST VIRGINIA,PINEVILLE,5424874
1136908,5302417,-78.6,39.08333,WEST VIRGINIA,WARDENSVILLE,5426851
1136908,5302418,-78.05,39.41667,WEST VIRGINIA,ARDEN,5425403
67946,407665,-81.8844,38.6988,WEST VIRGINIA,LEON,5425123
67946,407666,-80.45,39.0011,WEST VIRGINIA,WESTON,5426452
67946,407667,-82.58,38.3855,WEST VIRGINIA,KENOVA,5425530
67946,407672,-81.7,38.82,WEST VIRGINIA,RIPLEY,5425271
67946,407673,-81.78,38.82,WEST VIRGINIA,EVANS,5425241
1170632,5399030,-81.83333,38.38333,WEST VIRGINIA,ST ALBANS,5425177
9167,52084,-77.78,39.25,WEST VIRGINIA,SUMMIT PT,5425425
1170635,5399126,-81.95,38.7,WEST VIRGINIA,LEON,5425123
1170635,5399127,-81.8,38.58333,WEST VIRGINIA,PARADISE,5425168
68004,407848,-78.1944,39.3999,WEST VIRGINIA,GLENGARY,5425427
68014,407865,-78.225,39.510999999999996,WEST VIRGINIA,STOTLERS XRDS,5425411
68029,407918,-78.38,39.565,WEST VIRGINIA,HANSROTE,5425422
18112,105755,-80.03,39.15,WEST VIRGINIA,PHILIPPI,5426416
18112,105751,-82.47,38.42,WEST VIRGINIA,HUNTINGTON,5425704
18112,105750,-82.28,38.42,WEST VIRGINIA,BARBOURSVILLE,5425504
18112,105748,-80.58,38.78,WEST VIRGINIA,NAPIER,5426631
18112,105747,-81.22,38.93,WEST VIRGINIA,ANNAMORIAH,5426141
18112,105746,-81.12,38.87,WEST VIRGINIA,MT ZION,5426147
67946,407674,-81.7,38.82,WEST VIRGINIA,RIPLEY,5425271
55947,335432,-81.67,38.9,WEST VIRGINIA,SANDYVILLE,5425275
1170632,5399029,-81.88333,38.35,WEST VIRGINIA,TORNADO,5425177
95133,571588,-80.77,39.02,WEST VIRGINIA,TROY,5426384
105656,634053,-82.5853,38.1061,WEST VIRGINIA,PADDLE CREEK,5425514
105656,634053,-82.5812,38.1076,WEST VIRGINIA,PADDLE CREEK,5425514
105656,634054,-81.962,38.225,WEST VIRGINIA,YAWKEY,5425573
105656,634054,-81.96600000000001,38.2239,WEST VIRGINIA,YAWKEY,5425573
105656,634113,-81.642,38.291,WEST VIRGINIA,SOUTH CHARLESTON,5425314
105656,634113,-81.611,38.303000000000004,WEST VIRGINIA,SOUTH PARK,5425304
1170632,5399026,-82.2,38.28333,WEST VIRGINIA,WEST HAMLIN,5425506
105983,635976,-80.91,39.49,WEST VIRGINIA,MIDDLEBOURNE,5426149
1170632,5399027,-81.95,38.43333,WEST VIRGINIA,TEAYS,5425526
18162,110329,-81.75,38.95,WEST VIRGINIA,RAVENSWOOD,5426164
18162,110327,-81.53,39.18,WEST VIRGINIA,MINERAL WELLS,5426150
18162,106740,-82.18,38.77,WEST VIRGINIA,GALLIPOLIS FERRY,5425515
18162,106560,-80.0004,38.417,WEST VIRGINIA,LINWOOD,5426209
18162,106532,-81.08,38.47,WEST VIRGINIA,CLAY,5425043
1150476,5351561,-81.33333,37.7,WEST VIRGINIA,SOPHIA,5425865
1150476,5351562,-81.35,37.76667,WEST VIRGINIA,GLEN DANIEL,5425865
1150476,5351563,-81.23333000000001,37.73333,WEST VIRGINIA,CRAB ORCHARD,5425827
18162,106433,-82.12,38.85,WEST VIRGINIA,POINT PLEASANT,5425550
18162,106348,-81.7,38.82,WEST VIRGINIA,RIPLEY,5425271
1150476,5351564,-82.46667,38.41667,WEST VIRGINIA,HUNTINGTON,5425701
37673,219270,-78.87,39.44,WEST VIRGINIA,REESES MILL,5426726
95133,571756,-80.1606,38.8486,WEST VIRGINIA,QUEENS,5426237
95133,571756,-80.1294,38.8406,WEST VIRGINIA,QUEENS,5426237
1150481,5351874,-80.56667,39.28333,WEST VIRGINIA,SALEM,5426426
1150482,5351877,-81.78333,38.81667,WEST VIRGINIA,EVANS,5425241
18112,105745,-80.8621,38.8814,WEST VIRGINIA,LETTER GAP,5426351
18112,105744,-81.6431,38.3398,WEST VIRGINIA,CHARLESTON,5425314
18112,105743,-81.6496,38.3654,WEST VIRGINIA,CHARLESTON,5425302
18112,105741,-80.33,38.83,WEST VIRGINIA,ROCK CAVE,5426234
1170635,5399130,-81.2,38.48333,WEST VIRGINIA,PROCIOUS,5425164
1134433,5291635,-81.21667,37.68333,WEST VIRGINIA,COAL CITY,5425823
1208246,5503842,-80.3,37.78333,WEST VIRGINIA,WHITE SULPHUR SPGS,5424986
1208246,5503843,-80.48333000000001,37.81667,WEST VIRGINIA,LEWISBURG,5424901
1208249,5503957,-80.7,38.06667,WEST VIRGINIA,QUINWOOD,5425981
1208249,5503958,-80.7,38.01667,WEST VIRGINIA,QUINWOOD,5425958
1208249,5503959,-80.3,37.78333,WEST VIRGINIA,WHITE SULPHUR SPGS,5424986
1208249,5503960,-80.3,37.78333,WEST VIRGINIA,WHITE SULPHUR SPGS,5424986
1208253,5504029,-81.1,37.36667,WEST VIRGINIA,PRINCETON,5424740
1170637,5399220,-79.95,38.93333,WEST VIRGINIA,REEDY,5426285
1134434,5291712,-81.83333,38.08333,WEST VIRGINIA,DANVILLE,5425053
68534,412998,-80.74,38.0,WEST VIRGINIA,CHARMCO,5425962
68653,411759,-78.18,39.59,WEST VIRGINIA,NEW HOPE,5425411
1134434,5291715,-81.7,37.46667,WEST VIRGINIA,HENSLEY,5424816
1170637,5399222,-81.65,38.6,WEST VIRGINIA,WEST UNION,5425248
68772,412492,-78.8719,38.847,WEST VIRGINIA,LOST CITY,5426812
106452,639031,-80.16,39.61,WEST VIRGINIA,HOODSVILLE,5426588
106452,639032,-80.16,39.61,WEST VIRGINIA,MC CURDYSVILLE,5426588
106452,639034,-79.95,39.64,WEST VIRGINIA,FIELDCREST,5426505
106452,639035,-79.8,39.51,WEST VIRGINIA,REEDSVILLE,5426547
106452,639036,-79.77,39.5,WEST VIRGINIA,KANES CREEK,5426547
106452,639037,-79.74,39.48,WEST VIRGINIA,MANOWN,5426537
106452,639038,-80.62,39.94,WEST VIRGINIA,PLEASANT VLY,5426041
106455,639044,-80.5796,40.53,WEST VIRGINIA,PUGHTOWN,5426047
1170637,5399225,-80.03333,38.9,WEST VIRGINIA,WEST MILFORD,5426257
68272,409544,-80.5419,37.8735,WEST VIRGINIA,ASBURY,5424931
1170632,5399025,-82.1,38.28333,WEST VIRGINIA,HAMLIN,5425523
68145,408862,-79.93,39.22,WEST VIRGINIA,MOATSVILLE,5426405
68145,408859,-82.0168,37.9727,WEST VIRGINIA,CHAPMANVILLE,5425508
18112,105740,-80.03,39.35,WEST VIRGINIA,GRAFTON,5426354
18112,105739,-79.92,39.18,WEST VIRGINIA,NESTORVILLE,5426405
18112,105738,-80.3,39.4,WEST VIRGINIA,SHINNSTON,5426431
18112,105737,-80.3,39.4,WEST VIRGINIA,SHINNSTON,5426431
18112,105736,-81.4,39.07,WEST VIRGINIA,ELIZABETH,5426143
18112,105735,-81.5673,39.18,WEST VIRGINIA,MINERAL WELLS,5426150
18112,105734,-81.38,39.18,WEST VIRGINIA,WALKER,5426180
18112,105733,-81.53,39.18,WEST VIRGINIA,MINERAL WELLS,5426150
68043,408060,-79.96,39.63,WEST VIRGINIA,WESTOVER,5426505
68046,408085,-79.68,39.09,WEST VIRGINIA,PORTERWOOD,5426287
68046,408086,-79.96,39.63,WEST VIRGINIA,WESTOVER,5426505
68046,408087,-79.96,39.63,WEST VIRGINIA,WESTOVER,5426505
68046,408088,-79.96,39.63,WEST VIRGINIA,WESTOVER,5426505
68046,408089,-79.95,39.64,WEST VIRGINIA,FIELDCREST,5426505
1208246,5503840,-80.7,38.06667,WEST VIRGINIA,QUINWOOD,5425981
1208246,5503841,-80.45,37.8,WEST VIRGINIA,LEWISBURG,5424901
68046,408090,-79.95,39.64,WEST VIRGINIA,FIELDCREST,5426505
68046,408092,-79.68,39.18,WEST VIRGINIA,ST GEORGE,5426287
68046,408093,-80.14,39.48,WEST VIRGINIA,FAIRMONT,5426554
68046,408096,-79.82,39.41,WEST VIRGINIA,HIORRA,5426410
68049,408105,-80.19,39.47,WEST VIRGINIA,JAYENN,5426554
1170635,5399128,-81.65,38.68333,WEST VIRGINIA,KENNA,5425271
68145,408856,-80.0036,39.1295,WEST VIRGINIA,PHILIPPI,5426416
68145,408857,-80.0189,39.135,WEST VIRGINIA,PHILIPPI,5426416
68145,408858,-81.9866,37.9905,WEST VIRGINIA,BANCO,5425508
68145,408861,-81.2212,38.3334,WEST VIRGINIA,INDORE,5425125
1150475,5351446,-80.7,38.66667,WEST VIRGINIA,SUTTON,5426601
67468,404516,-79.2332,39.218,WEST VIRGINIA,BISMARK,5426739
67422,404337,-81.13,37.51,WEST VIRGINIA,CAMP CREEK,5425820
1176909,5415657,-81.25,39.23333,WEST VIRGINIA,NUTTERS FARM,5426161
1176910,5415658,-81.0,39.56667,WEST VIRGINIA,SISTERSVILLE,5426175
1176913,5415662,-81.31667,38.18333,WEST VIRGINIA,MONTGOMERY,5425156
1114190,5243371,-81.1,37.36667,WEST VIRGINIA,PRINCETON,5424740
52890,316335,-80.56,40.61,WEST VIRGINIA,NEWELL,5426034
86158,520201,-78.11,39.36,WEST VIRGINIA,GERRARDSTOWN,5425420
40297,234467,-81.02,37.42,WEST VIRGINIA,ATHENS,5424740
79275,475542,-80.6697,37.4537,WEST VIRGINIA,LINDSIDE,5424963
40297,234465,-81.1,37.37,WEST VIRGINIA,PRINCETON,5424740
86158,520200,-79.3317,38.6418,WEST VIRGINIA,FRANKLIN,5426807
1206997,5497227,-81.63333,38.35,WEST VIRGINIA,CHARLESTON,5425301
1176909,5415656,-82.16667,38.61667,WEST VIRGINIA,ASHTON,5425503
55936,335350,-81.17,37.88,WEST VIRGINIA,MT HOPE,5425880
55947,335430,-81.5795,38.9809,WEST VIRGINIA,LOCKHART,5425275
1170602,5398520,-80.45,37.61667,WEST VIRGINIA,HOLLYWOOD,5424983
1170604,5398526,-81.31667,37.3,WEST VIRGINIA,MONTCALM,5424738
1170604,5398614,-81.1,37.36667,WEST VIRGINIA,PRINCETON,5424740
1170604,5398615,-81.01666999999999,37.41667,WEST VIRGINIA,ATHENS,5424740
1150476,5351455,-81.98333000000001,38.61667,WEST VIRGINIA,BUFFALO,5425033
1114197,5243485,-81.01666999999999,37.41667,WEST VIRGINIA,ATHENS,5424740
1150476,5351456,-82.46667,38.41667,WEST VIRGINIA,HUNTINGTON,5425701
1150476,5351461,-82.06667,37.83333,WEST VIRGINIA,HOLDEN,5425625
1170604,5398616,-81.1,37.48333,WEST VIRGINIA,CAMP CREEK,5425922
1170604,5398617,-81.11667,37.45,WEST VIRGINIA,SPANISHBURG,5425922
55947,335428,-82.17,38.65,WEST VIRGINIA,APPLE GROVE,5425503
1176909,5415656,-82.18333,38.58333,WEST VIRGINIA,ASHTON,5425520
1176909,5415654,-81.63333,38.35,WEST VIRGINIA,CHARLESTON,5425301
1176909,5415653,-81.55,39.26667,WEST VIRGINIA,PARKERSBURG,5426101
127003,761180,-80.73,39.53,WEST VIRGINIA,FAR,5426167
18278,108174,-77.99,39.42,WEST VIRGINIA,(MRB)SHEPHERD FLD MR,5425405
127003,761181,-79.52,39.17,WEST VIRGINIA,FORTY THREE,5426292
9398,52763,-77.97,39.45,WEST VIRGINIA,MARTINSBURG,5425401
66976,401893,-80.58,40.53,WEST VIRGINIA,PUGHTOWN,5426056
44901,260241,-80.58,40.4,WEST VIRGINIA,WEIRTON,5426062
66976,401894,-80.58,40.53,WEST VIRGINIA,PUGHTOWN,5426056
66976,401895,-80.52,39.7,WEST VIRGINIA,LITTLETON,5426581
66976,401896,-80.58,39.66,WEST VIRGINIA,ENDICOTT,5426581
66976,401897,-80.52,39.7,WEST VIRGINIA,LITTLETON,5426581
66976,401898,-80.52,39.7,WEST VIRGINIA,LITTLETON,5426581
127003,761182,-79.67,39.09,WEST VIRGINIA,PORTERWOOD,5426287
1098166,5153474,-79.5,39.15,WEST VIRGINIA,THOMAS,5426292
63316,379801,-81.22,37.27,WEST VIRGINIA,BLUEFIELD,5424701
63316,379797,-81.1,37.37,WEST VIRGINIA,PRINCETON,5424740
63316,379797,-81.0832,37.3645,WEST VIRGINIA,PRINCETON,5424740
1206997,5497228,-81.1,38.86667,WEST VIRGINIA,GRANTSVILLE,5426147
53103,317667,-79.47,39.13,WEST VIRGINIA,DAVIS,5426260
53103,317666,-79.96,39.63,WEST VIRGINIA,WESTOVER,5426505
53038,317274,-80.58,40.34,WEST VIRGINIA,FOLLANSBEE,5426037
53038,317273,-80.12,39.53,WEST VIRGINIA,MONTANA,5426588
53038,317272,-80.14,39.48,WEST VIRGINIA,FAIRMONT,5426554
53038,317271,-80.14,39.48,WEST VIRGINIA,FAIRMONT,5426554
53038,317270,-80.14,39.48,WEST VIRGINIA,FAIRMONT,5426554
1176909,5415652,-82.11667,38.85,WEST VIRGINIA,POINT PLEASANT,5425550
1170604,5398618,-80.93333,37.4,WEST VIRGINIA,ELGOOD,5424740
1210169,5505277,-80.13333,38.18333,WEST VIRGINIA,BUCKEYE,5424924
1210169,5505276,-80.23333000000001,39.0,WEST VIRGINIA,BUCKHANNON,5426201
1210169,5505275,-80.3,38.88333,WEST VIRGINIA,FRENCH CREEK,5426218
1210157,5505097,-81.11667,38.86667,WEST VIRGINIA,MT ZION,5426147
1210157,5505095,-80.86667,38.61667,WEST VIRGINIA,FRAMETOWN,5426623
1210157,5505094,-80.95,38.73333,WEST VIRGINIA,ROSEDALE,5426636
1210157,5505093,-80.9,38.98333,WEST VIRGINIA,GLENVILLE,5426342
1210157,5505092,-80.76666999999999,38.66667,WEST VIRGINIA,GASSAWAY,5426601
1210156,5505091,-80.2,38.7,WEST VIRGINIA,HELVETIA,5426224
1210156,5505090,-80.45,38.91667,WEST VIRGINIA,WESTON,5426447
1210155,5505089,-81.1,37.65,WEST VIRGINIA,SHADY SPG,5425825
1210155,5505087,-81.53333,37.58333,WEST VIRGINIA,PINEVILLE,5424874
1210155,5505086,-81.86667,37.61667,WEST VIRGINIA,GILBERT,5425621
1210155,5505085,-81.63333,38.35,WEST VIRGINIA,CHARLESTON,5425301
1210155,5505084,-82.43333,38.21667,WEST VIRGINIA,WAYNE,5425570
1210155,5505083,-81.11667,38.38333,WEST VIRGINIA,BICKMORE,5425019
1210155,5505082,-81.35,38.48333,WEST VIRGINIA,CLENDENIN,5425045
1210155,5505081,-81.1,38.91667,WEST VIRGINIA,GRANTSVILLE,5426147
1210155,5505079,-81.53333,39.18333,WEST VIRGINIA,MINERAL WELLS,5426150
1210155,5505078,-81.66667,38.91667,WEST VIRGINIA,SANDYVILLE,5425275
1210155,5505077,-81.58333,37.43333,WEST VIRGINIA,WELCH,5424801
1210155,5505076,-81.65,37.41667,WEST VIRGINIA,PREMIER,5424878
1210155,5505075,-81.93333,37.8,WEST VIRGINIA,LYBURN,5425632
1150476,5351560,-81.3,37.73333,WEST VIRGINIA,LESTER,5425865
1170630,5399010,-81.05,39.21667,WEST VIRGINIA,HARRISVILLE,5426362
1170630,5399014,-80.83333,38.93333,WEST VIRGINIA,GLENVILLE,5426351
67392,404161,-77.7546,39.3256,WEST VIRGINIA,BOLIVAR,5425425
67408,404239,-78.5456,39.0891,WEST VIRGINIA,WARDENSVILLE,5426851
1210157,5505098,-81.11667,38.38333,WEST VIRGINIA,BICKMORE,5425019
67468,404515,-79.2734,39.2256,WEST VIRGINIA,STONY RIVER,5426739
1210157,5505099,-80.95,38.28333,WEST VIRGINIA,ZELA,5426651
18278,108172,-78.09,39.37,WEST VIRGINIA,GERRARDSTOWN,5425420
1210169,5505274,-80.26666999999999,38.9,WEST VIRGINIA,ADRIAN,5426218
1210169,5505273,-80.18333,38.9,WEST VIRGINIA,TALLMANSVILLE,5426201
1210169,5505272,-80.1,38.21667,WEST VIRGINIA,MARLINTON,5424954
1210169,5505271,-80.38333,39.0,WEST VIRGINIA,HORNER,5426372
1210169,5505270,-81.58333,37.43333,WEST VIRGINIA,WELCH,5424801
1210169,5505269,-80.95,39.18333,WEST VIRGINIA,PULLMAN,5426421
1210169,5505268,-80.78333,39.3,WEST VIRGINIA,WEST UNION,5426456
1210169,5505267,-81.01666999999999,39.36667,WEST VIRGINIA,HEBRON,5426346
1210164,5505192,-81.18333,37.78333,WEST VIRGINIA,BECKLEY,5425801
1210164,5505189,-82.11667,38.33333,WEST VIRGINIA,PORTERSVILLE,5425523
1210164,5505187,-82.58333,38.41667,WEST VIRGINIA,KENOVA,
1210164,5505184,-81.75,38.95,WEST VIRGINIA,RAVENSWOOD,5426164
1210164,5505182,-81.81667,39.08333,WEST VIRGINIA,MURRAYSVILLE,
1210164,5505181,-81.0,39.56667,WEST VIRGINIA,SISTERSVILLE,5426175
1170622,5398919,-80.03333,39.15,WEST VIRGINIA,PHILIPPI,5426416
1170622,5398924,-79.85,38.91667,WEST VIRGINIA,ELKINS,5426241
1170625,5398928,-80.38333,38.65,WEST VIRGINIA,HACKER VLY,5426222
1150476,5351556,-82.03333,37.83333,WEST VIRGINIA,CORA,5425625
1150476,5351558,-81.81667,37.78333,WEST VIRGINIA,AMHERSTDALE,5425607
1210161,5505108,-81.83333,37.76667,WEST VIRGINIA,ACCOVILLE,5425606
1210161,5505107,-82.06667,37.83333,WEST VIRGINIA,HOLDEN,5425625
1210161,5505106,-82.3,37.76667,WEST VIRGINIA,CHATTAROY,5425661
1150476,5351559,-81.68333,37.73333,WEST VIRGINIA,CYCLONE,5424827
1210159,5505104,-80.7,38.66667,WEST VIRGINIA,SUTTON,5426601
1210159,5505102,-82.2,38.28333,WEST VIRGINIA,WEST HAMLIN,5425506
1210157,5505100,-81.0,38.11667,WEST VIRGINIA,HICO,5425854
1170615,5398738,-81.21667,37.31667,WEST VIRGINIA,BLUEFIELD,5424701
123840,743093,-81.97,38.9857,WEST VIRGINIA,NEW HAVEN,5425265
1094681,5143625,-80.16667,39.31667,WEST VIRGINIA,MEADLAND,5426330
57172,342487,-77.9186,39.5936,WEST VIRGINIA,MARLOWE,5425419
1112825,5240175,-78.88333,39.36667,WEST VIRGINIA,KEYSER,5426710
83855,506381,-80.57,39.28,WEST VIRGINIA,SALEM,5426426
83855,506375,-81.4989,38.4038,WEST VIRGINIA,PINCH,5425071
83855,506354,-81.53,37.58,WEST VIRGINIA,PINEVILLE,5424874
19793,118433,-77.77,39.32,WEST VIRGINIA,BOLIVAR,5425425
19793,118432,-77.82,39.27,WEST VIRGINIA,MECHANICSTOWN,5425414
19750,117233,-81.5999,37.664,WEST VIRGINIA,JESSE,5424860
19750,117233,-81.6697,37.6918,WEST VIRGINIA,LYNCO,5424857
19750,117231,-81.1189,37.7519,WEST VIRGINIA,BEAVER,5425813
19750,117218,-81.35,37.77,WEST VIRGINIA,GLEN DANIEL,5425865
19750,117211,-81.1242,37.7569,WEST VIRGINIA,BEAVER,5425813
19750,117207,-81.32,37.77,WEST VIRGINIA,SURVEYOR,5425801
19750,117204,-81.18,37.78,WEST VIRGINIA,BECKLEY,5425801
19750,117197,-81.1079,37.7639,WEST VIRGINIA,(BKW)RALEIGH CO ARPT,5425813
19750,117193,-81.0654,37.7775,WEST VIRGINIA,TABLE ROCK,5425813
19750,117191,-79.85,38.8655,WEST VIRGINIA,(EKN)RANDOLPH FLD EL,5426241
19748,117146,-79.53,39.72,WEST VIRGINIA,GLADE FARMS,5426525
19748,117146,-79.477,39.6898,WEST VIRGINIA,GLADE FARMS,5426525
57172,342486,-77.8536,39.5977,WEST VIRGINIA,MARLOWE,5425419
1113008,5239228,-80.6,40.5,WEST VIRGINIA,NEW CUMBERLAND,5426047
1113008,5239230,-80.58333,40.4,WEST VIRGINIA,WEIRTON,5426062
1113008,5239232,-79.95,39.46667,WEST VIRGINIA,MORGANTOWN,5426508
55823,334538,-77.9882,39.2831,WEST VIRGINIA,MIDDLEWAY,5425430
55869,334931,-81.13,37.83,WEST VIRGINIA,PINEY VIEW,5425801
1191796,5455375,-80.25,39.71667,WEST VIRGINIA,BLACKSVILLE,5426590
1191907,5455977,-80.03333,39.15,WEST VIRGINIA,PHILIPPI,5426416
102867,614793,-80.4,39.2,WEST VIRGINIA,WEST MILFORD,5426451
102867,614792,-79.9739,39.35,WEST VIRGINIA,GRAFTON,5426354
125277,751452,-80.79,37.64,WEST VIRGINIA,HILLDALE,5425951
27872,163466,-82.0287,38.8702,WEST VIRGINIA,FLATROCK,5425550
28951,170020,-82.18,38.58,WEST VIRGINIA,GLENWOOD,5425520
28951,170022,-81.67,39.27,WEST VIRGINIA,WASHINGTON,5426181
65953,395592,-77.8382,39.4457,WEST VIRGINIA,SHEPHERDSTOWN,5425443
1121992,5264341,-80.71667,37.48333,WEST VIRGINIA,LINDSIDE,5424918
28951,170023,-81.67,39.27,WEST VIRGINIA,WASHINGTON,5426181
28951,170024,-81.5427,39.2775,WEST VIRGINIA,PARKERSBURG,5426101
28951,170026,-81.55,39.27,WEST VIRGINIA,PARKERSBURG,5426101
28951,170027,-81.55,39.27,WEST VIRGINIA,PARKERSBURG,5426101
28951,170029,-81.45,39.4,WEST VIRGINIA,WILLIAMSTOWN,5426187
28951,170031,-81.55,39.27,WEST VIRGINIA,PARKERSBURG,5426101
28951,170033,-82.18,37.72,WEST VIRGINIA,DELBARTON,5425670
28951,170052,-80.5559,39.2963,WEST VIRGINIA,INDUSTRIAL,5426426
101199,605506,-81.5966,39.2474,WEST VIRGINIA,MARRTOWN,5426101
57149,342369,-78.5728,39.265,WEST VIRGINIA,HANGING ROCK,5426704
101199,605506,-81.5933,39.2474,WEST VIRGINIA,MARRTOWN,5426101
28951,170053,-80.2785,39.2828,WEST VIRGINIA,LODGEVILLE,5426330
1121992,5264342,-81.43333,37.31667,WEST VIRGINIA,OAKVALE,5424808
28984,170185,-81.68,37.3,WEST VIRGINIA,WAR,5424892
125277,751452,-80.75,37.65,WEST VIRGINIA,TALCOTT,5424981
27873,163487,-81.82,37.45,WEST VIRGINIA,IAEGER,5424844
27873,163482,-81.23,37.73,WEST VIRGINIA,CRAB ORCHARD,5425827
27873,163481,-81.57,37.75,WEST VIRGINIA,KOPPERSTON,5424854
27873,163480,-81.57,37.75,WEST VIRGINIA,KOPPERSTON,5424854
27873,163471,-81.63,37.68,WEST VIRGINIA,OCEANA,5424870
1207399,5501359,-80.13333,39.48333,WEST VIRGINIA,FAIRMONT,5426554
1207404,5501364,-79.86667,39.46667,WEST VIRGINIA,KINGWOOD,5426374
1207405,5501365,-79.96667,39.63333,WEST VIRGINIA,WESTOVER,5426501
27873,163470,-81.63,37.68,WEST VIRGINIA,OCEANA,5424870
1207398,5501358,-80.26666999999999,39.45,WEST VIRGINIA,WORTHINGTON,5426591
38164,221823,-80.46,39.68,WEST VIRGINIA,HUNDRED,5426575
38164,221822,-79.55,39.33,WEST VIRGINIA,CARMEL,5426705
38164,221821,-79.55,39.45,WEST VIRGINIA,TERRA ALTA,5426764
1113008,5240100,-79.68333,39.25,WEST VIRGINIA,KINGWOOD,5426287
1113080,5239373,-79.55,38.91667,WEST VIRGINIA,HARMAN,5426270
1113082,5239439,-80.03333,39.35,WEST VIRGINIA,GRAFTON,5426354
1113082,5239440,-80.35,39.28333,WEST VIRGINIA,CLARKSBURG,5426301
1113083,5239441,-80.68333,38.81667,WEST VIRGINIA,BURNSVILLE,5426335
28988,170209,-81.55,39.27,WEST VIRGINIA,PARKERSBURG,5426101
28988,170212,-81.9978,38.1666,WEST VIRGINIA,BERNIE,5425501
28988,170225,-81.6905,38.7376,WEST VIRGINIA,FAIR PLAIN,5425271
28988,170226,-81.53,38.23,WEST VIRGINIA,BELLE,5425015
28988,170227,-81.2263,39.0205,WEST VIRGINIA,MUNDAY,5426138
28988,170228,-80.83,39.43,WEST VIRGINIA,ALMA,5426320
1113084,5239442,-81.53333,37.58333,WEST VIRGINIA,PINEVILLE,5424874
1113084,5239443,-82.16667,37.61667,WEST VIRGINIA,MATEWAN,
1113008,5240099,-80.73333000000001,39.56667,WEST VIRGINIA,READER,5426167
1113084,5239444,-82.08333,37.63333,WEST VIRGINIA,NEWTOWN,5425692
19547,116201,-82.26700000000001,37.6754,WEST VIRGINIA,WILLIAMSON ARPT,5425661
19528,115532,-81.55,39.27,WEST VIRGINIA,PARKERSBURG,5426101
1113084,5239445,-81.53333,37.58333,WEST VIRGINIA,PINEVILLE,5424874
1113084,5239447,-80.33333,38.83333,WEST VIRGINIA,ROCK CAVE,5426234
1113084,5239448,-80.45,38.86667,WEST VIRGINIA,WALKERSVILLE,5426447
28988,170229,-80.47,38.82,WEST VIRGINIA,IRELAND,5426447
19506,115407,-80.23,39.0,WEST VIRGINIA,BUCKHANNON,5426201
19506,115388,-80.25,39.28,WEST VIRGINIA,BRIDGEPORT,5426330
19495,115321,-81.4904,38.1953,WEST VIRGINIA,QUINCY,5425035
103757,620309,-82.55,38.37,WEST VIRGINIA,(HTS)TRI ST ARPT HNT,5425704
103757,620310,-81.55,39.299,WEST VIRGINIA,PARKERSBURG,5426101
103858,621168,-81.54,39.26,WEST VIRGINIA,PARKERSBURG,5426101
103858,621169,-81.05,39.2,WEST VIRGINIA,HARRISVILLE,5426362
19547,116210,-81.7917,37.418,WEST VIRGINIA,AVONDALE,5424811
28951,170019,-81.98,38.62,WEST VIRGINIA,PLINY,5425033
1113008,5240098,-79.86667,39.38333,WEST VIRGINIA,INDEPENDENCE,5426440
1113008,5240096,-80.71667,40.06667,WEST VIRGINIA,WHEELING,5426003
38164,221820,-79.54,39.44,WEST VIRGINIA,TERRA ALTA,5426764
38164,221819,-79.68,39.47,WEST VIRGINIA,KINGWOOD,5426537
38164,221818,-79.8299,39.48,WEST VIRGINIA,ARTHURDALE,5426374
38164,221817,-79.95,39.59,WEST VIRGINIA,UFFINGTOWN,5426508
38164,221816,-79.95,39.62,WEST VIRGINIA,MORGANTOWN,5426501
38164,221815,-79.99,39.56,WEST VIRGINIA,LITTLE FALLS,5426508
38164,221814,-79.89,39.61,WEST VIRGINIA,DELLSLOW,5426508
38164,221813,-80.43,39.66,WEST VIRGINIA,BURTON,5426575
1136263,5298291,-77.88333,39.38333,WEST VIRGINIA,KEARNEYSVILLE,5425430
1136263,5298293,-77.91667,39.45,WEST VIRGINIA,MARTINSBURG,5425404
1136263,5298294,-78.05,39.33333,WEST VIRGINIA,BUNKER HILL,5425413
1136263,5298295,-77.8,39.43333,WEST VIRGINIA,SHEPHERDSTOWN,5425443
1136263,5298297,-78.48333000000001,39.26667,WEST VIRGINIA,CAPON BRIDGE,5426711
1113008,5240097,-80.21667,39.66667,WEST VIRGINIA,DAYBROOK,5426570
1136263,5298298,-78.45,39.3,WEST VIRGINIA,CAPON BRIDGE,5426711
1136263,5298301,-78.23333000000001,39.63333,WEST VIRGINIA,BERKELEY SPGS,5425411
1136263,5298302,-78.48333000000001,39.3,WEST VIRGINIA,CAPON BRIDGE,5426704
1095270,5144610,-77.78333,39.25,WEST VIRGINIA,SUMMIT PT,5425425
1095269,5144606,-77.85,39.43333,WEST VIRGINIA,SHEPHERDSTOWN,5425443
1095269,5144605,-78.45,39.3,WEST VIRGINIA,CAPON BRIDGE,5426711
20336,121125,-81.1,37.3845,WEST VIRGINIA,PRINCETON,5424740
1148440,5346557,-80.75,38.5,WEST VIRGINIA,BIRCH RIVER,5426610
20336,121124,-81.12,37.5076,WEST VIRGINIA,FLAT TOP,5425820
1095269,5144604,-78.05,39.35,WEST VIRGINIA,INWOOD,5425428
1113008,5240092,-79.95,39.58333,WEST VIRGINIA,MORGANTOWN,5426508
1113008,5240093,-80.21667,39.53333,WEST VIRGINIA,FARMINGTON,5426571
1113008,5240094,-79.81667,39.46667,WEST VIRGINIA,KINGWOOD,5426410
1113008,5240095,-80.71667,40.06667,WEST VIRGINIA,WHEELING,5426003
1136263,5298300,-78.23333000000001,39.53333,WEST VIRGINIA,BERKELEY SPGS,5425411
28951,170018,-82.17,38.65,WEST VIRGINIA,APPLE GROVE,5425503
125277,751451,-81.25,37.35,WEST VIRGINIA,MONTCALM,5424701
95382,573131,-81.6115,37.547,WEST VIRGINIA,WOLF PEN,5424874
1100510,5154927,-81.53333,37.58333,WEST VIRGINIA,PINEVILLE,5424874
1100510,5154925,-80.65,39.03333,WEST VIRGINIA,ALUM BRIDGE,5426321
1100510,5154924,-80.71667,39.01667,WEST VIRGINIA,LINN,5426321
1100508,5155783,-82.03333,38.43333,WEST VIRGINIA,HURRICANE,5425526
1100508,5155583,-82.28333,38.41667,WEST VIRGINIA,BARBOURSVILLE,5425504
1100508,5154919,-82.1,38.28333,WEST VIRGINIA,HAMLIN,5425523
57800,346868,-78.042,39.4144,WEST VIRGINIA,ARDEN,5425428
57800,346869,-77.9331,39.3441,WEST VIRGINIA,LEETOWN,5425430
57800,346870,-78.0441,39.5935,WEST VIRGINIA,JOHNSTOWN,5425427
57800,346871,-78.1334,39.4111,WEST VIRGINIA,GANOTOWN,5425420
57800,346872,-78.0482,39.5783,WEST VIRGINIA,JOHNSTOWN,5425427
57800,346873,-78.1263,39.411,WEST VIRGINIA,SHANGHAI,5425420
57800,346877,-78.1061,39.4266,WEST VIRGINIA,SHANGHAI,5425420
1100510,5155180,-81.68333,38.75,WEST VIRGINIA,FAIR PLAIN,5425271
57800,346878,-78.1015,39.4181,WEST VIRGINIA,UNION CORNER,5425420
57882,347211,-78.7132,39.34,WEST VIRGINIA,ROMNEY,5426757
57882,347212,-78.7555,39.3461,WEST VIRGINIA,ROMNEY,5426757
57882,347214,-78.7555,39.3461,WEST VIRGINIA,ROMNEY,5426757
54342,326330,-81.24,37.5,WEST VIRGINIA,DOTT,5424714
84615,511092,-80.32,39.25,WEST VIRGINIA,STONEWOOD,5426408
10185,56609,-80.5665,37.891999999999996,WEST VIRGINIA,LEWISBURG,5424931
10185,56608,-80.5406,37.8716,WEST VIRGINIA,LEWISBURG,5424931
10184,56600,-80.4378,37.9579,WEST VIRGINIA,RENICK,5424966
10184,56597,-80.9,37.6411,WEST VIRGINIA,HINTON,5425978
10184,56590,-80.9,37.5977,WEST VIRGINIA,HINTON,5425979
84615,511091,-80.3046,39.2126,WEST VIRGINIA,QUIET DELL,5426408
84615,511090,-80.35,39.17,WEST VIRGINIA,LOST CREEK,5426385
84615,511089,-80.28,39.12,WEST VIRGINIA,JOHNSTOWN,5426385
57800,346879,-78.0841,39.353,WEST VIRGINIA,GERRARDSTOWN,5425420
28545,170717,-79.36,39.27,WEST VIRGINIA,GORMANIA,5426720
65698,393440,-79.75,39.39,WEST VIRGINIA,TUNNELTON,5426444
1100510,5155182,-81.91667,38.45,WEST VIRGINIA,SCOTT DEPOT,5425560
65335,391298,-80.06,39.47,WEST VIRGINIA,HOPEWELL,5426554
57593,346799,-80.06,39.47,WEST VIRGINIA,HOPEWELL,5426554
57593,346798,-80.06,39.47,WEST VIRGINIA,HOPEWELL,5426554
95731,575016,-81.53,37.58,WEST VIRGINIA,PINEVILLE,5424874
57575,345555,-79.95,39.64,WEST VIRGINIA,FIELDCREST,5426505
57575,345554,-79.96,39.63,WEST VIRGINIA,WESTOVER,5426505
57575,345553,-80.09,39.63,WEST VIRGINIA,GEORGETOWN,5426501
57575,345552,-79.95,39.64,WEST VIRGINIA,FIELDCREST,5426505
57575,345551,-79.96,39.63,WEST VIRGINIA,WESTOVER,5426505
57800,346866,-78.67,39.13,WEST VIRGINIA,ROCKOAK,5426851
57800,346867,-78.0892,39.4713,WEST VIRGINIA,JONES SPGS,5425427
1100510,5155183,-81.63333,38.35,WEST VIRGINIA,CHARLESTON,5425301
95625,574492,-82.47,38.41,WEST VIRGINIA,WEST HUNTINGTON,5425704
1100510,5155181,-81.83333,38.41667,WEST VIRGINIA,NITRO,5425143
95625,574485,-81.5761,38.7419,WEST VIRGINIA,BELGROVE,5425244
84710,511747,-81.4865,37.42,WEST VIRGINIA,KEYSTONE,5424853
84710,511745,-81.35,38.8145,WEST VIRGINIA,SPENCER,5425276
84710,511718,-80.2,39.07,WEST VIRGINIA,HODGESVILLE,5426201
84710,511714,-81.1292,37.7966,WEST VIRGINIA,BECKLEY,5425813
84710,511711,-81.18,37.78,WEST VIRGINIA,BECKLEY,5425801
84710,511710,-81.1803,37.7972,WEST VIRGINIA,SKELTON,5425801
84710,511679,-81.4783,38.7243,WEST VIRGINIA,FLAT FORK,5425243
95625,574480,-81.7114,38.817,WEST VIRGINIA,RIPLEY,5425271
95625,574471,-81.5906,38.8179,WEST VIRGINIA,MARSHALL,5425252
95625,574468,-81.6546,38.8222,WEST VIRGINIA,RIPLEY,5425252
95625,574462,-81.6648,38.8155,WEST VIRGINIA,RIPLEY,5425271
95625,574460,-81.6773,38.8316,WEST VIRGINIA,RIPLEY,5425271
95625,574460,-81.6644,38.8149,WEST VIRGINIA,RIPLEY,5425271
95625,574484,-81.6457,38.7611,WEST VIRGINIA,FAIR PLAIN,5425271
44002,255627,-81.624,39.1108,WEST VIRGINIA,CALIFORNIA,5426133
38422,223062,-80.49,37.74,WEST VIRGINIA,RONCEVERTE,5424970
126654,759291,-79.78,39.68,WEST VIRGINIA,CHESTNUT RIDGE CAMP,5426508
86598,522525,-80.56,40.61,WEST VIRGINIA,NEWELL,5426034
15107,85975,-81.2733,37.87,WEST VIRGINIA,BRADLEY,5425801
15107,85974,-81.35,37.77,WEST VIRGINIA,GLEN DANIEL,5425865
15103,85956,-82.28,37.7524,WEST VIRGINIA,WILLIAMSON,5425661
54280,325845,-80.43,37.79,WEST VIRGINIA,LEWISBURG,5424970
65702,393509,-80.72,40.06,WEST VIRGINIA,WHEELING,5426003
65702,393510,-80.06,39.47,WEST VIRGINIA,HOPEWELL,5426554
84267,508758,-81.95,38.75,WEST VIRGINIA,LEON,5425123
1214478,5516914,-82.45,38.31667,WEST VIRGINIA,LAVALETTE,5425535
84104,507696,-81.5,39.2,WEST VIRGINIA,DAVISVILLE,5426142
57575,345550,-79.89,39.59,WEST VIRGINIA,DELLSLOW,5426508
1214469,5516674,-81.63333,38.35,WEST VIRGINIA,CHARLESTON,5425301
4310,24278,-82.53,38.02,WEST VIRGINIA,GLENHAYES,
86598,522524,-80.58,40.5,WEST VIRGINIA,NEW CUMBERLAND,5426047
1214469,5516672,-82.1,38.28333,WEST VIRGINIA,HAMLIN,5425523
1214469,5516669,-81.08333,38.46667,WEST VIRGINIA,CLAY,5425043
1214469,5516665,-81.65,38.68333,WEST VIRGINIA,KENNA,5425271
1214469,5516663,-82.0,37.85,WEST VIRGINIA,LOGAN,5425601
1214469,5516662,-81.83333,37.76667,WEST VIRGINIA,ACCOVILLE,5425606
1214469,5516661,-81.96667,38.98333,WEST VIRGINIA,NEW HAVEN,5425253
1214467,5516652,-81.63333,38.35,WEST VIRGINIA,CHARLESTON,5425301
20763,123280,-80.6617,37.95,WEST VIRGINIA,RUPERT,5425984
57575,345549,-79.89,39.59,WEST VIRGINIA,DELLSLOW,5426508
40528,235734,-81.1,37.37,WEST VIRGINIA,PRINCETON,5424740
40528,235733,-81.1197,37.51,WEST VIRGINIA,CAMP CREEK,5425820
40528,235732,-81.1,37.44,WEST VIRGINIA,SPANISHBURG,5424740
95414,576516,-81.2494,37.4202,WEST VIRGINIA,GIATTO,5424736
95382,573143,-81.4773,37.4127,WEST VIRGINIA,ECKMAN,5424868
1214469,5516671,-81.96667,38.21667,WEST VIRGINIA,YAWKEY,5425573
97627,587278,-79.49,39.42,WEST VIRGINIA,CORINTH,5426764
86598,522523,-80.57,40.42,WEST VIRGINIA,WEIRTON,5426062
1174014,5408906,-81.75,38.95,WEST VIRGINIA,RAVENSWOOD,5426164
126654,759292,-80.04,39.4,WEST VIRGINIA,VALLEY FALLS,5426554
126672,759329,-80.7,40.12,WEST VIRGINIA,WARWOOD,5426003
38422,223063,-80.47,37.75,WEST VIRGINIA,RONCEVERTE,5424970
38422,223064,-80.45,37.72,WEST VIRGINIA,ORGAN CAVE,5424970
38422,223067,-80.97,37.63,WEST VIRGINIA,NIMITZ,5425978
95531,573966,-82.4,37.95,WEST VIRGINIA,DOANE,5425511
95521,573917,-78.26,39.62,WEST VIRGINIA,GREAT CACAPON,5425411
95521,573915,-78.29,39.62,WEST VIRGINIA,GREAT CACAPON,5425422
86598,522515,-80.7,39.92,WEST VIRGINIA,MOUNDSVILLE,5426041
65702,393507,-79.84,39.32,WEST VIRGINIA,ISRAEL,5426444
65702,393508,-80.56,40.42,WEST VIRGINIA,WEIRTON HGTS,5426062
1100055,5162834,-81.1,37.36667,WEST VIRGINIA,PRINCETON,5424740
1100054,5162832,-80.35,37.93333,WEST VIRGINIA,FRANKFORD,5424938
1174014,5408902,-81.96667,38.98333,WEST VIRGINIA,NEW HAVEN,5425253
86598,522516,-80.73,39.99,WEST VIRGINIA,MC MECHEN,5426040
98566,592663,-80.27,39.42,WEST VIRGINIA,ENTERPRISE,5426568
86598,522518,-80.71,40.06,WEST VIRGINIA,WHEELING,5426003
84472,510483,-82.2149,38.4783,WEST VIRGINIA,RIDERS STORE,5425545
84472,510483,-82.2242,38.478,WEST VIRGINIA,RIDERS STORE,5425545
84472,510366,-81.15,37.82,WEST VIRGINIA,STANAFORD,5425801
84472,510365,-81.13,37.75,WEST VIRGINIA,BEAVER,5425813
84472,510362,-81.83,38.0411,WEST VIRGINIA,MADISON,5425053
84472,510361,-81.97,38.03,WEST VIRGINIA,TURTLE CREEK,5425524
84472,510360,-81.791,38.0393,WEST VIRGINIA,MADISON,5425130
84472,509969,-81.57,39.07,WEST VIRGINIA,ROCKPORT,5426169
86598,522519,-80.52,40.26,WEST VIRGINIA,FOWLERSTOWN,5426070
86598,522520,-80.61,40.28,WEST VIRGINIA,WELLSBURG,5426070
86598,522522,-80.54,40.41,WEST VIRGINIA,WEIRTON HGTS,5426062
86598,522517,-80.73,40.03,WEST VIRGINIA,BENWOOD,5426031
1094681,5143624,-80.3,39.4,WEST VIRGINIA,SHINNSTON,5426431
103858,621177,-80.77,39.02,WEST VIRGINIA,TROY,5426384
103858,621187,-80.5345,38.9503,WEST VIRGINIA,FINSTER,5426447
1155117,5366543,-81.81667,37.45,WEST VIRGINIA,IAEGER,5424844
1155117,5366544,-81.68333,37.73333,WEST VIRGINIA,CYCLONE,5424827
1206999,5497475,-81.85,38.15,WEST VIRGINIA,JULIAN,5425529
1121217,5263044,-81.8,38.58333,WEST VIRGINIA,PARADISE,5425168
130771,782519,-81.58,38.65,WEST VIRGINIA,FLETCHER,5425248
130771,782518,-81.71,38.82,WEST VIRGINIA,RIPLEY,5425271
53590,321050,-80.06,39.47,WEST VIRGINIA,HOPEWELL,5426554
130766,782500,-80.52,39.05,WEST VIRGINIA,PRICETOWN,5426452
130766,782499,-80.41,39.13,WEST VIRGINIA,HOMELAND,5426385
130766,782498,-80.41,39.14,WEST VIRGINIA,MC WHORTER,5426385
130766,782497,-80.76,39.32,WEST VIRGINIA,WEST UNION,5426456
37912,220663,-81.33,37.7,WEST VIRGINIA,SOPHIA,5425920
37912,220662,-81.1103,37.68,WEST VIRGINIA,COAL CITY,5425825
1121217,5263043,-81.63333,37.68333,WEST VIRGINIA,OCEANA,5424870
53528,320347,-80.18,38.9,WEST VIRGINIA,TALLMANSVILLE,5426201
53528,320346,-80.45,39.03,WEST VIRGINIA,WESTON,5426452
53528,320344,-80.45,39.03,WEST VIRGINIA,WESTON,5426452
53528,320338,-80.38,38.72,WEST VIRGINIA,CLEVELAND,5426215
53528,320336,-80.25,39.28,WEST VIRGINIA,BRIDGEPORT,5426330
55933,335319,-82.3,37.8,WEST VIRGINIA,LENORE,5425661
55933,335321,-81.7188,38.313,WEST VIRGINIA,RUTH,5425309
55933,335327,-81.17,38.33,WEST VIRGINIA,LIZEMORES,5425125
55933,335330,-82.18,38.12,WEST VIRGINIA,RANGER,5425557
1121217,5263042,-81.11667,38.38333,WEST VIRGINIA,BICKMORE,5425019
123920,743685,-81.39,37.58,WEST VIRGINIA,MULLENS,5425882
123920,743684,-81.56,37.47,WEST VIRGINIA,CAPELS,5424801
1130545,5278814,-82.46667,38.41667,WEST VIRGINIA,HUNTINGTON,5425701
1155107,5366171,-82.16667,37.61667,WEST VIRGINIA,MATEWAN,
37923,220694,-80.2338,39.3488,WEST VIRGINIA,SHINNSTON,5426330
37923,220695,-80.35,39.33,WEST VIRGINIA,HEPZIBAH,5426301
1206999,5497476,-79.61667,38.88333,WEST VIRGINIA,WYMER,5426254
29001,170271,-80.67,39.4,WEST VIRGINIA,ASHLEY,5426339
65193,390610,-81.65,37.48,WEST VIRGINIA,DAVY,5424828
21353,126174,-80.73,40.01,WEST VIRGINIA,BENWOOD,5426031
53600,321137,-79.96,39.63,WEST VIRGINIA,WESTOVER,5426505
21353,126175,-79.96,39.63,WEST VIRGINIA,WESTOVER,5426505
41996,244954,-81.4897,39.3693,WEST VIRGINIA,WILLIAMSTOWN,5426187
41996,244951,-81.45,39.4,WEST VIRGINIA,WILLIAMSTOWN,5426187
66276,397476,-81.48,38.45,WEST VIRGINIA,ELKVIEW,5425071
66298,397651,-81.63,38.35,WEST VIRGINIA,CHARLESTON,5425301
66298,397652,-81.63,38.35,WEST VIRGINIA,CHARLESTON,5425301
66332,397704,-81.5,39.2,WEST VIRGINIA,DAVISVILLE,5426142
66384,398011,-79.82,38.55,WEST VIRGINIA,DURBIN,5426264
66384,398012,-81.57,38.25,WEST VIRGINIA,MARMET,5425315
18846,110968,-82.47,38.12,WEST VIRGINIA,GENOA,5425517
66384,398013,-80.85,38.28,WEST VIRGINIA,SUMMERSVILLE,5426651
37954,220851,-80.7,40.08,WEST VIRGINIA,WHEELING,5426003
83410,503472,-81.68,37.3,WEST VIRGINIA,WAR,5424892
9744,54519,-80.45,38.57,WEST VIRGINIA,DIANA,5426217
83410,503471,-81.68,37.3,WEST VIRGINIA,WAR,5424892
9744,54518,-80.58,38.52,WEST VIRGINIA,ERBACON,5426203
1212518,5511959,-79.86667,39.38333,WEST VIRGINIA,INDEPENDENCE,5426440
1212519,5511960,-79.81667,39.48333,WEST VIRGINIA,ARTHURDALE,5426547
37954,220850,-80.7,40.08,WEST VIRGINIA,WHEELING,5426003
37954,220849,-80.76,39.95,WEST VIRGINIA,GLENDALE ARPT,5426038
37954,220848,-80.74,39.92,WEST VIRGINIA,MOUNDSVILLE,5426041
9744,54514,-81.48,38.45,WEST VIRGINIA,ELKVIEW,5425071
41996,244936,-81.48,39.37,WEST VIRGINIA,BOAZ,5426187
9742,54506,-81.63,39.1717,WEST VIRGINIA,WADEVILLE,5426181
37965,220950,-81.53,37.37,WEST VIRGINIA,THORPE,5424836
18840,110945,-81.83,37.77,WEST VIRGINIA,ACCOVILLE,5425606
86706,523553,-80.5214,39.0484,WEST VIRGINIA,PRICETOWN,5426452
86706,523578,-81.1412,39.3366,WEST VIRGINIA,WILEY,5426170
37912,220661,-82.12,38.85,WEST VIRGINIA,POINT PLEASANT,5425550
86706,523588,-81.0817,39.2993,WEST VIRGINIA,PIKE,5426346
37912,220660,-82.12,38.85,WEST VIRGINIA,POINT PLEASANT,5425550
37912,220659,-82.12,38.85,WEST VIRGINIA,POINT PLEASANT,5425550
37912,220657,-82.2,38.28,WEST VIRGINIA,WEST HAMLIN,5425506
37912,220656,-82.1,38.28,WEST VIRGINIA,HAMLIN,5425523
37912,220654,-82.5825,38.3974,WEST VIRGINIA,KOMOVA,5425530
37912,220653,-82.2,38.28,WEST VIRGINIA,WEST HAMLIN,5425506
37912,220652,-81.17,37.88,WEST VIRGINIA,MT HOPE,5425880
37912,220650,-81.0546,37.8587,WEST VIRGINIA,QUINNIMONT,5425907
86706,523588,-81.1166,39.3197,WEST VIRGINIA,FINCH,5426337
1094685,5142426,-81.96667,38.03333,WEST VIRGINIA,TURTLE CREEK,5425524
86706,523779,-80.275,39.1187,WEST VIRGINIA,JOHNSTOWN,5426385
18803,110743,-80.42,38.48,WEST VIRGINIA,WEBSTER SPGS,5426288
18803,110741,-81.08,38.47,WEST VIRGINIA,CLAY,5425043
86706,523779,-80.2948,39.1202,WEST VIRGINIA,JOHNSTOWN,5426385
1094681,5143627,-80.0,39.2,WEST VIRGINIA,ARDEN,5426405
1094681,5143626,-80.16667,39.26667,WEST VIRGINIA,ROSEMONT,5426424
18803,110740,-81.1454,38.5212,WEST VIRGINIA,CLAY,5425164
18803,110739,-80.78,38.38,WEST VIRGINIA,HOOKERSVILLE,5426651
18803,110737,-80.8285,38.3659,WEST VIRGINIA,MUDDLETY,5426651
18803,110737,-80.75,38.3553,WEST VIRGINIA,BIRCH RIVER,5426651
18803,110735,-81.63,38.35,WEST VIRGINIA,CHARLESTON,5425301
18803,110734,-81.73,38.37,WEST VIRGINIA,DUNBAR,5425064
18803,110733,-81.83,38.38,WEST VIRGINIA,ST ALBANS,5425177
18803,110732,-81.63,38.35,WEST VIRGINIA,CHARLESTON,5425301
18803,110731,-81.6772,38.5125,WEST VIRGINIA,POCATALICO,5425320
18803,110731,-81.67,38.48,WEST VIRGINIA,POCATALICO,5425312
1094681,5143628,-82.18333,38.58333,WEST VIRGINIA,GLENWOOD,5425520
124099,744715,-79.96,39.38,WEST VIRGINIA,IRONTOWN,5426354
18803,110744,-80.42,38.48,WEST VIRGINIA,WEBSTER SPGS,5426288
86706,523578,-81.1166,39.3197,WEST VIRGINIA,WILEY,5426337
18812,110818,-81.13,38.78,WEST VIRGINIA,ARNOLDSBURG,5425234
18812,110817,-81.93,38.88,WEST VIRGINIA,LETART,5425253
106739,640821,-80.72,40.07,WEST VIRGINIA,WHEELING,5426003
123840,743092,-80.57,39.28,WEST VIRGINIA,INDUSTRIAL,5426426
123840,743090,-82.1,38.93,WEST VIRGINIA,POINT PLEASANT ARPT,5425550
18812,110815,-81.911,38.8662,WEST VIRGINIA,LETART,5425264
18812,110814,-81.88,38.87,WEST VIRGINIA,MT ALTO,5425264
18812,110812,-81.82,38.87,WEST VIRGINIA,COTTAGEVILLE,5425239
18803,110788,-81.67,39.27,WEST VIRGINIA,WASHINGTON,5426181
18803,110779,-81.202,39.3916,WEST VIRGINIA,ST MARYS,5426170
18803,110778,-81.45,39.4,WEST VIRGINIA,WILLIAMSTOWN,5426187
18803,110777,-81.37,39.33,WEST VIRGINIA,WAVERLY,5426184
18803,110775,-81.55,39.27,WEST VIRGINIA,PARKERSBURG,5426101
18803,110745,-80.5,38.42,WEST VIRGINIA,UPPERGLADE,5426266
18803,110761,-81.58,37.43,WEST VIRGINIA,WELCH,5424801
18803,110759,-81.7315,37.3409,WEST VIRGINIA,WAR,5424813
18803,110758,-81.68,37.3,WEST VIRGINIA,WAR,5424892
18803,110757,-79.9997,38.41,WEST VIRGINIA,LINWOOD,5426209
18803,110756,-80.1,38.2779,WEST VIRGINIA,MARLINTON,5424954
18803,110755,-80.0294,38.3537,WEST VIRGINIA,MARLINTON,5424954
18803,110754,-81.247,38.1003,WEST VIRGINIA,ROBSON,5425119
18803,110752,-81.23,38.12,WEST VIRGINIA,CHARLTON HGTS,5425173
18803,110751,-81.27,38.12,WEST VIRGINIA,DEEPWATER,5425118
18803,110750,-80.53,38.23,WEST VIRGINIA,RICHWOOD,5426261
18803,110749,-81.18,37.78,WEST VIRGINIA,BECKLEY,5425801
18803,110748,-81.6212,38.1043,WEST VIRGINIA,COMFORT,5425181
18803,110747,-80.55,38.42,WEST VIRGINIA,COWEN,5426206
18803,110746,-80.55,38.42,WEST VIRGINIA,COWEN,5426206
18803,110760,-81.4871,37.4198,WEST VIRGINIA,KIMBALL,5424853
124101,744934,-80.97,39.28,WEST VIRGINIA,PENNSBORO,5426415
124101,744935,-80.98,39.08,WEST VIRGINIA,HAZELGREEN,5426178
1099069,5176141,-79.03333,38.98333,WEST VIRGINIA,MOOREFIELD,5426836
1188662,5446154,-82.46667,38.41667,WEST VIRGINIA,HUNTINGTON,5425701
1188662,5446153,-82.18333,38.11667,WEST VIRGINIA,RANGER,5425557
1188662,5446150,-82.43333,38.21667,WEST VIRGINIA,WAYNE,5425570
1188662,5446149,-80.83333,38.93333,WEST VIRGINIA,GLENVILLE,5426351
103999,622138,-81.53,39.18,WEST VIRGINIA,MINERAL WELLS,5426150
103999,622139,-81.34,39.1,WEST VIRGINIA,FREEPORT,5426143
103999,622140,-80.99,39.0,WEST VIRGINIA,REVERE,5426137
103999,622157,-81.38,39.18,WEST VIRGINIA,WALKER,5426180
104007,622190,-82.4407,38.2199,WEST VIRGINIA,ELMWOOD,5425570
104007,622191,-82.11,38.61,WEST VIRGINIA,ELLEN,5425503
104007,622192,-82.27,37.7,WEST VIRGINIA,WILLIAMSON ARPT,5425661
104007,622197,-81.63,38.12,WEST VIRGINIA,SETH,5425181
104007,622207,-81.13,37.98,WEST VIRGINIA,OAK HILL,5425901
1188662,5446155,-82.28333,38.41667,WEST VIRGINIA,BARBOURSVILLE,5425504
104007,622208,-80.87,37.93,WEST VIRGINIA,DANESE,5425962
104007,622210,-81.38,37.58,WEST VIRGINIA,MULLENS,5425882
104007,622211,-81.58,37.6411,WEST VIRGINIA,JESSE,5424818
104007,622212,-81.8,37.38,WEST VIRGINIA,BEARTOWN,5424811
104007,622217,-82.13,38.03,WEST VIRGINIA,HARTS,5425524
104007,622219,-81.91,38.17,WEST VIRGINIA,ALKOL,5425501
104007,622224,-82.05,37.85,WEST VIRGINIA,VERDUNVILLE,5425649
104007,622269,-82.2997,37.7662,WEST VIRGINIA,NELCO,5425661
104007,622278,-81.65,37.42,WEST VIRGINIA,PREMIER,5424878
104007,622287,-81.8,37.4,WEST VIRGINIA,GARLAND,5424811
104007,622290,-81.7847,37.413000000000004,WEST VIRGINIA,AVONDALE,5424811
104007,622300,-81.5049,37.4282,WEST VIRGINIA,KIMBALL,5424853
104007,622301,-81.3395,37.505,WEST VIRGINIA,HERNDON,5424726
104007,622302,-81.5684,37.4706,WEST VIRGINIA,CAPELS,5424801
104007,622209,-82.0486,37.8457,WEST VIRGINIA,VERDUNVILLE,5425649
104007,622310,-81.3849,37.4714,WEST VIRGINIA,HERNDON HGTS,5424716
1188662,5446156,-82.25,38.31667,WEST VIRGINIA,SALT ROCK,5425559
1188662,5446157,-82.0,37.85,WEST VIRGINIA,LOGAN,5425601
103858,621236,-81.0896,39.2307,WEST VIRGINIA,HARRISVILLE,5426346
103858,621329,-81.18,37.78,WEST VIRGINIA,BECKLEY,5425801
103858,621343,-80.77,39.08,WEST VIRGINIA,CONINGS,5426443
103858,621428,-81.55,38.9,WEST VIRGINIA,LE ROY,5425275
103858,621737,-81.5368,39.2802,WEST VIRGINIA,PARKERSBURG,5426101
103999,622122,-79.97,39.3,WEST VIRGINIA,KNOTSVILLE,5426354
103999,622123,-80.0487,39.3509,WEST VIRGINIA,FETTERMAN,5426354
103999,622124,-80.06,39.35,WEST VIRGINIA,FETTERMAN,5426354
103999,622125,-80.0247,39.338,WEST VIRGINIA,FETTERMAN,5426354
103999,622125,-80.0608,39.3385,WEST VIRGINIA,PRUNYTOWN,5426354
103999,622126,-79.9681,39.3088,WEST VIRGINIA,KNOTSVILLE,5426354
103999,622127,-79.94,39.34,WEST VIRGINIA,THORNTON,5426440
103999,622128,-79.9,39.31,WEST VIRGINIA,MT PLEASANT,5426440
28988,170232,-81.37,37.57,WEST VIRGINIA,CORINNE,5425882
103999,622129,-81.55,38.9,WEST VIRGINIA,LE ROY,5425275
103999,622131,-79.89,38.85,WEST VIRGINIA,BEVERLY,5426253
103999,622132,-79.85,38.83,WEST VIRGINIA,BEVERLY,5426253
103999,622133,-79.84,38.81,WEST VIRGINIA,DAILEY,5426253
103999,622134,-79.8735,38.8406,WEST VIRGINIA,BEVERLY,5426253
103999,622135,-80.29,38.84,WEST VIRGINIA,CARTER,5426218
103999,622137,-81.53,39.18,WEST VIRGINIA,MINERAL WELLS,5426150
28988,170230,-80.93,38.85,WEST VIRGINIA,NORMANTOWN,5425267
44002,255627,-81.7397,39.1405,WEST VIRGINIA,HUMPHREY,5426133
44002,255628,-81.3406,39.0119,WEST VIRGINIA,CHERRY,5426143
44002,255628,-81.3504,39.0184,WEST VIRGINIA,ENTERPRISE,5426160
1188680,5446265,-80.6,40.21667,WEST VIRGINIA,WELLSBURG,5426070
1188668,5446252,-80.45,38.98333,WEST VIRGINIA,WESTON,5426452
1188668,5446251,-80.48333000000001,38.93333,WEST VIRGINIA,ROANOKE,5426447
103999,622130,-81.47,39.04,WEST VIRGINIA,MORRISTOWN,5426160
103858,621178,-80.85,39.1,WEST VIRGINIA,AUBURN,5426325
104007,622311,-79.9986,38.1769,WEST VIRGINIA,MINNEHAHA SPGS,5424954
19439,114996,-80.7234,38.2267,WEST VIRGINIA,NETTIE,5426681
19242,113493,-80.45,37.77,WEST VIRGINIA,TEABERRY,5424970
19242,113491,-80.57,37.82,WEST VIRGINIA,ASBURY,5424916
19242,113489,-80.69,37.43,WEST VIRGINIA,LINDSIDE,5424963
19242,113488,-80.8944,37.3623,WEST VIRGINIA,HALES GAP,5424740
104362,625026,-79.86,39.3,WEST VIRGINIA,MARQUESS,5426444
104362,625027,-79.85,39.29,WEST VIRGINIA,MARQUESS,5426444
1147186,5340699,-82.45,37.9,WEST VIRGINIA,CRUM,
1147186,5340698,-82.41667,37.83333,WEST VIRGINIA,KERMIT,
1147063,5341836,-82.01666999999999,38.13333,WEST VIRGINIA,SPURLOCKVILLE,5425501
1147063,5341833,-82.43333,38.21667,WEST VIRGINIA,WAYNE,5425570
1099071,5176216,-77.8,39.43333,WEST VIRGINIA,SHEPHERDSTOWN,5425443
1099070,5176144,-77.86667,39.38333,WEST VIRGINIA,SHEPHERDSTOWN,5425442
1099070,5176143,-78.0,39.55,WEST VIRGINIA,HEDGESVILLE,5425427
19242,113494,-80.45,37.8,WEST VIRGINIA,LEWISBURG,5424901
29001,170258,-80.5175,39.2769,WEST VIRGINIA,BRISTOL,5426426
29001,170259,-80.35,39.28,WEST VIRGINIA,CLARKSBURG,5426301
29001,170260,-80.3396,39.2842,WEST VIRGINIA,CLARKSBURG,5426301
29001,170261,-80.78,39.3,WEST VIRGINIA,WEST UNION,5426456
53884,322813,-81.13,37.98,WEST VIRGINIA,OAK HILL,5425901
53884,322809,-81.68,37.73,WEST VIRGINIA,CYCLONE,5424827
29001,170262,-80.7,38.67,WEST VIRGINIA,SUTTON,5426601
53864,322651,-81.0,37.58,WEST VIRGINIA,ELLISON,5425969
53836,322455,-81.45,39.4,WEST VIRGINIA,WILLIAMSTOWN,5426187
29001,170263,-80.4,39.12,WEST VIRGINIA,JANE LEW,5426378
53794,322361,-80.4235,37.8015,WEST VIRGINIA,LEWISBURG,5424901
53794,322359,-80.4495,37.8009,WEST VIRGINIA,LEWISBURG,5424901
29001,170264,-80.4,39.12,WEST VIRGINIA,JANE LEW,5426378
29001,170266,-80.4,39.12,WEST VIRGINIA,JANE LEW,5426378
1147063,5341832,-82.45,37.9,WEST VIRGINIA,CRUM,
19439,114998,-80.7168,38.22,WEST VIRGINIA,NETTIE,5426681
19242,113499,-80.5,37.8,WEST VIRGINIA,FAIRLEA,5424901
19242,113501,-80.61,37.52,WEST VIRGINIA,RAINES CORNER,5424983
1188659,5446142,-81.35,38.8,WEST VIRGINIA,SPENCER,5425276
1188659,5446141,-81.65,38.68333,WEST VIRGINIA,KENNA,5425271
1188659,5446140,-81.9,38.53333,WEST VIRGINIA,RED HOUSE,5425213
53947,323548,-77.967,39.279,WEST VIRGINIA,MIDDLEWAY,5425430
65232,394864,-80.25,39.28,WEST VIRGINIA,BRIDGEPORT,5426330
1133792,5292422,-80.83333,37.71667,WEST VIRGINIA,HINTON,5425951
1133792,5292423,-80.65,37.66667,WEST VIRGINIA,HINTON,5424910
1133792,5292424,-81.1,37.48333,WEST VIRGINIA,CAMP CREEK,5425922
66276,397473,-81.48,38.42,WEST VIRGINIA,PINCH,5425071
53947,323547,-77.9381,39.4583,WEST VIRGINIA,BLAIRTON,5425404
53947,323537,-77.9719,39.5215,WEST VIRGINIA,SPRING MILLS,5425403
1133792,5292426,-80.61667,37.5,WEST VIRGINIA,ROCK CAMP,5424951
27794,163191,-80.74,39.92,WEST VIRGINIA,MOUNDSVILLE,5426041
19242,113500,-81.22,37.27,WEST VIRGINIA,BLUEFIELD,5424701
27786,163164,-80.88,39.62,WEST VIRGINIA,NEW MARTINSVILLE,5426155
27761,163028,-80.88,39.53,WEST VIRGINIA,KIDWELL,5426149
27761,163027,-80.67,39.4,WEST VIRGINIA,ASHLEY,5426339
1133792,5292429,-81.21667,37.26667,WEST VIRGINIA,BLUEFIELD,5424701
1095269,5144603,-77.98333000000001,39.4,WEST VIRGINIA,MARTINSBURG ARPT,5425405
1095269,5144602,-78.66667,39.13333,WEST VIRGINIA,RIO,5426714
1095269,5144281,-77.9,39.55,WEST VIRGINIA,FALLING WATERS,5425419
1095269,5144280,-78.41667,39.21667,WEST VIRGINIA,HIGH VIEW,
65193,390611,-81.827,37.4366,WEST VIRGINIA,IAEGER,5424844
95270,572503,-80.74,38.66,WEST VIRGINIA,BISON,5426624
95270,572502,-80.68,38.22,WEST VIRGINIA,NETTIE,5426681
1099072,5176493,-77.9,39.51667,WEST VIRGINIA,HEDGESVILLE,5425404
1099072,5176493,-78.0,39.55,WEST VIRGINIA,HEDGESVILLE,5425427
53933,323162,-78.54899999999999,39.2677,WEST VIRGINIA,HANGING ROCK,5426704
27761,163029,-80.93,39.6,WEST VIRGINIA,PADEN CITY,5426159
106739,640822,-80.72,40.07,WEST VIRGINIA,WHEELING,5426003
1217935,5525555,-81.2,39.38333,WEST VIRGINIA,ST MARYS,5426170
29414,172593,-80.3622,37.9932,WEST VIRGINIA,RENICK,5424966
61994,370755,-81.72,37.97,WEST VIRGINIA,VAN,5425206
61994,370758,-81.17,37.88,WEST VIRGINIA,MT HOPE,5425880
61998,370832,-82.5108,38.399,WEST VIRGINIA,KELLOGG,5425704
90884,544953,-81.2164,37.4533,WEST VIRGINIA,PINOAK,5424733
90884,544953,-81.1206,37.4281,WEST VIRGINIA,SPANISHBURG,5424740
61998,370834,-82.58,38.4,WEST VIRGINIA,KENOVA,5425530
61998,370841,-80.57,38.62,WEST VIRGINIA,CENTRALIA,5426601
61998,370847,-82.4569,38.4103,WEST VIRGINIA,HUNTINGTON,5425701
61998,370848,-82.13,38.43,WEST VIRGINIA,MILTON,5425541
61998,370849,-82.43,38.2345,WEST VIRGINIA,WAYNE,5425570
61998,370877,-81.8751,38.7578,WEST VIRGINIA,CAPEHART,5425123
61998,370890,-80.83,38.93,WEST VIRGINIA,GLENVILLE,5426351
61998,370893,-79.97,38.73,WEST VIRGINIA,MILL CREEK,5426280
61998,370895,-80.33,38.83,WEST VIRGINIA,ROCK CAVE,5426234
61998,370896,-80.3,38.88,WEST VIRGINIA,FRENCH CREEK,5426218
61998,370907,-80.5421,38.9416,WEST VIRGINIA,WALKERSVILLE,5426447
5549,32533,-81.12,38.87,WEST VIRGINIA,MT ZION,5426147
49324,288908,-81.6091,37.2399,WEST VIRGINIA,CUCUMBER,5424884
61998,370908,-80.45,38.87,WEST VIRGINIA,WALKERSVILLE,5426447
61998,370909,-80.72,38.93,WEST VIRGINIA,ELLIS,5426335
61998,370910,-80.72,38.93,WEST VIRGINIA,ELLIS,5426335
49331,288913,-80.8735,39.4795,WEST VIRGINIA,MIDDLEBOURNE,5426320
49331,288914,-80.9,39.5,WEST VIRGINIA,MIDDLEBOURNE,5426149
49331,288916,-80.45,39.03,WEST VIRGINIA,WESTON,5426452
49331,288917,-79.52,38.9,WEST VIRGINIA,ALPENA,5426270
1221270,5535115,-80.65,37.73333,WEST VIRGINIA,ALDERSON,5424910
49353,289003,-80.5103,38.3004,WEST VIRGINIA,COE,5426208
51287,304329,-81.16,37.27,WEST VIRGINIA,ADA,5424701
51287,304330,-80.7,37.58,WEST VIRGINIA,WAYSIDE,5424918
51288,304337,-80.88,37.74,WEST VIRGINIA,BROOKS,5425951
51288,304339,-80.4,37.57,WEST VIRGINIA,GAP MILLS,5424941
49196,288184,-81.53,37.58,WEST VIRGINIA,PINEVILLE,5424874
49196,288185,-81.68,37.73,WEST VIRGINIA,CYCLONE,5424827
49196,288186,-81.23,37.73,WEST VIRGINIA,CRAB ORCHARD,5425827
49196,288187,-81.5996,37.6638,WEST VIRGINIA,JESSE,5424860
49196,288188,-82.18,38.12,WEST VIRGINIA,RANGER,5425557
49196,288190,-82.046,37.9595,WEST VIRGINIA,CHAPMANVILLE,5425508
49196,288191,-82.02,37.929,WEST VIRGINIA,MITCHELL HGTS,5425508
49196,288192,-82.0,37.8934,WEST VIRGINIA,LOGAN,5425601
49196,288193,-82.014,37.8767,WEST VIRGINIA,LOGAN,5425601
49196,288194,-81.7941,37.7595,WEST VIRGINIA,AMHERSTDALE,5425606
49196,288195,-81.8459,37.7595,WEST VIRGINIA,AMHERSTDALE,5425628
49196,288197,-81.9067,37.87,WEST VIRGINIA,WEST LOGAN,5425121
49196,288200,-81.63,37.6,WEST VIRGINIA,BRENTON,5424818
49353,289003,-80.5271,38.2953,WEST VIRGINIA,COE,5426261
49196,288201,-81.68,37.3,WEST VIRGINIA,WAR,5424892
51315,304471,-80.81,37.61,WEST VIRGINIA,BUCK,5425951
51315,304470,-80.79,37.57,WEST VIRGINIA,FOREST HILL,5424935
51315,304469,-80.79,37.43,WEST VIRGINIA,CASHMERE,5424963
51315,304468,-80.8,37.44,WEST VIRGINIA,CASHMERE,5424963
51315,304465,-80.68,37.95,WEST VIRGINIA,RUPERT,5425984
49256,288488,-82.47,38.12,WEST VIRGINIA,GENOA,5425517
49256,288489,-82.28,37.68,WEST VIRGINIA,WILLIAMSON,5425661
49256,288491,-82.2541,37.7005,WEST VIRGINIA,WILLIAMSON,5425661
49256,288492,-81.72,37.68,WEST VIRGINIA,COAL MTN,5424823
49256,288493,-82.0648,37.7988,WEST VIRGINIA,LOGAN,5425652
49256,288494,-82.0119,37.8934,WEST VIRGINIA,HENLAWSON,5425601
49301,288764,-80.2606,38.8493,WEST VIRGINIA,FRENCH CREEK,5426218
51288,304340,-80.38,37.56,WEST VIRGINIA,GAP MILLS,5424941
51351,304905,-79.82,39.07,WEST VIRGINIA,MONTROSE,5426283
49196,288183,-81.6593,37.6879,WEST VIRGINIA,LYNCO,5424857
49353,289016,-81.17,37.88,WEST VIRGINIA,MT HOPE,5425880
49353,289020,-81.1,37.65,WEST VIRGINIA,COOL RIDGE,5425825
50832,300228,-79.3438,38.6344,WEST VIRGINIA,FRANKLIN,5426807
50832,300227,-79.3483,38.6285,WEST VIRGINIA,FRANKLIN,5426807
50832,300226,-79.3558,38.6261,WEST VIRGINIA,FRANKLIN,5426807
50832,300224,-79.3184,38.4475,WEST VIRGINIA,SUGAR GROVE,5426815
50832,300219,-79.0945,38.9665,WEST VIRGINIA,HISER,5426847
50832,300215,-79.1007,38.9044,WEST VIRGINIA,ROUGH RUN,5426847
50832,300214,-79.1069,38.8978,WEST VIRGINIA,ROUGH RUN,5426847
50830,300269,-81.1,37.39,WEST VIRGINIA,COLORED HILL,5424740
50830,300193,-81.18,37.3,WEST VIRGINIA,STONY GAP,5424701
1132631,5285083,-81.63333,37.68333,WEST VIRGINIA,OCEANA,5424870
1132631,5285084,-81.45,37.61667,WEST VIRGINIA,SAULSVILLE,5424867
1132631,5285085,-81.18333,37.78333,WEST VIRGINIA,BECKLEY,5425801
1132631,5285086,-80.45,39.03333,WEST VIRGINIA,WESTON,5426452
1132631,5285087,-82.28333,37.68333,WEST VIRGINIA,WILLIAMSON,5425661
1132631,5285088,-81.2,39.38333,WEST VIRGINIA,ST MARYS,5426170
1132631,5285089,-81.55,39.26667,WEST VIRGINIA,PARKERSBURG,5426101
1132631,5285090,-79.95,38.96667,WEST VIRGINIA,JUNIOR,5426275
1132631,5285091,-80.45,38.95,WEST VIRGINIA,WESTON,5426447
50830,300186,-81.1,37.39,WEST VIRGINIA,COLORED HILL,5424740
50830,300186,-81.2,37.44,WEST VIRGINIA,BEESON,5424733
50742,299453,-81.37,38.2,WEST VIRGINIA,HUGHESTON,5425126
50742,299452,-81.38,38.2,WEST VIRGINIA,PRATT,5425103
50742,299450,-81.63,38.35,WEST VIRGINIA,CHARLESTON,5425301
50742,299449,-81.1,38.05,WEST VIRGINIA,FAYETTEVILLE,5425840
50742,299448,-82.4349,38.4144,WEST VIRGINIA,HUNTINGTON,5425701
50742,299446,-82.58,38.42,WEST VIRGINIA,KENOVA,
1186548,5444913,-79.46667,39.13333,WEST VIRGINIA,DAVIS,5426260
50832,300229,-79.3497,38.6386,WEST VIRGINIA,FRANKLIN,5426807
50853,300353,-79.4352,38.6829,WEST VIRGINIA,JUDY GAP,5426804
50853,300354,-79.0928,38.9617,WEST VIRGINIA,HISER,5426847
50853,300355,-79.043,38.9692,WEST VIRGINIA,DURGON,5426836
49353,289023,-81.12,37.62,WEST VIRGINIA,GNENT,5425843
49353,289036,-81.63,37.68,WEST VIRGINIA,OCEANA,5424870
61998,370915,-79.9796,38.6942,WEST VIRGINIA,HUTTONSVILLE,5426273
49406,289470,-79.96,39.63,WEST VIRGINIA,WESTOVER,5426505
61998,370917,-80.3142,38.8533,WEST VIRGINIA,FRENCH CREEK,5426218
5392,31539,-78.45,39.3,WEST VIRGINIA,CAPON BRIDGE,5426711
5392,31541,-78.3175,39.5,WEST VIRGINIA,OMPS,5425411
62010,370941,-81.45,39.4,WEST VIRGINIA,WILLIAMSTOWN,5426187
5549,32532,-81.1,39.1,WEST VIRGINIA,SMITHVILLE,5426362
62158,371875,-81.83,37.77,WEST VIRGINIA,ACCOVILLE,5425606
50980,301559,-79.88,38.27,WEST VIRGINIA,FROST,5424954
50980,301558,-79.88,38.27,WEST VIRGINIA,FROST,5424954
50980,301556,-79.9568,38.1074,WEST VIRGINIA,MARLINTON,5424954
49353,289018,-81.2,37.87,WEST VIRGINIA,BRADLEY,5425880
50980,301554,-79.9568,38.1074,WEST VIRGINIA,MARLINTON,5424954
50973,301486,-82.43,38.22,WEST VIRGINIA,WAYNE,5425570
50973,301485,-82.38,38.17,WEST VIRGINIA,EAST LYNN,5425570
50961,301394,-81.053,38.6958,WEST VIRGINIA,WALNUT,5425268
50961,301391,-81.12,38.87,WEST VIRGINIA,MT ZION,5426147
50961,301390,-80.3985,38.569,WEST VIRGINIA,DIANA,5426288
50961,301389,-80.57,38.62,WEST VIRGINIA,CENTRALIA,5426601
50961,301388,-80.7281,38.5246,WEST VIRGINIA,BAYS,5426610
50961,301385,-80.72,39.02,WEST VIRGINIA,LINN,5426384
1132631,5285078,-82.45,37.9,WEST VIRGINIA,CRUM,
1132631,5285079,-81.83333,38.06667,WEST VIRGINIA,MADISON,5425130
1132631,5285080,-82.01666999999999,37.98333,WEST VIRGINIA,CHAPMANVILLE,5425508
1132631,5285081,-82.0,37.85,WEST VIRGINIA,LOGAN,5425601
1132631,5285082,-82.28333,37.68333,WEST VIRGINIA,WILLIAMSON,5425661
50980,301545,-81.45,37.4055,WEST VIRGINIA,NORTHFORK,5424868
1186531,5444842,-80.9,38.88333,WEST VIRGINIA,LETTER GAP,5425267
49196,288182,-81.63,37.68,WEST VIRGINIA,OCEANA,5424870
49196,288180,-81.63,37.68,WEST VIRGINIA,OCEANA,5424870
74551,450764,-81.6028,38.3221,WEST VIRGINIA,SOUTH PARK,5425304
74551,450765,-81.5986,38.3056,WEST VIRGINIA,SOUTH PARK,5425304
74551,450766,-81.4931,38.4098,WEST VIRGINIA,PINCH,5425071
74551,450767,-81.63,38.3066,WEST VIRGINIA,CHARLESTON,5425314
74551,450768,-81.6248,38.3243,WEST VIRGINIA,SOUTH RUFFNER,5425314
74551,450769,-81.5996,38.3345,WEST VIRGINIA,SOUTH PARK,5425311
74551,450770,-81.5966,38.297,WEST VIRGINIA,SOUTH MALDEN,5425304
74551,450777,-81.5575,38.2992,WEST VIRGINIA,MALDEN,5425306
61988,370730,-81.37,39.33,WEST VIRGINIA,WAVERLY,5426184
61988,370731,-81.37,39.33,WEST VIRGINIA,WAVERLY,5426184
61988,370732,-81.37,39.33,WEST VIRGINIA,WAVERLY,5426184
61988,370733,-80.9957,39.5615,WEST VIRGINIA,SISTERSVILLE,5426175
5549,32535,-80.5669,38.8802,WEST VIRGINIA,ORLANDO,5426447
5549,32534,-80.72,39.02,WEST VIRGINIA,LINN,5426384
61988,370734,-80.35,39.17,WEST VIRGINIA,LOST CREEK,5426385
61988,370735,-80.13,39.08,WEST VIRGINIA,VOLGA,5426201
1133156,5287814,-80.85,39.65,WEST VIRGINIA,NEW MARTINSVILLE,5426155
1133156,5287813,-80.93333,39.6,WEST VIRGINIA,PADEN CITY,5426159
1133154,5287810,-80.6,40.5,WEST VIRGINIA,NEW CUMBERLAND,5426047
61991,370742,-80.6887,38.1911,WEST VIRGINIA,GRASSY FALLS,5426681
61991,370743,-80.68,38.22,WEST VIRGINIA,NETTIE,5426681
61991,370744,-80.68,38.1621,WEST VIRGINIA,NETTIE,5426676
61994,370751,-81.18,38.25,WEST VIRGINIA,DIXIE,5426656
93175,560695,-79.85,38.92,WEST VIRGINIA,ELKINS,5426241
93175,560694,-80.6437,38.8685,WEST VIRGINIA,BURNSVILLE,5426412
93175,560693,-80.3319,38.9158,WEST VIRGINIA,ABBOTT,5426218
93175,560692,-80.6075,38.8698,WEST VIRGINIA,BURNSVILLE,5426412
61988,370729,-81.37,39.33,WEST VIRGINIA,WAVERLY,5426184
74518,450551,-81.7819,38.3751,WEST VIRGINIA,INSTITUTE,5425177
61946,370536,-82.2,38.22,WEST VIRGINIA,BRANCHLAND,5425506
61946,370535,-82.1,38.28,WEST VIRGINIA,HAMLIN,5425523
1205232,5495071,-80.1,38.21667,WEST VIRGINIA,MARLINTON,5424954
1205231,5495069,-81.53333,37.58333,WEST VIRGINIA,PINEVILLE,5424874
93320,562253,-79.58,39.35,WEST VIRGINIA,AMBOY,5426764
1133160,5287930,-80.7,39.75,WEST VIRGINIA,ST JOSEPH,5426055
1133160,5287930,-80.71667,39.73333,WEST VIRGINIA,ST JOSEPH,5426055
1133160,5287929,-79.46667,39.13333,WEST VIRGINIA,DAVIS,5426260
1133160,5287928,-79.46667,39.13333,WEST VIRGINIA,DAVIS,5426260
1133160,5287927,-80.58333,40.4,WEST VIRGINIA,WEIRTON,5426062
56334,337890,-82.3194,38.4141,WEST VIRGINIA,WILSON,5425705
5552,32553,-81.53,39.18,WEST VIRGINIA,MINERAL WELLS,5426150
5552,32551,-82.07,38.53,WEST VIRGINIA,MT OLIVE,5425541
5552,32550,-81.05,39.27,WEST VIRGINIA,ELLENBORO,5426346
5552,32549,-81.07,38.8,WEST VIRGINIA,SAND RIDGE,5425234
93175,560691,-80.75,38.92,WEST VIRGINIA,SAND FORK,5426384
93175,560755,-80.97,39.11,WEST VIRGINIA,PRUNTY,5426327
5552,32548,-81.67,39.27,WEST VIRGINIA,WASHINGTON,5426181
5552,32546,-80.05,39.3,WEST VIRGINIA,WEBSTER,5426354
5552,32545,-80.22,38.78,WEST VIRGINIA,ALEXANDER,5426218
61737,369402,-78.9013,38.8492,WEST VIRGINIA,LOST CITY,5426812
61737,369407,-79.5388,38.6001,WEST VIRGINIA,DRY RUN,5426804
5552,32544,-80.12,39.27,WEST VIRGINIA,FLEMINGTON,5426347
1122916,5267503,-80.16667,39.5,WEST VIRGINIA,BARRACKVILLE,5426559
5552,32543,-79.97,39.3,WEST VIRGINIA,KNOTSVILLE,5426354
5549,32537,-81.27,38.95,WEST VIRGINIA,CRESTON,5426143
5549,32536,-81.22,38.93,WEST VIRGINIA,ANNAMORIAH,5426141
61946,370532,-82.13,38.43,WEST VIRGINIA,MILTON,5425541
61946,370533,-82.03,38.43,WEST VIRGINIA,HURRICANE,5425526
61946,370534,-81.88,38.53,WEST VIRGINIA,WINFIELD,5425213
93175,560755,-80.9333,39.1353,WEST VIRGINIA,BEREA,5426327
49196,288181,-81.6542,37.6505,WEST VIRGINIA,CLEAR FORK,5424822
93175,560690,-80.35,39.17,WEST VIRGINIA,LOST CREEK,5426385
93175,560688,-80.4929,39.141999999999996,WEST VIRGINIA,LIGHTBURN,5426378
1157077,5373863,-79.66667,39.35,WEST VIRGINIA,ROWLESBURG,5426425
1157078,5373864,-79.81667,39.33333,WEST VIRGINIA,FELLOWSVILLE,5426444
76710,462891,-79.87,39.54,WEST VIRGINIA,BURNS CHAPEL,5426508
93175,559231,-81.97,37.55,WEST VIRGINIA,WHARNCLIFFE,5425651
93175,559225,-81.9537,37.479,WEST VIRGINIA,MOHAWK,5424862
93175,559224,-81.9,37.48,WEST VIRGINIA,PANTHER,5424872
93175,559223,-81.82,37.45,WEST VIRGINIA,IAEGER,5424844
93175,559222,-82.17,37.62,WEST VIRGINIA,MATEWAN,
51351,304907,-80.4461,38.4595,WEST VIRGINIA,WEBSTER SPGS,5426288
51351,304906,-80.03,39.35,WEST VIRGINIA,GRAFTON,5426354
49189,288139,-81.92,38.45,WEST VIRGINIA,SCOTT DEPOT,5425560
49189,288140,-82.12,38.22,WEST VIRGINIA,MYRA,5425506
49196,288161,-82.47,38.12,WEST VIRGINIA,GENOA,5425517
49196,288162,-82.43,38.22,WEST VIRGINIA,WAYNE,5425570
49196,288163,-81.73,38.35,WEST VIRGINIA,SPRING HILL,5425309
49196,288166,-81.7103,38.3545,WEST VIRGINIA,SPRING HILL,5425309
49196,288168,-81.35,38.48,WEST VIRGINIA,CLENDENIN,5425045
49196,288169,-82.0828,38.85,WEST VIRGINIA,POINT PLEASANT,5425550
49196,288170,-82.17,38.62,WEST VIRGINIA,ASHTON,5425503
49196,288172,-81.65,38.68,WEST VIRGINIA,KENNA,5425271
49196,288173,-81.5629,38.65,WEST VIRGINIA,KENTUCK,5425248
49196,288174,-82.18,38.12,WEST VIRGINIA,RANGER,5425557
49196,288175,-80.85,38.28,WEST VIRGINIA,SUMMERSVILLE,5426651
49196,288176,-81.1859,38.1967,WEST VIRGINIA,GAULEY BRIDGE,5425059
49196,288177,-80.1,38.22,WEST VIRGINIA,MARLINTON,5424954
49196,288178,-81.1,37.7,WEST VIRGINIA,SHADY SPG,5425918
49196,288179,-81.1,37.7,WEST VIRGINIA,SHADY SPG,5425918
1157072,5373858,-80.56667,39.83333,WEST VIRGINIA,CAMERON,5426033
1157070,5373856,-79.95,39.61667,WEST VIRGINIA,MORGANTOWN,5426501
1157067,5373853,-80.7,39.86667,WEST VIRGINIA,GLEN EASTON,5426041
1156955,5369795,-80.71667,40.06667,WEST VIRGINIA,WHEELING,5426003
93175,560687,-80.4933,39.12,WEST VIRGINIA,JANE LEW,5426378
93175,560686,-80.74,39.13,WEST VIRGINIA,LEOPOLD,5426411
93175,560685,-81.45,39.35,WEST VIRGINIA,(PKB)WILSON FLD PRKR,5426187
93175,560684,-81.48,39.37,WEST VIRGINIA,BOAZ,5426187
93175,560683,-81.43,39.35,WEST VIRGINIA,(PKB)WILSON FLD PRKR,5426187
93175,560682,-81.48,39.37,WEST VIRGINIA,BOAZ,5426187
93175,559232,-81.78,37.42,WEST VIRGINIA,AVONDALE,5424811
1138201,5305001,-81.18333,37.78333,WEST VIRGINIA,BECKLEY,5425801
1138201,5305002,-81.08333,38.5,WEST VIRGINIA,CLAY,5425043
1138201,5305003,-81.53333,37.96667,WEST VIRGINIA,WHITESVILLE,5425209
1138201,5305004,-81.81667,37.96667,WEST VIRGINIA,JEFFREY,5425114
1138201,5305005,-80.65,38.33333,WEST VIRGINIA,CRAIGSVILLE,5426205
1138201,5305006,-80.85,38.28333,WEST VIRGINIA,SUMMERSVILLE,5426651
93175,560689,-80.4,39.12,WEST VIRGINIA,JANE LEW,5426378
1138201,5305007,-81.81667,37.78333,WEST VIRGINIA,AMHERSTDALE,5425607
1138203,5305097,-81.58333,37.43333,WEST VIRGINIA,WELCH,5424801
1138203,5305098,-81.68333,37.73333,WEST VIRGINIA,CYCLONE,5424827
17211,99629,-81.22,37.27,WEST VIRGINIA,BLUEFIELD,5424701
1156720,5370172,-77.73333000000001,39.33333,WEST VIRGINIA,HARPERS FERRY,
76731,463098,-80.54,40.37,WEST VIRGINIA,COLLIERS,5426035
17204,99612,-80.37,37.98,WEST VIRGINIA,RENICK,5424966
17204,99609,-81.1953,37.42,WEST VIRGINIA,MATOAKA,5424747
17204,99608,-80.97,37.5445,WEST VIRGINIA,PIPESTEM,5425979
17204,99604,-81.2,37.42,WEST VIRGINIA,LASHMEET,5424733
17204,99603,-81.02,37.42,WEST VIRGINIA,ATHENS,5424740
76731,463097,-80.56,40.4,WEST VIRGINIA,WEIRTON,5426062
76731,463096,-80.56,40.4,WEST VIRGINIA,WEIRTON,5426062
76731,463095,-80.56,40.4,WEST VIRGINIA,WEIRTON,5426062
1138201,5305095,-80.01666999999999,38.41667,WEST VIRGINIA,LINWOOD,5426209
106739,640823,-80.2,39.68,WEST VIRGINIA,JOHN,5426570
1186531,5444841,-80.75,38.91667,WEST VIRGINIA,SAND FORK,5426430
1132631,5285093,-81.38333,37.58333,WEST VIRGINIA,MULLENS,5425882
39439,229270,-82.1197,37.6699,WEST VIRGINIA,VARNEY,5425696
75520,455870,-78.209,39.628,WEST VIRGINIA,BERKELEY SPGS,5425411
75520,455871,-78.19,39.655,WEST VIRGINIA,FAIR VIEW,5425411
88944,536104,-80.78,37.97,WEST VIRGINIA,RAINELLE,5425962
62631,374582,-80.65,38.33,WEST VIRGINIA,CRAIGSVILLE,5426205
62631,374584,-79.98,38.6621,WEST VIRGINIA,HUTTONSVILLE,5426273
62631,374585,-79.98,38.72,WEST VIRGINIA,HUTTONSVILLE,5426273
39620,230288,-80.58,40.4,WEST VIRGINIA,WEIRTON,5426062
39620,230287,-80.58,40.33,WEST VIRGINIA,FOLLANSBEE,5426037
75598,456371,-80.22,37.9,WEST VIRGINIA,ALVON,5424986
75598,456380,-80.97,37.44,WEST VIRGINIA,PETTRY,5425971
75598,456532,-81.02,37.42,WEST VIRGINIA,ATHENS,5424740
39620,230286,-80.61,40.28,WEST VIRGINIA,WELLSBURG,5426070
38705,224478,-77.8104,39.301,WEST VIRGINIA,HALLTOWN,5425414
38705,224477,-77.8908,39.3972,WEST VIRGINIA,KEARNEYSVILLE,5425430
88463,533582,-80.06,39.53,WEST VIRGINIA,SMITHTOWN,5426554
88463,533582,-80.02,39.54,WEST VIRGINIA,LITTLE FALLS,5426554
39548,229809,-79.1584,39.3911,WEST VIRGINIA,BLAINE,5426717
30431,178221,-79.64,39.66,WEST VIRGINIA,BRUCETON MILLS,5426525
30431,178223,-80.52,39.47,WEST VIRGINIA,FOLSOM,5426348
30431,178224,-80.56,39.5,WEST VIRGINIA,SMITHFIELD,5426437
88472,533637,-80.86,39.69,WEST VIRGINIA,NEW MARTINSVILLE ARP,5426155
39465,229372,-81.63,37.6,WEST VIRGINIA,BRENTON,5424818
88596,534176,-78.7264,39.2552,WEST VIRGINIA,SHANKS,5426757
88596,534175,-78.7264,39.1828,WEST VIRGINIA,KIRBY,5426755
39465,229373,-81.63,37.6,WEST VIRGINIA,BRENTON,5424818
39481,229388,-81.1,38.05,WEST VIRGINIA,FAYETTEVILLE,5425840
30682,179806,-80.7,40.08,WEST VIRGINIA,WHEELING,5426003
30682,179808,-80.7,40.08,WEST VIRGINIA,WHEELING,5426003
30682,179809,-80.7,40.08,WEST VIRGINIA,WHEELING,5426003
30682,179812,-80.67,40.05,WEST VIRGINIA,ELM GROVE,5426003
89500,539028,-81.82,37.32,WEST VIRGINIA,JOLO,5424850
89500,538962,-81.7199,38.3133,WEST VIRGINIA,RUTH,5425309
89500,538959,-82.0515,38.3713,WEST VIRGINIA,PORTERSVILLE,5425510
89500,538957,-82.03,38.38,WEST VIRGINIA,HURRICANE,5425510
26766,156802,-82.03,37.82,WEST VIRGINIA,WHITMAN,5425652
26766,156804,-81.72,37.78,WEST VIRGINIA,LORADO,5425630
26768,156807,-82.45,37.9,WEST VIRGINIA,CRUM,
1151551,5355915,-80.46667,37.75,WEST VIRGINIA,RONCEVERTE,5424970
89128,537077,-78.1881,39.4006,WEST VIRGINIA,GANOTOWN,5425427
89128,537077,-78.1886,39.3996,WEST VIRGINIA,GLENGARY,5425427
39439,229263,-81.6905,38.7377,WEST VIRGINIA,FAIR PLAIN,5425271
30825,180944,-78.57,39.34,WEST VIRGINIA,HOY,5426704
30784,181400,-79.33,38.69,WEST VIRGINIA,RUDDLE,5426807
39481,229389,-81.7362,37.5385,WEST VIRGINIA,STEELES,5424839
30784,180741,-78.72,39.06,WEST VIRGINIA,MC CAULEY,5426851
30784,180739,-78.73,39.18,WEST VIRGINIA,KIRBY,5426755
30784,180738,-78.72,39.29,WEST VIRGINIA,SHANKS,5426757
30784,180732,-78.26,39.62,WEST VIRGINIA,GREAT CACAPON,5425411
30784,180728,-78.87,39.39,WEST VIRGINIA,HEADSVILLE,5426710
30784,180724,-78.69,39.46,WEST VIRGINIA,MILLESON,5426722
30784,180723,-78.97,39.44,WEST VIRGINIA,LIMESTONE,5426726
30752,180696,-78.75,39.15,WEST VIRGINIA,ROCKOAK,5426755
39439,229265,-80.35,39.38,WEST VIRGINIA,LUMBERPORT,5426386
39439,229266,-80.3481,39.3759,WEST VIRGINIA,HAYWOOD,5426386
39439,229267,-81.05,38.6,WEST VIRGINIA,BIG OTTER,5425113
39439,229268,-80.87,38.63,WEST VIRGINIA,FRAMETOWN,5426623
39439,229269,-81.92,38.17,WEST VIRGINIA,ALKOL,5425501
30691,179836,-80.56,40.61,WEST VIRGINIA,NEWELL,5426034
30784,180740,-77.99,39.42,WEST VIRGINIA,(MRB)SHEPHERD FLD MR,5425405
89500,539040,-81.8,38.28,WEST VIRGINIA,ALUM CREEK,5425003
1102091,5157343,-80.4,38.7,WEST VIRGINIA,CLEVELAND,5426215
114846,688961,-81.87,37.99,WEST VIRGINIA,RAMAGE,5425053
1139325,5307170,-79.95,39.61667,WEST VIRGINIA,MORGANTOWN,5426501
1158033,5379302,-79.73333000000001,38.55,WEST VIRGINIA,THORNWOOD,5424920
1116664,5251889,-81.53333,39.18333,WEST VIRGINIA,MINERAL WELLS,5426150
1116666,5251894,-81.35,38.8,WEST VIRGINIA,SPENCER,5425276
1116666,5251895,-81.4,38.7,WEST VIRGINIA,GANDEEVILLE,5425243
1116666,5251896,-81.16667,39.2,WEST VIRGINIA,CAIRO,5426337
1116666,5251897,-81.1,38.9,WEST VIRGINIA,GRANTSVILLE,5426147
1116666,5251898,-80.93333,38.93333,WEST VIRGINIA,GLENVILLE,5426351
56334,337892,-81.35,37.77,WEST VIRGINIA,FAIRDALE,5425865
1158032,5379226,-82.28333,38.41667,WEST VIRGINIA,BARBOURSVILLE,5425504
1158029,5379216,-81.65,39.25,WEST VIRGINIA,LUBECK,5426181
1158029,5379216,-81.6,39.26667,WEST VIRGINIA,LUBECK,5426101
1158029,5378829,-81.83333,38.06667,WEST VIRGINIA,MADISON,5425130
1158025,5375804,-82.05,38.43333,WEST VIRGINIA,CULLODEN,5425510
1116670,5252003,-80.88333,37.76667,WEST VIRGINIA,SANDSTONE,5425985
1116670,5252004,-80.55,37.88333,WEST VIRGINIA,LEWISBURG,5424931
1116670,5252005,-80.55,37.88333,WEST VIRGINIA,LEWISBURG,5424931
1158023,5375521,-81.73333000000001,38.15,WEST VIRGINIA,NELLIS,5425142
1185220,5442150,-82.16667,37.68333,WEST VIRGINIA,RAGLAND,5425670
1185220,5442151,-82.01666999999999,37.98333,WEST VIRGINIA,CHAPMANVILLE,5425508
1185220,5442152,-82.53333,38.01667,WEST VIRGINIA,GLENHAYES,
1185220,5442153,-81.56667,38.06667,WEST VIRGINIA,ORGAS,5425181
1185220,5442154,-81.2,37.86667,WEST VIRGINIA,BRADLEY,5425880
1185220,5442155,-81.16667,37.88333,WEST VIRGINIA,MT HOPE,5425880
1158021,5375480,-82.43333,38.23333,WEST VIRGINIA,WAYNE,5425570
1158020,5375478,-81.06667,38.06667,WEST VIRGINIA,LANSING,5425840
1158020,5375477,-81.1,38.13333,WEST VIRGINIA,ANSTED,5425812
56334,337891,-81.35,37.77,WEST VIRGINIA,GLEN DANIEL,5425865
1116657,5251743,-80.9,37.91667,WEST VIRGINIA,DANESE,5425831
1116657,5251742,-81.55,37.95,WEST VIRGINIA,EUNICE,5425209
1116657,5251741,-81.53333,37.96667,WEST VIRGINIA,WHITESVILLE,5425209
1200404,5480890,-81.2,38.13333,WEST VIRGINIA,KANAWHA FALLS,5425115
5787,33965,-80.68,37.95,WEST VIRGINIA,RUPERT,5425984
1102096,5171509,-81.78333,38.41667,WEST VIRGINIA,CROSS LANES,5425313
1102096,5171874,-81.43333,38.21667,WEST VIRGINIA,EAST BANK,5425067
1102096,5171877,-80.13333,38.41667,WEST VIRGINIA,SLATY FORK,5426291
1102097,5171885,-81.93333,38.53333,WEST VIRGINIA,ELEANOR,5425070
1102097,5171887,-81.9,38.51667,WEST VIRGINIA,WINFIELD,5425213
1102097,5172169,-82.31667,38.51667,WEST VIRGINIA,LESAGE,
1102097,5172169,-82.3,38.51667,WEST VIRGINIA,LESAGE,5425537
1102097,5172260,-82.21667,38.23333,WEST VIRGINIA,BRANCHLAND,5425506
1139105,5308581,-79.46667,38.51667,WEST VIRGINIA,HARPER,5426807
1139105,5308582,-79.03333,39.06667,WEST VIRGINIA,MOOREFIELD,5426818
1116655,5251733,-82.16667,38.68333,WEST VIRGINIA,HOGSETT,5425515
114846,688960,-80.86,37.86,WEST VIRGINIA,BEELICK KNOB,5425976
1116655,5251736,-82.21667,38.41667,WEST VIRGINIA,ONA,5425545
1102101,5171216,-81.25,38.71667,WEST VIRGINIA,CLOVER,5425276
75774,457335,-80.82,39.71,WEST VIRGINIA,PROCTOR,5426055
75774,457336,-80.86,39.66,WEST VIRGINIA,NEW MARTINSVILLE,5426155
75774,457337,-80.86,39.66,WEST VIRGINIA,NEW MARTINSVILLE,5426155
1139394,5307755,-80.93333,37.35,WEST VIRGINIA,KELLYSVILLE,5424740
1139394,5307753,-80.55,37.6,WEST VIRGINIA,UNION,5424983
1139394,5307752,-80.55,37.66667,WEST VIRGINIA,SINKS GROVE,5424976
1139394,5307750,-80.96667,37.51667,WEST VIRGINIA,LICK CREEK,5425979
1139394,5307749,-80.45,37.81667,WEST VIRGINIA,LEWISBURG,5424901
1139394,5307748,-80.45,37.8,WEST VIRGINIA,LEWISBURG,5424901
1116655,5251737,-81.65,38.33333,WEST VIRGINIA,SOUTH CHARLESTON,5425314
1116655,5251738,-80.76666999999999,38.66667,WEST VIRGINIA,GASSAWAY,5426601
1116655,5251739,-80.38333,38.65,WEST VIRGINIA,HACKER VLY,5426222
1102097,5172260,-82.16667,38.23333,WEST VIRGINIA,BRANCHLAND,5425506
1132631,5285092,-80.23333000000001,39.0,WEST VIRGINIA,BUCKHANNON,5426201
89500,539166,-81.1463,37.6049,WEST VIRGINIA,GHENT,5425843
16543,95481,-79.5168,39.5603,WEST VIRGINIA,ARR,5426764
74929,453080,-81.7143,38.3215,WEST VIRGINIA,RUTH,5425309
74929,453082,-81.83,38.38,WEST VIRGINIA,ST ALBANS,5425177
74929,453085,-81.63,38.35,WEST VIRGINIA,CHARLESTON,5425301
15047,85632,-81.4231,38.4611,WEST VIRGINIA,BLUE CREEK,5425071
15047,85632,-81.4233,38.4583,WEST VIRGINIA,BLUE CREEK,5425071
1093071,5138200,-82.41667,37.83333,WEST VIRGINIA,KERMIT,
1181607,5425928,-78.03333,39.38333,WEST VIRGINIA,DARKESVILLE,5425428
1181607,5425928,-78.03333,39.36667,WEST VIRGINIA,DARKESVILLE,5425428
1181607,5425929,-77.98333000000001,39.3,WEST VIRGINIA,MIDDLEWAY,5425430
1181607,5425929,-77.98333000000001,39.33333,WEST VIRGINIA,MIDDLEWAY,5425430
1181607,5425930,-78.08333,39.68333,WEST VIRGINIA,SLEEPY CREEK,
16755,96562,-81.67,37.38,WEST VIRGINIA,COALWOOD,5424801
16755,96558,-81.65,37.42,WEST VIRGINIA,PREMIER,5424878
16755,96556,-81.65,37.42,WEST VIRGINIA,PREMIER,5424878
16755,96555,-81.58,37.43,WEST VIRGINIA,WELCH,5424801
16755,96554,-81.58,37.43,WEST VIRGINIA,WELCH,5424801
16755,96552,-81.58,37.43,WEST VIRGINIA,WELCH,5424801
16755,96550,-81.5,37.43,WEST VIRGINIA,KIMBALL,5424853
1181607,5425930,-78.08333,39.66667,WEST VIRGINIA,SLEEPY CREEK,5425411
1181746,5425954,-80.7,38.66667,WEST VIRGINIA,SUTTON,5426601
49861,292964,-80.66,40.57,WEST VIRGINIA,ARROYO,5426050
49861,292965,-80.61,40.5,WEST VIRGINIA,NEW CUMBERLAND,5426047
1093071,5138199,-81.55,39.26667,WEST VIRGINIA,PARKERSBURG,5426101
85769,518165,-82.22,38.42,WEST VIRGINIA,ONA,5425545
85769,518856,-80.0405,39.3729,WEST VIRGINIA,COFFMAN,5426354
1196750,5470971,-81.13333,37.75,WEST VIRGINIA,BEAVER,5425813
1196750,5470970,-81.13333,37.98333,WEST VIRGINIA,OAK HILL,5425901
74929,453077,-81.613,38.3651,WEST VIRGINIA,(CRW) YEAGER ARPT,5425302
76609,462576,-78.6381,39.2953,WEST VIRGINIA,AUGUSTA,5426704
74929,453074,-81.7191,38.3129,WEST VIRGINIA,RUTH,5425309
74929,453072,-81.6491,38.3972,WEST VIRGINIA,GUTHRIE,5425312
1132631,5285094,-81.53333,37.58333,WEST VIRGINIA,PINEVILLE,5424874
115802,695912,-80.56,40.36,WEST VIRGINIA,COLLIERS,5426035
1132631,5285095,-79.83333,38.96667,WEST VIRGINIA,GILMAN,5426241
114342,685167,-80.03,39.24,WEST VIRGINIA,BERRYBURG MINE,5426416
114342,685169,-79.97,39.31,WEST VIRGINIA,KNOTSVILLE,5426354
114342,685170,-79.95,39.35,WEST VIRGINIA,THORNTON,5426440
114342,685174,-80.0,39.13,WEST VIRGINIA,VANNOYS MILL,5426416
1132631,5285096,-81.05,39.26667,WEST VIRGINIA,ELLENBORO,5426346
1132631,5285097,-80.68333,39.28333,WEST VIRGINIA,SMITHBURG,5426426
1132631,5285098,-80.35,39.28333,WEST VIRGINIA,CLARKSBURG,5426301
1132631,5285099,-80.65,38.85,WEST VIRGINIA,BURNSVILLE,5426335
1132631,5285100,-80.71667,38.86667,WEST VIRGINIA,GILMER,5426615
1132631,5285101,-80.03333,39.15,WEST VIRGINIA,PHILIPPI,5426416
50251,295666,-80.56,40.4,WEST VIRGINIA,WEIRTON,5426062
115744,695707,-80.4799,39.2638,WEST VIRGINIA,MAKEN,5426426
1132631,5285102,-80.4,39.2,WEST VIRGINIA,WEST MILFORD,5426451
1132631,5289577,-80.48333000000001,38.93333,WEST VIRGINIA,ROANOKE,5426447
1132631,5289578,-80.3,38.88333,WEST VIRGINIA,FRENCH CREEK,5426218
1132631,5289579,-79.88333,38.8,WEST VIRGINIA,DAILEY,5426259
62158,371876,-82.0,37.8355,WEST VIRGINIA,LOGAN,5425653
62158,371877,-82.0,37.85,WEST VIRGINIA,LOGAN,5425601
62158,371913,-81.62,37.6,WEST VIRGINIA,MARIANNA,5424818
62158,371923,-81.5483,37.58,WEST VIRGINIA,PINEVILLE,5424874
62158,371925,-81.53,37.58,WEST VIRGINIA,PINEVILLE,5424874
16836,96988,-80.3,39.4,WEST VIRGINIA,SHINNSTON,5426431
16836,96987,-80.3,39.4,WEST VIRGINIA,SHINNSTON,5426431
74929,453069,-81.48,38.45,WEST VIRGINIA,ELKVIEW,5425071
74929,453070,-81.63,38.35,WEST VIRGINIA,CHARLESTON,5425301
115744,695707,-80.4001,39.2791,WEST VIRGINIA,WILSONBURG,5426301
89500,539166,-81.2012,37.6014,WEST VIRGINIA,WILLIBET,5425902
50238,295595,-80.71,39.85,WEST VIRGINIA,GRAVE CREEK,5426041
85769,518856,-79.9631,39.3953,WEST VIRGINIA,IRONTOWN,5426354
1169608,5396447,-77.96667,39.45,WEST VIRGINIA,MARTINSBURG,5425401
1169608,5396540,-77.73333000000001,39.33333,WEST VIRGINIA,HARPERS FERRY,
38705,224487,-78.5148,39.2363,WEST VIRGINIA,MILLBROOK,5426711
38705,224485,-77.9722,39.3209,WEST VIRGINIA,MIDDLEWAY,5425430
38705,224484,-77.99600000000001,39.323,WEST VIRGINIA,TARICO HGTS,5425413
5820,34107,-80.4017,37.87,WEST VIRGINIA,MAXWELTON,5424957
38705,224483,-78.0173,39.3033,WEST VIRGINIA,TARICO HGTS,5425413
97132,584315,-77.94,39.25,WEST VIRGINIA,MT PLEASANT,5425446
38705,224482,-78.6054,39.1931,WEST VIRGINIA,DELRAY,5426714
38705,224481,-78.45,39.234,WEST VIRGINIA,HOOKS MILLS,5426865
38705,224480,-77.9353,39.2542,WEST VIRGINIA,MT PLEASANT,5425414
38705,224479,-77.8575,39.2581,WEST VIRGINIA,MECHANICSTOWN,5425414
423,1704,-80.6,38.25,WEST VIRGINIA,HOLCOMB,5426202
423,1702,-81.48,38.2,WEST VIRGINIA,CABIN CREEK,5425035
423,1701,-81.5,38.2,WEST VIRGINIA,QUINCY,5425015
423,1695,-82.02,37.98,WEST VIRGINIA,CHAPMANVILLE,5425508
423,1694,-82.02,37.98,WEST VIRGINIA,CHAPMANVILLE,5425508
1209462,5506858,-78.75,39.35,WEST VIRGINIA,ROMNEY,5426757
39439,229183,-82.15,37.63,WEST VIRGINIA,NORTH MATEWAN,5425688
39439,229184,-81.87,37.62,WEST VIRGINIA,GILBERT,5425621
39439,229257,-81.8269,37.5669,WEST VIRGINIA,NORTH SPG,5424869
39439,229258,-81.63,37.6,WEST VIRGINIA,BRENTON,5424818
39439,229259,-81.53,37.58,WEST VIRGINIA,PINEVILLE,5424874
39439,229260,-81.7,38.82,WEST VIRGINIA,RIPLEY,5425271
39439,229261,-80.45,38.87,WEST VIRGINIA,WALKERSVILLE,5426447
39439,229262,-81.7,38.82,WEST VIRGINIA,RIPLEY,5425271
16543,95481,-79.494,39.5495,WEST VIRGINIA,CRANESVILLE,5426764
1169605,5396355,-77.88333,39.76667,WEST VIRGINIA,RANSON,
31016,181817,-81.25,37.4167,WEST VIRGINIA,GIATTO,5424736
1195239,5467502,-81.21667,37.26667,WEST VIRGINIA,BLUEFIELD,5424701
31016,181819,-81.25,37.42,WEST VIRGINIA,MATOAKA,5424736
62158,371926,-81.33,37.48,WEST VIRGINIA,COVEL,5424736
50102,294508,-80.7,38.08,WEST VIRGINIA,QUINWOOD,5425981
50064,294433,-80.67,37.45,WEST VIRGINIA,LINDSIDE,5424963
16587,95726,-82.28,38.42,WEST VIRGINIA,BARBOURSVILLE,5425504
16587,95719,-81.65,38.33,WEST VIRGINIA,SOUTH CHARLESTON,5425314
16587,95717,-82.0647,38.3469,WEST VIRGINIA,HAMLIN,5425510
16587,95715,-82.28,37.68,WEST VIRGINIA,WILLIAMSON,5425661
16587,95713,-82.13,37.65,WEST VIRGINIA,RED JACKET,5425692
16587,95710,-82.1,37.67,WEST VIRGINIA,VARNEY,5425670
16587,95709,-82.42,37.83,WEST VIRGINIA,KERMIT,
50064,294432,-80.8264,37.673,WEST VIRGINIA,CREAMERY,5425951
50064,294431,-80.8887,37.6741,WEST VIRGINIA,BROOKLYN,5425951
50064,294430,-81.12,37.58,WEST VIRGINIA,FLAT TOP,5425841
1196750,5470969,-82.13333,37.65,WEST VIRGINIA,RED JACKET,5425692
50064,294419,-80.63,37.73,WEST VIRGINIA,PALESTINE,5424910
50064,294214,-80.45,37.87,WEST VIRGINIA,MAXWELTON,5424901
62158,371928,-81.67,37.38,WEST VIRGINIA,COALWOOD,5424801
62281,372570,-79.82,39.07,WEST VIRGINIA,MONTROSE,5426283
62281,372571,-82.3,37.8,WEST VIRGINIA,LENORE,5425661
1169584,5397494,-77.96667,39.45,WEST VIRGINIA,MARTINSBURG,5425401
1169602,5397696,-78.06667,39.41667,WEST VIRGINIA,ARDEN,5425403
1116270,5251599,-80.1,39.68333,WEST VIRGINIA,CORE,5426541
1169602,5397696,-78.01666999999999,39.41667,WEST VIRGINIA,ARDEN,5425428
87729,529276,-77.9447,39.4969,WEST VIRGINIA,BERKELEY,5425404
90035,541091,-80.77,37.5,WEST VIRGINIA,RED SULPHUR SPGS,5424918
62347,372973,-81.24,37.42,WEST VIRGINIA,GIATTO,5424736
87729,529277,-77.9437,39.5462,WEST VIRGINIA,SPRING MILLS,5425403
87771,529524,-78.2082,39.3895,WEST VIRGINIA,GLENGARY,5425427
50064,294215,-80.4,38.08,WEST VIRGINIA,LEONARD,5424966
1205232,5495074,-82.43333,38.01667,WEST VIRGINIA,DUNLOW,5425511
1205232,5495072,-80.1,38.18333,WEST VIRGINIA,MARLINTON,5424954
1205232,5495076,-82.13333,38.03333,WEST VIRGINIA,HARTS,5425524
61199,366066,-82.382,37.8345,WEST VIRGINIA,KERMIT,5425674
1163155,5335886,-77.73333000000001,39.33333,WEST VIRGINIA,HARPERS FERRY,
1163153,5335880,-78.05,39.35,WEST VIRGINIA,INWOOD,5425428
8474,48476,-80.23,39.0,WEST VIRGINIA,BUCKHANNON,5426201
8474,48475,-80.23,39.0,WEST VIRGINIA,BUCKHANNON,5426201
32547,190462,-81.02,37.42,WEST VIRGINIA,ATHENS,5424740
8468,48462,-81.67,37.27,WEST VIRGINIA,BERWIND,5424815
118462,712833,-78.9878,39.4433,WEST VIRGINIA,KEYSER,5426726
118462,712832,-79.005,39.4206,WEST VIRGINIA,KEYSER,5426726
118460,712282,-78.491,39.21,WEST VIRGINIA,LEHEW,5426865
118454,713480,-77.847,39.3,WEST VIRGINIA,CHARLES TOWN,5425438
118454,713480,-77.844,39.297,WEST VIRGINIA,CHARLES TOWN,5425414
118441,711898,-79.93,39.495,WEST VIRGINIA,BROWNS CHAPEL,5426508
118441,711898,-79.928,39.496,WEST VIRGINIA,BROWNS CHAPEL,5426508
118441,711897,-79.85300000000001,39.66,WEST VIRGINIA,ICES FERRY,5426508
118441,711897,-79.848,39.661,WEST VIRGINIA,ICES FERRY,5426508
8463,48409,-81.98,38.62,WEST VIRGINIA,BUFFALO,5425033
8463,48404,-81.35,38.48,WEST VIRGINIA,CLENDENIN,5425045
3667,20342,-80.58,40.17,WEST VIRGINIA,WEST LIBERTY,5426003
3667,20341,-80.72,40.07,WEST VIRGINIA,WHEELING,5426003
32547,190455,-80.2968,37.7974,WEST VIRGINIA,WHITE SULPHUR SPGS,5424986
32547,190451,-80.45,37.83,WEST VIRGINIA,LEWISBURG,5424901
32547,190450,-80.42,37.84,WEST VIRGINIA,MAXWELTON,5424901
32547,190449,-80.38,37.93,WEST VIRGINIA,FRANKFORD,5424938
17949,104237,-80.7,40.08,WEST VIRGINIA,WHEELING,5426003
17932,107080,-79.35,38.64,WEST VIRGINIA,FRANKLIN,5426807
17932,107079,-79.05,39.45,WEST VIRGINIA,PIEDMONT,5426726
61199,366064,-81.8659,38.1839,WEST VIRGINIA,WOODVILLE,5425529
61199,366064,-82.15700000000001,38.1468,WEST VIRGINIA,BRADYVILLE,5425540
61199,366031,-82.2411,38.0974,WEST VIRGINIA,CUZZIE,5425534
87353,527294,-77.98100000000001,39.455999999999996,WEST VIRGINIA,MARTINSBURG,5425401
47946,279829,-82.2741,37.6795,WEST VIRGINIA,CHATTAROY,5425661
47946,279830,-82.14200000000001,37.5665,WEST VIRGINIA,MATEWAN,5425672
22073,134830,-77.74,39.33,WEST VIRGINIA,HARPERS FERRY,
1214027,5516136,-80.9,37.46667,WEST VIRGINIA,LICK CREEK,5425979
1214026,5516135,-80.83333,37.46667,WEST VIRGINIA,BOZOO,5424963
8542,48963,-80.5972,37.45,WEST VIRGINIA,LINDSIDE,5424951
8539,48941,-80.78,37.97,WEST VIRGINIA,RAINELLE,5425962
22405,131593,-81.1,37.37,WEST VIRGINIA,PRINCETON,5424740
22405,131594,-81.0818,37.37,WEST VIRGINIA,PRINCETON,5424740
65190,390596,-81.17,37.88,WEST VIRGINIA,MT HOPE,5425880
48172,281253,-81.2,39.38,WEST VIRGINIA,ST MARYS,5426170
48172,281254,-81.2,39.38,WEST VIRGINIA,ST MARYS,5426170
48172,281255,-80.35,39.17,WEST VIRGINIA,LOST CREEK,5426385
17932,107078,-77.86,39.29,WEST VIRGINIA,CHARLES TOWN,5425414
28031,164444,-82.45,38.3235,WEST VIRGINIA,LAVALETTE,5425535
94679,569164,-81.18,37.78,WEST VIRGINIA,BECKLEY,5425801
94679,569160,-82.2,37.63,WEST VIRGINIA,SPRIGG,5425661
1137395,5301390,-80.73333000000001,39.91667,WEST VIRGINIA,MOUNDSVILLE,5426041
28031,164430,-80.617,39.2955,WEST VIRGINIA,DOAK,5426426
61199,366030,-82.2411,38.0974,WEST VIRGINIA,COVE GAP,5425534
61199,366030,-82.5354,38.0334,WEST VIRGINIA,GLENHAYES,5425514
61199,366031,-82.0796,38.1163,WEST VIRGINIA,ALLEN,5425557
1142720,5317920,-80.35,39.28333,WEST VIRGINIA,CLARKSBURG,5426301
1142720,5317919,-80.46667,39.28333,WEST VIRGINIA,WOLF SUMMIT,5426426
108667,650913,-81.1947,37.4526,WEST VIRGINIA,BEESON,5424733
17956,104272,-80.2,39.44,WEST VIRGINIA,KINGMONT,5426554
28031,164426,-82.416,38.4133,WEST VIRGINIA,GUYANDOTTE,5425705
87353,527294,-77.964,39.451,WEST VIRGINIA,MARTINSBURG,5425401
28031,164438,-82.28,37.68,WEST VIRGINIA,WILLIAMSON,5425661
47946,279828,-81.87,37.62,WEST VIRGINIA,GILBERT,5425621
17932,107076,-78.59,39.18,WEST VIRGINIA,WARDENSVILLE,5426711
32547,190448,-80.48,37.85,WEST VIRGINIA,RICHLANDS,5424901
61199,366253,-82.0164,37.941,WEST VIRGINIA,PHICO,5425508
61199,366254,-81.85,37.73,WEST VIRGINIA,MALLORY,5425634
94085,565883,-82.13,38.03,WEST VIRGINIA,HARTS,5425524
48172,281265,-81.82,38.87,WEST VIRGINIA,COTTAGEVILLE,5425239
48172,281266,-81.9886,38.72,WEST VIRGINIA,SOUTHSIDE,5425187
61199,366261,-82.2556,38.0959,WEST VIRGINIA,COVE GAP,5425534
61199,366266,-81.98,38.23,WEST VIRGINIA,GRIFFITHSVILLE,5425521
109264,654394,-81.6,37.4,WEST VIRGINIA,HAVACO,5424801
109264,654395,-81.57,37.41,WEST VIRGINIA,HAVACO,5424801
109264,654396,-81.52,38.01,WEST VIRGINIA,GARRISON,5425193
109264,654397,-81.44,37.63,WEST VIRGINIA,SAULSVILLE,5425876
48172,281267,-82.4438,38.4127,WEST VIRGINIA,HUNTINGTON,5425701
8391,48072,-80.78,37.97,WEST VIRGINIA,RAINELLE,5425962
8391,48071,-80.78,37.97,WEST VIRGINIA,RAINELLE,5425962
1217021,5522672,-80.86667,37.81667,WEST VIRGINIA,ELTON,5425976
109264,654398,-81.39,37.58,WEST VIRGINIA,MULLENS,5425882
109264,654399,-81.41,38.16,WEST VIRGINIA,GALLAGHER,5425083
109264,654400,-81.39,38.25,WEST VIRGINIA,WARD,5425039
109264,654401,-81.3,37.74,WEST VIRGINIA,LESTER,5425932
109265,654404,-81.4,38.7,WEST VIRGINIA,GANDEEVILLE,5425243
109265,654405,-81.42,38.85,WEST VIRGINIA,KYGER,5425270
109265,654406,-81.38,38.84,WEST VIRGINIA,KYGER,5425276
109265,654407,-81.39,38.8,WEST VIRGINIA,BARRS,5425276
10797,59921,-79.92,39.65,WEST VIRGINIA,(MGW)HART FLD MORGAN,5426505
10797,59921,-79.94800000000001,39.586999999999996,WEST VIRGINIA,UFFINGTOWN,5426508
28031,164425,-81.83,38.07,WEST VIRGINIA,MADISON,5425130
57593,346803,-80.06,39.47,WEST VIRGINIA,HOPEWELL,5426554
1172689,5404315,-80.6,40.5,WEST VIRGINIA,NEW CUMBERLAND,5426047
61199,366250,-82.2745,37.9694,WEST VIRGINIA,EAST LYNN,5425524
48172,281264,-81.7,38.82,WEST VIRGINIA,RIPLEY,5425271
48172,281263,-79.78,38.53,WEST VIRGINIA,BARTOW,5426264
72301,435928,-80.61,40.28,WEST VIRGINIA,WELLSBURG,5426070
72301,435929,-80.56,40.61,WEST VIRGINIA,NEWELL,5426034
61199,366066,-82.4039,37.8326,WEST VIRGINIA,KERMIT,5425674
61199,366246,-82.4087,37.8429,WEST VIRGINIA,GREYEAGLE,5425674
61199,366247,-82.6,38.12,WEST VIRGINIA,FT GAY,5425514
94539,568432,-80.4,39.2,WEST VIRGINIA,WEST MILFORD,5426451
61199,366248,-82.5853,38.0997,WEST VIRGINIA,PADDLE CREEK,
94470,568049,-81.1069,38.8802,WEST VIRGINIA,MT ZION,5426147
8401,48104,-80.5649,37.5132,WEST VIRGINIA,UNION,5424983
8400,48103,-81.1995,37.4366,WEST VIRGINIA,MATOAKA,5424733
52156,312750,-77.8858,39.3881,WEST VIRGINIA,KEARNEYSVILLE,5425430
52156,312749,-78.0161,39.402,WEST VIRGINIA,TABLERS,5425428
52156,312748,-78.0078,39.3975,WEST VIRGINIA,TABLERS,5425405
17932,107075,-78.59,39.18,WEST VIRGINIA,WARDENSVILLE,5426711
52156,312747,-79.2758,38.57,WEST VIRGINIA,DAHMER,5426802
17932,107074,-79.17,39.07,WEST VIRGINIA,ARTHUR,5426833
52156,312745,-78.8114,39.5436,WEST VIRGINIA,SHORT GAP,5426753
52156,312743,-78.7971,39.5634,WEST VIRGINIA,SHORT GAP,5426753
52156,312741,-78.8109,39.5439,WEST VIRGINIA,SHORT GAP,5426753
52156,312740,-78.7414,39.6284,WEST VIRGINIA,MARYLAND JCT,
48172,281256,-80.78,39.3,WEST VIRGINIA,WEST UNION,5426456
48172,281257,-80.78,39.3,WEST VIRGINIA,WEST UNION,5426456
48172,281258,-80.78,39.3,WEST VIRGINIA,WEST UNION,5426456
48172,281259,-80.03,39.15,WEST VIRGINIA,PHILIPPI,5426416
48172,281260,-80.2613,38.8522,WEST VIRGINIA,ROCK CAVE,5426218
48172,281261,-80.55,38.42,WEST VIRGINIA,COWEN,5426206
48172,281262,-81.13,38.78,WEST VIRGINIA,ARNOLDSBURG,5425234
52145,310896,-79.3184,38.7178,WEST VIRGINIA,RUDDLE,5426807
52156,312746,-78.8949,38.9376,WEST VIRGINIA,HOLLY HILL CHURCH,5426812
1205232,5495075,-82.28333,37.68333,WEST VIRGINIA,WILLIAMSON,5425661
1137203,5301573,-80.85,38.2,WEST VIRGINIA,MT NEBO,5426679
47946,279827,-81.8,37.57,WEST VIRGINIA,HANOVER,5424839
78292,471225,-79.3282,38.6695,WEST VIRGINIA,FRANKLIN,5426807
120030,719302,-78.2897,39.4951,WEST VIRGINIA,OMPS,5425411
1206997,5497224,-81.85,38.33333,WEST VIRGINIA,TORNADO,5425202
1206997,5497223,-81.91667,38.41667,WEST VIRGINIA,SCOTT DEPOT,5425560
1206994,5497218,-80.86667,38.63333,WEST VIRGINIA,FRAMETOWN,5426623
61111,365391,-79.97,38.9,WEST VIRGINIA,COALTON,5426257
1095658,5145952,-80.65,37.73333,WEST VIRGINIA,ALDERSON,5424910
1211427,5508417,-80.71667,37.85,WEST VIRGINIA,DAWSON,5425976
1211427,5508418,-80.68333,37.95,WEST VIRGINIA,RUPERT,5425984
1211427,5508419,-80.5,37.61667,WEST VIRGINIA,HILLSDALE,5424976
106791,641083,-79.47,39.04,WEST VIRGINIA,BUENA,5426260
1206994,5497217,-80.95,38.51667,WEST VIRGINIA,HARRISON,5425063
5804,34022,-80.2612,37.7493,WEST VIRGINIA,WHITE SULPHUR SPGS,5424986
5804,34023,-81.1,37.48,WEST VIRGINIA,CAMP CREEK,5425922
5805,34024,-81.22,37.33,WEST VIRGINIA,SANDLICK,5424701
5805,34025,-80.37,37.98,WEST VIRGINIA,RENICK,5424966
1206994,5497216,-80.96667,38.45,WEST VIRGINIA,CRESSMONT,5425043
1206994,5497215,-81.0,38.26667,WEST VIRGINIA,DRENNEN,5426651
1206994,5497214,-81.16667,37.88333,WEST VIRGINIA,MT HOPE,5425880
1206994,5497213,-81.16667,37.88333,WEST VIRGINIA,MT HOPE,5425880
65335,391297,-80.14,39.48,WEST VIRGINIA,FAIRMONT,5426554
1217943,5525717,-81.91667,38.45,WEST VIRGINIA,SCOTT DEPOT,5425560
1217943,5525722,-81.48333000000001,38.41667,WEST VIRGINIA,CHARLESTON,5425071
1177941,5417751,-79.85,39.61667,WEST VIRGINIA,MORGANTOWN,5426508
119760,718192,-80.66,40.16,WEST VIRGINIA,WILSON,5426003
106791,641084,-79.4,39.05,WEST VIRGINIA,CORTLAND,5426260
1177943,5417753,-79.66667,39.65,WEST VIRGINIA,BRUCETON MILLS,5426525
1206997,5497225,-81.83333,38.38333,WEST VIRGINIA,ST ALBANS,5425177
1170891,5399410,-79.85,39.38333,WEST VIRGINIA,NEWBURG,5426410
85555,516775,-80.65,40.05,WEST VIRGINIA,ELM GROVE,5426003
1170845,5400404,-80.68333,40.05,WEST VIRGINIA,BETHLEHEM,5426003
1170640,5397872,-81.63333,37.68333,WEST VIRGINIA,OCEANA,5424870
106788,641067,-80.0688,39.6497,WEST VIRGINIA,CASSVILLE,5426501
106788,641067,-80.0719,39.6498,WEST VIRGINIA,CASSVILLE,5426501
1134438,5291065,-81.05,38.96667,WEST VIRGINIA,FIVE FORKS,5426136
1134438,5291066,-80.9,38.88333,WEST VIRGINIA,LETTER GAP,5425267
1134438,5291067,-80.65,38.85,WEST VIRGINIA,BURNSVILLE,5426335
1134447,5291323,-81.1,38.05,WEST VIRGINIA,FAYETTEVILLE,5425840
1134450,5291419,-81.75,38.95,WEST VIRGINIA,RAVENSWOOD,5426164
1170640,5397873,-81.23333000000001,37.73333,WEST VIRGINIA,CRAB ORCHARD,5425827
1170640,5397876,-81.71667,37.78333,WEST VIRGINIA,LORADO,5425630
1170640,5397878,-81.33333,37.68333,WEST VIRGINIA,SLAB FORK,5425920
1170640,5397883,-81.81667,37.95,WEST VIRGINIA,OTTAWA,5425149
1170640,5397885,-81.33333,37.68333,WEST VIRGINIA,SLAB FORK,5425920
1177973,5418238,-80.63333,40.53333,WEST VIRGINIA,NEW CUMBERLAND,
55947,335436,-80.78,39.3,WEST VIRGINIA,WEST UNION,5426456
55947,335440,-80.45,39.03,WEST VIRGINIA,WESTON,5426452
55947,335442,-80.45,39.03,WEST VIRGINIA,WESTON,5426452
55947,335445,-80.4,39.12,WEST VIRGINIA,JANE LEW,5426378
85553,516759,-79.8,39.51,WEST VIRGINIA,REEDSVILLE,5426547
69280,415739,-79.79,39.25,WEST VIRGINIA,SINCLAIR,5426425
94885,570343,-82.3832,38.1445,WEST VIRGINIA,STILTNER,5425512
55947,335449,-80.65,39.03,WEST VIRGINIA,ALUM BRIDGE,5426321
55947,335469,-80.47,39.32,WEST VIRGINIA,MARSHVILLE,5426426
1135686,5299469,-79.85,39.38333,WEST VIRGINIA,NEWBURG,5426410
85553,516760,-79.64,39.29,WEST VIRGINIA,ERWIN,5426705
1190723,5451929,-77.98333000000001,39.35,WEST VIRGINIA,MARTINSBURG ARPT,5425428
1170749,5398062,-80.6,40.5,WEST VIRGINIA,NEW CUMBERLAND,5426047
1170797,5398341,-80.58333,40.4,WEST VIRGINIA,WEIRTON,5426062
1206997,5497226,-81.71667,38.33333,WEST VIRGINIA,RUTH,5425309
1137203,5301572,-80.76666999999999,38.66667,WEST VIRGINIA,GASSAWAY,5426601
1177982,5418247,-80.58333,40.33333,WEST VIRGINIA,FOLLANSBEE,5426037
52379,312898,-80.7684,37.628,WEST VIRGINIA,BARGERS SPGS,5425951
1188011,5448486,-80.78333,37.96667,WEST VIRGINIA,RAINELLE,5425962
45663,264988,-80.3,39.4,WEST VIRGINIA,SHINNSTON,5426431
1114993,5244954,-80.45,39.03333,WEST VIRGINIA,WESTON,5426452
1115002,5245055,-81.35,38.8,WEST VIRGINIA,SPENCER,5425276
1115005,5245463,-81.18333,38.58333,WEST VIRGINIA,SOUTHSIDE,5425266
1115005,5245464,-80.55,38.41667,WEST VIRGINIA,POINT PLEASANT,5426206
1115005,5245465,-80.1,38.21667,WEST VIRGINIA,POINT PLEASANT,5424954
1115006,5245304,-82.18333,37.71667,WEST VIRGINIA,DELBARTON,5425670
1115009,5245140,-81.6,39.11667,WEST VIRGINIA,WADEVILLE,5426133
107753,645703,-78.62,39.45,WEST VIRGINIA,POINTS,5426763
107753,645713,-78.02,39.47,WEST VIRGINIA,NOLLVILLE,5425403
1137184,5301371,-81.1,37.36667,WEST VIRGINIA,PRINCETON,5424740
107753,645714,-77.94,39.46,WEST VIRGINIA,BLAIRTON,5425404
1217943,5525723,-80.85,38.28333,WEST VIRGINIA,SUMMERSVILLE,5426651
1206994,5497212,-81.18333,37.78333,WEST VIRGINIA,BECKLEY,5425801
1206993,5497211,-81.13333,38.71667,WEST VIRGINIA,MILO,5425268
1206993,5497210,-81.36667,38.81667,WEST VIRGINIA,SPENCER,5425276
1137194,5301473,-82.28333,37.68333,WEST VIRGINIA,WILLIAMSON,5425661
1137201,5301565,-81.55,39.26667,WEST VIRGINIA,PARKERSBURG,5426101
1137201,5301567,-80.96667,39.28333,WEST VIRGINIA,PENNSBORO,5426415
1137203,5301571,-80.86667,38.63333,WEST VIRGINIA,FRAMETOWN,5426623
22069,131980,-77.99,39.28,WEST VIRGINIA,MIDDLEWAY,5425430
22073,132003,-77.78,39.23,WEST VIRGINIA,MANNINGS,5425425
22073,132004,-78.0,39.54,WEST VIRGINIA,HEDGESVILLE,5425427
22073,132005,-77.74,39.33,WEST VIRGINIA,HARPERS FERRY,
22073,132006,-77.75,39.32,WEST VIRGINIA,BOLIVAR,5425425
47946,279826,-81.63,37.68,WEST VIRGINIA,OCEANA,5424870
1188011,5448487,-80.41667,37.98333,WEST VIRGINIA,RENICK,5424966
1201157,5481816,-82.11667,38.85,WEST VIRGINIA,POINT PLEASANT,5425550
1217943,5525722,-81.66667,38.36667,WEST VIRGINIA,CHARLESTON,5425312
33146,193111,-81.4832,38.4348,WEST VIRGINIA,JARRETTS FORD,5425071
52379,312889,-80.21,37.96,WEST VIRGINIA,SUE,5424986
52379,312883,-80.45,37.8,WEST VIRGINIA,LEWISBURG,5424901
52379,312871,-80.72,37.69,WEST VIRGINIA,PENCE SPGS HINTON AR,5424910
52379,312870,-80.65,37.73,WEST VIRGINIA,ALDERSON,5424910
52379,312863,-80.65,37.68,WEST VIRGINIA,WOLF CREEK,5424910
119375,717645,-78.0356,39.561,WEST VIRGINIA,JOHNSTOWN,5425427
119375,717644,-78.2224,39.6116,WEST VIRGINIA,BERKELEY SPGS,5425411
52379,312862,-80.66,37.63,WEST VIRGINIA,CREAMERY,5424910
52379,312861,-80.35,37.99,WEST VIRGINIA,RENICK,5424966
52379,312860,-80.85,37.63,WEST VIRGINIA,BELLEPOINT,5425951
52379,312856,-80.82,37.57,WEST VIRGINIA,FOREST HILL,5424935
52379,312853,-80.82,37.53,WEST VIRGINIA,INDIAN MILLS,5424935
52379,312852,-80.67,37.99,WEST VIRGINIA,KESSLER,5425984
1178019,5418487,-80.11667,39.53333,WEST VIRGINIA,RIVESVILLE,5426588
52379,312846,-80.73,37.62,WEST VIRGINIA,BALLENGEE,5424981
107444,644093,-79.12,38.99,WEST VIRGINIA,PETERSBURG,5426847
107444,644094,-79.13,39.0,WEST VIRGINIA,PETERSBURG,5426847
107444,644095,-79.13,39.0,WEST VIRGINIA,PETERSBURG,5426847
107444,644099,-78.91,38.93,WEST VIRGINIA,HOLLY HILL CHURCH,5426812
1166877,5387288,-81.71667,37.78333,WEST VIRGINIA,MABSCOTT,5425630
1166877,5387287,-81.1,37.75,WEST VIRGINIA,DANIELS,5425832
1166877,5387286,-81.36667,37.56667,WEST VIRGINIA,CORINNE,5425882
1166877,5387285,-81.58333,37.43333,WEST VIRGINIA,WELCH,5424801
128450,770853,-79.875,39.543,WEST VIRGINIA,BURNS CHAPEL,5426508
128450,770853,-79.872,39.541,WEST VIRGINIA,BURNS CHAPEL,5426508
107534,644479,-78.23,39.63,WEST VIRGINIA,BERKELEY SPGS,5425411
107534,644480,-77.86,39.29,WEST VIRGINIA,CHARLES TOWN,5425414
1165975,5386226,-79.93333,39.03333,WEST VIRGINIA,BELINGTON,5426250
52379,312837,-80.81,37.57,WEST VIRGINIA,FOREST HILL,5424935
19936,118697,-80.7808,37.7297,WEST VIRGINIA,JUDSON,5425951
57593,346802,-80.06,39.47,WEST VIRGINIA,HOPEWELL,5426554
40739,237156,-81.83,38.08,WEST VIRGINIA,DANVILLE,5425053
5596,32713,-81.1,37.7,WEST VIRGINIA,SHADY SPG,5425918
5596,32712,-81.22,37.68,WEST VIRGINIA,COAL CITY,5425823
5307,31025,-78.75,39.35,WEST VIRGINIA,ROMNEY,5426757
5307,31025,-78.75,39.35,WEST VIRGINIA,ROMNEY,5426757
5592,32705,-80.53,38.23,WEST VIRGINIA,RICHWOOD,5426261
5592,32702,-81.1,37.7,WEST VIRGINIA,SHADY SPG,5425918
5589,32687,-81.1,37.37,WEST VIRGINIA,PRINCETON,5424740
1095668,5147970,-81.1,37.36667,WEST VIRGINIA,PRINCETON,5424740
64025,383448,-77.8086,39.4513,WEST VIRGINIA,SHEPHERDSTOWN,5425443
64034,383471,-78.0676,39.4123,WEST VIRGINIA,UNION CORNER,5425403
125991,755301,-81.65,38.35,WEST VIRGINIA,ELK,5425303
1215044,5521107,-79.5,39.65,WEST VIRGINIA,BRUCETON MILLS,5426525
1215043,5521106,-79.68333,39.46667,WEST VIRGINIA,KINGWOOD,5426537
5579,32650,-80.8452,37.67,WEST VIRGINIA,HINTON,5425951
93668,562856,-81.22,37.68,WEST VIRGINIA,COAL CITY,5425823
93668,562828,-81.1,37.7,WEST VIRGINIA,SHADY SPG,5425918
93668,562827,-81.55,37.62,WEST VIRGINIA,ROCKVIEW,5424818
93668,562826,-81.58,37.67,WEST VIRGINIA,JESSE,5424849
5579,32649,-80.7,38.07,WEST VIRGINIA,QUINWOOD,5425981
25973,151803,-79.85,38.92,WEST VIRGINIA,ELKINS,5426241
1215042,5521105,-79.63333,39.65,WEST VIRGINIA,BRUCETON MILLS,5426525
64034,383472,-78.0729,39.4113,WEST VIRGINIA,UNION CORNER,5425403
1096804,5150089,-80.45,39.03333,WEST VIRGINIA,WESTON,5426452
113537,679672,-82.44,38.39,WEST VIRGINIA,HODGES,5425701
113537,679674,-82.43,38.41,WEST VIRGINIA,HUNTINGTON,5425701
1096804,5149190,-80.23333000000001,39.0,WEST VIRGINIA,BUCKHANNON,5426201
73664,446050,-80.48,39.4,WEST VIRGINIA,WALLACE,5426448
5596,32714,-81.13,37.73,WEST VIRGINIA,DANIELS,5425832
5598,32716,-80.03,39.35,WEST VIRGINIA,GRAFTON,5426354
5598,32719,-80.38,38.65,WEST VIRGINIA,HACKER VLY,5426222
5598,32722,-81.9393,38.88,WEST VIRGINIA,LETART,5425253
5623,32875,-80.17,39.27,WEST VIRGINIA,ROSEMONT,5426424
5623,32872,-80.35,39.28,WEST VIRGINIA,CLARKSBURG,5426301
5623,32870,-80.25,39.28,WEST VIRGINIA,BRIDGEPORT,5426330
51921,309409,-81.2599,39.3786,WEST VIRGINIA,BELLMONT,5426134
112682,673134,-81.09,38.92,WEST VIRGINIA,GRANTSVILLE,5426147
1141979,5313642,-80.4,38.08333,WEST VIRGINIA,LEONARD,5424966
113113,676533,-81.2,38.17,WEST VIRGINIA,GAULEY BRIDGE,5425085
113150,676732,-81.37,37.83,WEST VIRGINIA,STOVER,5425044
113150,676733,-81.19,37.85,WEST VIRGINIA,OSWALD,5425880
113150,676734,-81.2,37.86,WEST VIRGINIA,BRADLEY,5425880
113150,677200,-81.32,38.09,WEST VIRGINIA,ELKRIDGE JCT,5425161
1141721,5314655,-78.98333000000001,39.41667,WEST VIRGINIA,NORTH PORTION,5426726
73455,444148,-80.66,40.17,WEST VIRGINIA,(HLG)OHIO CO ARPT WH,5426003
73664,446053,-81.7668,38.9543,WEST VIRGINIA,RAVENSWOOD,5426164
8286,47601,-77.73,39.33,WEST VIRGINIA,HARPERS FERRY,
6661,38735,-81.55,39.27,WEST VIRGINIA,PARKERSBURG,5426101
1118121,5254594,-78.75,39.35,WEST VIRGINIA,ROMNEY,5426757
1118120,5254591,-78.23333000000001,39.63333,WEST VIRGINIA,BERKELEY SPGS,5425411
6661,38736,-81.15,39.08,WEST VIRGINIA,BEATRICE,5426148
6661,38737,-80.65,38.72,WEST VIRGINIA,FLATWOODS,5426621
6661,38739,-81.88,38.53,WEST VIRGINIA,WINFIELD,5425213
6661,38741,-81.63,38.53,WEST VIRGINIA,SISSONVILLE,5425320
6661,38743,-80.87,38.63,WEST VIRGINIA,FRAMETOWN,5426623
6663,38747,-80.23,39.0,WEST VIRGINIA,BUCKHANNON,5426201
6663,38748,-80.23,39.0,WEST VIRGINIA,BUCKHANNON,5426201
6663,38750,-79.82,39.07,WEST VIRGINIA,MONTROSE,5426283
5623,32869,-80.88,39.53,WEST VIRGINIA,KIDWELL,5426149
5598,32722,-81.9202,38.8723,WEST VIRGINIA,LETART,5425253
73457,444167,-80.7,40.08,WEST VIRGINIA,WHEELING,5426003
57593,346801,-80.14,39.48,WEST VIRGINIA,FAIRMONT,5426554
1160489,5368664,-78.81667,39.55,WEST VIRGINIA,SHORT GAP,5426753
1160489,5368660,-79.01666999999999,39.31667,WEST VIRGINIA,ANTIOCH,5426743
1205234,5495386,-80.35,39.16667,WEST VIRGINIA,LOST CREEK,5426385
1205234,5495385,-81.2,37.58333,WEST VIRGINIA,ODD,5425857
1205234,5495384,-80.88333,38.11667,WEST VIRGINIA,NALLEN,5426680
1205234,5495383,-81.0,38.11667,WEST VIRGINIA,HICO,5425854
1205234,5495382,-80.35,39.21667,WEST VIRGINIA,MT CLARE,5426408
1205234,5495381,-80.3,39.4,WEST VIRGINIA,SHINNSTON,5426431
1205234,5495380,-80.35,39.16667,WEST VIRGINIA,LOST CREEK,5426385
1205234,5495379,-80.35,39.28333,WEST VIRGINIA,CLARKSBURG,5426301
1205234,5495378,-81.63333,37.68333,WEST VIRGINIA,OCEANA,5424870
1159976,5368770,-79.95,39.61667,WEST VIRGINIA,MORGANTOWN,5426501
1159941,5369320,-80.55,40.61667,WEST VIRGINIA,CHESTER,5426034
1205234,5495377,-81.83333,37.76667,WEST VIRGINIA,ACCOVILLE,5425606
1205234,5495376,-81.48333000000001,39.36667,WEST VIRGINIA,BOAZ,5426187
1205234,5495375,-81.0,38.11667,WEST VIRGINIA,HICO,5425854
1205234,5495374,-81.2,39.38333,WEST VIRGINIA,ST MARYS,5426170
1205234,5495373,-80.63333,39.4,WEST VIRGINIA,CENTER PT,5426339
1205234,5495372,-82.53333,38.01667,WEST VIRGINIA,GLENHAYES,
1205232,5495168,-81.16667,37.88333,WEST VIRGINIA,MT HOPE,5425880
1205232,5495167,-81.13333,37.75,WEST VIRGINIA,BEAVER,5425813
1205232,5495086,-81.08333,37.81667,WEST VIRGINIA,GRANDVIEW,5425813
1205232,5495085,-81.18333,37.78333,WEST VIRGINIA,BECKLEY,5425801
1205232,5495083,-80.98333000000001,37.86667,WEST VIRGINIA,LAWTON,5425864
1205232,5495083,-80.9,37.91667,WEST VIRGINIA,LAWTON,5425831
1205232,5495082,-81.18333,37.78333,WEST VIRGINIA,BECKLEY,5425801
1205232,5495079,-81.75,38.13333,WEST VIRGINIA,RIDGEVIEW,5425169
1205232,5495078,-82.06667,37.83333,WEST VIRGINIA,HOLDEN,5425625
1205232,5495077,-82.13333,38.03333,WEST VIRGINIA,HARTS,5425524
1205234,5495387,-81.81667,38.86667,WEST VIRGINIA,COTTAGEVILLE,5425239
1159986,5368780,-79.55,39.31667,WEST VIRGINIA,AURORA,5426705
1160021,5334858,-81.48333000000001,38.45,WEST VIRGINIA,ELKVIEW,5425071
1160021,5334861,-81.18333,38.58333,WEST VIRGINIA,NEWTON,5425266
1160489,5368659,-79.0,39.05,WEST VIRGINIA,FISHER,5426818
1160489,5368657,-79.2,39.13333,WEST VIRGINIA,COUNTYWIDE,5426833
1160489,5368655,-79.28333,38.78333,WEST VIRGINIA,UPPER TRACK,5426866
1160487,5368652,-77.9,39.21667,WEST VIRGINIA,SUMMIT PT,5425414
1160487,5368652,-77.78333,39.25,WEST VIRGINIA,SUMMIT PT,5425425
1096804,5149188,-81.9,37.93333,WEST VIRGINIA,LAKE,5425121
1096800,5150076,-81.48333000000001,38.41667,WEST VIRGINIA,PINCH,5425071
1096800,5149803,-81.8,38.58333,WEST VIRGINIA,PARADISE,5425168
77222,466400,-80.72,37.45,WEST VIRGINIA,ORCHARD,5424963
64034,383475,-78.0729,39.4032,WEST VIRGINIA,UNION CORNER,5425403
64034,383476,-77.9545,39.5854,WEST VIRGINIA,NORTH MTN,5425427
64034,383477,-77.9545,39.5854,WEST VIRGINIA,NORTH MTN,5425427
64052,383565,-77.9117,39.406,WEST VIRGINIA,VANCLEVESVILLE,5425430
1160489,5368661,-78.98333000000001,39.4,WEST VIRGINIA,KEYSER,5426726
16071,93455,-78.38,39.38,WEST VIRGINIA,BLOOMER,5426817
77184,466075,-80.57,40.44,WEST VIRGINIA,KINGS CREEK,5426062
1205239,5495397,-82.46667,38.41667,WEST VIRGINIA,HUNTINGTON,5425701
1205239,5495396,-81.63333,38.35,WEST VIRGINIA,CHARLESTON,5425301
1160033,5334648,-80.45,39.03333,WEST VIRGINIA,WESTON,5426452
1160021,5334867,-82.0,37.85,WEST VIRGINIA,LOGAN,5425601
1160021,5334866,-80.21667,38.81667,WEST VIRGINIA,ALTON,5426218
1160021,5334864,-80.65,38.68333,WEST VIRGINIA,SUTTON ARPT,5426601
1205239,5495394,-82.58333,38.41667,WEST VIRGINIA,KENOVA,
1205238,5495393,-81.86667,37.61667,WEST VIRGINIA,GILBERT,5425621
1205235,5495390,-80.38333,38.65,WEST VIRGINIA,HACKER VLY,5426222
1205234,5495388,-80.68333,38.21667,WEST VIRGINIA,NETTIE,5426681
1160021,5334863,-81.2,38.48333,WEST VIRGINIA,PROCIOUS,5425164
1160021,5334862,-81.11667,38.48333,WEST VIRGINIA,MAYSEL,5425043
93471,561183,-79.85,38.92,WEST VIRGINIA,ELKINS,5426241
5637,32981,-80.38,37.92,WEST VIRGINIA,FRANKFORD,5424938
5637,32976,-80.9,37.67,WEST VIRGINIA,HINTON,5425951
1200404,5480888,-81.98333000000001,38.61667,WEST VIRGINIA,BUFFALO,5425033
32165,188523,-81.13,37.75,WEST VIRGINIA,BEAVER,5425813
32165,188519,-81.82,37.32,WEST VIRGINIA,JOLO,5424850
48174,281327,-81.57,38.47,WEST VIRGINIA,FALLING ROCK,5425312
48174,281338,-80.85,38.28,WEST VIRGINIA,SUMMERSVILLE,5426651
48174,281341,-80.03,39.35,WEST VIRGINIA,GRAFTON,5426354
48174,281343,-80.03,39.35,WEST VIRGINIA,GRAFTON,5426354
48174,281344,-80.03,39.35,WEST VIRGINIA,GRAFTON,5426354
48174,281350,-80.85,38.28,WEST VIRGINIA,SUMMERSVILLE,5426651
48174,281355,-80.517,38.2198,WEST VIRGINIA,RICHWOOD,5426261
48174,281356,-81.2,37.58,WEST VIRGINIA,ODD,5425857
48174,281357,-81.12,37.62,WEST VIRGINIA,GHENT,5425843
48174,281361,-81.25,37.72,WEST VIRGINIA,MIDWAY,5425878
48174,281362,-81.17,37.88,WEST VIRGINIA,MT HOPE,5425880
48174,281364,-81.42,37.75,WEST VIRGINIA,BOLT,5425817
32165,188498,-81.82,37.32,WEST VIRGINIA,JOLO,5424850
31915,187307,-78.95,39.13,WEST VIRGINIA,OLDFIELDS,5426845
110493,659996,-80.94,39.61,WEST VIRGINIA,PADEN CITY,5426155
110493,659997,-80.86,39.64,WEST VIRGINIA,NEW MARTINSVILLE,5426155
17729,102627,-79.47,39.13,WEST VIRGINIA,DAVIS,5426260
17729,102625,-79.95,39.64,WEST VIRGINIA,FIELDCREST,5426505
31915,187305,-79.35,38.64,WEST VIRGINIA,FRANKLIN,5426807
31915,187300,-79.36,38.69,WEST VIRGINIA,FRANKLIN,5426807
31915,187297,-79.44,38.74,WEST VIRGINIA,HARPER MILL,5426814
31908,187280,-77.92,39.59,WEST VIRGINIA,MARLOWE,5425419
57593,346800,-80.06,39.47,WEST VIRGINIA,HOPEWELL,5426554
1200404,5480887,-81.95,38.75,WEST VIRGINIA,LEON,5425123
28031,164424,-81.7,37.98,WEST VIRGINIA,GORDON,5425093
48174,281325,-81.48,38.42,WEST VIRGINIA,PINCH,5425071
48174,281323,-81.52,38.32,WEST VIRGINIA,COAL FORK,5425306
48174,281322,-82.18,38.2,WEST VIRGINIA,HUBBALL,5425506
48174,281321,-80.5,38.42,WEST VIRGINIA,UPPERGLADE,5426266
109821,656845,-80.35,39.16,WEST VIRGINIA,LOST CREEK,5426385
109821,656846,-80.3399,39.1708,WEST VIRGINIA,LOST CREEK,5426385
109821,656847,-80.16,39.29,WEST VIRGINIA,ROSEMONT,5426347
1193503,5461293,-80.45,37.8,WEST VIRGINIA,LEWISBURG,5424901
32198,188659,-81.17,37.88,WEST VIRGINIA,MT HOPE,5425880
32198,188658,-81.17,37.88,WEST VIRGINIA,MT HOPE,5425880
32198,188657,-80.9021,38.1591,WEST VIRGINIA,MT NEBO,5426678
32198,188653,-81.6985,38.3344,WEST VIRGINIA,RUTH,5425314
32198,188652,-81.7149,38.3201,WEST VIRGINIA,RUTH,5425309
32198,188651,-81.48,38.45,WEST VIRGINIA,ELKVIEW,5425071
32198,188650,-81.75,38.42,WEST VIRGINIA,FAIRVIEW,5425313
32198,188649,-81.63,38.35,WEST VIRGINIA,CHARLESTON,5425301
32198,188648,-81.63,38.53,WEST VIRGINIA,SISSONVILLE,5425320
1200404,5480889,-81.48333000000001,38.41667,WEST VIRGINIA,PINCH,5425071
32198,188647,-81.83,38.42,WEST VIRGINIA,NITRO,5425143
32198,188644,-81.88,38.53,WEST VIRGINIA,WINFIELD,5425213
32193,188635,-81.15,38.02,WEST VIRGINIA,LOCHGELLY,5425840
32192,188628,-80.2096,39.3829,WEST VIRGINIA,ADAMSVILLE,5426431
48174,281294,-81.55,39.27,WEST VIRGINIA,PARKERSBURG,5426101
48174,281297,-81.55,39.27,WEST VIRGINIA,PARKERSBURG,5426101
117399,710802,-80.14,39.49,WEST VIRGINIA,CHESAPEAKE,5426554
117399,710801,-80.55,39.78,WEST VIRGINIA,WOODRUFF,5426033
48174,281298,-81.67,39.27,WEST VIRGINIA,WASHINGTON,5426181
48174,281301,-81.6346,39.2599,WEST VIRGINIA,BLENNERHASSETT,5426181
48174,281307,-80.2438,39.4,WEST VIRGINIA,SHINNSTON,5426554
48174,281309,-80.25,39.28,WEST VIRGINIA,BRIDGEPORT,5426330
48174,281315,-81.1,38.05,WEST VIRGINIA,FAYETTEVILLE,5425840
48174,281316,-82.1649,38.3029,WEST VIRGINIA,WEST HAMLIN,5425571
32198,188645,-82.03,38.43,WEST VIRGINIA,HURRICANE,5425526
31776,186602,-80.68,40.08,WEST VIRGINIA,BETHLEHEM,5426003
52015,309995,-82.43,38.02,WEST VIRGINIA,DUNLOW,5425511
28031,164422,-82.5842,38.3987,WEST VIRGINIA,KOMOVA,5425530
56334,337885,-82.3824,38.3985,WEST VIRGINIA,GUYANDOTTE,5425705
3212,17651,-80.3,38.88,WEST VIRGINIA,FRENCH CREEK,5426218
3212,17649,-80.33,38.83,WEST VIRGINIA,ROCK CAVE,5426234
3212,17648,-81.35,38.8,WEST VIRGINIA,SPENCER,5425276
3212,17646,-81.13,38.78,WEST VIRGINIA,ARNOLDSBURG,5425234
3212,17644,-81.98,38.62,WEST VIRGINIA,BUFFALO,5425033
3212,17642,-81.48,38.42,WEST VIRGINIA,PINCH,5425071
3212,17641,-81.73,38.37,WEST VIRGINIA,DUNBAR,5425064
3212,17640,-81.98,38.23,WEST VIRGINIA,GRIFFITHSVILLE,5425521
56334,337887,-82.3069,38.4244,WEST VIRGINIA,GUYAN ESTATES,5425705
110641,660816,-80.57,39.88,WEST VIRGINIA,BEELERS STATION,5426033
110641,660817,-80.6,39.9,WEST VIRGINIA,WOLF RUN,5426033
110641,660818,-80.59,39.91,WEST VIRGINIA,WOLF RUN,5426033
5182,30407,-78.55,39.48,WEST VIRGINIA,LEVELS,5425434
110641,660819,-80.56,39.95,WEST VIRGINIA,CALIS,5426033
110641,660821,-80.53,40.02,WEST VIRGINIA,DALLAS,5426003
17665,102118,-79.43,38.97,WEST VIRGINIA,CANAAN CROSSING,5426263
6626,38680,-82.12,38.85,WEST VIRGINIA,POINT PLEASANT,5425550
6626,38681,-81.37,38.2,WEST VIRGINIA,HUGHESTON,5425126
51954,309475,-80.25,39.28,WEST VIRGINIA,BRIDGEPORT,5426330
6626,38682,-81.37,38.27,WEST VIRGINIA,MAMMOTH,5425132
6626,38693,-81.63,38.35,WEST VIRGINIA,CHARLESTON,5425301
6626,38712,-81.48,38.45,WEST VIRGINIA,ELKVIEW,5425071
6626,38723,-81.73,37.6,WEST VIRGINIA,SIMON,5424839
116850,703068,-81.54,39.29,WEST VIRGINIA,STEWART ARPT,5426104
116850,703066,-81.54,39.28,WEST VIRGINIA,PARKERSBURG,5426101
6626,38724,-81.73,37.6,WEST VIRGINIA,SIMON,5424839
6626,38729,-80.55,38.42,WEST VIRGINIA,COWEN,5426206
110641,660820,-80.57,40.07,WEST VIRGINIA,VALLEY GROVE,5426060
1193824,5464442,-79.91667,39.55,WEST VIRGINIA,MORGANTOWN,5426508
1193779,5464377,-80.26666999999999,39.51667,WEST VIRGINIA,MANNINGTON,5426582
1193715,5461664,-80.65,38.33333,WEST VIRGINIA,CRAIGSVILLE,5426205
128151,768567,-80.5286,37.6205,WEST VIRGINIA,PICKAWAY,5424983
1217007,5522475,-80.68333,37.95,WEST VIRGINIA,RUPERT,5425984
1217007,5522473,-80.7,37.95,WEST VIRGINIA,RUPERT,5425962
1217007,5522472,-81.31667,37.31667,WEST VIRGINIA,BRAMWELL,5424715
1217007,5522471,-80.58333,37.86667,WEST VIRGINIA,RUPERT,5424916
40104,233287,-78.8861,38.8624,WEST VIRGINIA,LOST CITY,5426812
40104,233286,-79.2431,38.6275,WEST VIRGINIA,BRANDYWINE,5426802
1216999,5522384,-81.21667,37.28333,WEST VIRGINIA,BLUEFIELD,5424701
28031,164421,-82.55,38.37,WEST VIRGINIA,(HTS)TRI ST ARPT HNT,5425704
28031,164420,-82.45,38.32,WEST VIRGINIA,LAVALETTE,5425535
28031,164417,-82.4043,38.3998,WEST VIRGINIA,GUYANDOTTE,5425705
51995,309828,-81.63,38.35,WEST VIRGINIA,CHARLESTON,5425301
28031,164416,-82.4593,38.4076,WEST VIRGINIA,HUNTINGTON,5425701
31776,186601,-80.7,40.08,WEST VIRGINIA,WHEELING,5426003
28031,164415,-82.4524,38.4087,WEST VIRGINIA,HUNTINGTON,5425701
28031,164413,-82.28,38.42,WEST VIRGINIA,BARBOURSVILLE,5425504
28031,164412,-81.6,38.22,WEST VIRGINIA,HERNSHAW,5425107
28031,164411,-82.1,38.28,WEST VIRGINIA,HAMLIN,5425523
97272,584927,-80.03,39.15,WEST VIRGINIA,PHILIPPI,5426416
51995,309827,-81.7188,38.3131,WEST VIRGINIA,RUTH,5425309
51995,309821,-82.2,38.28,WEST VIRGINIA,WEST HAMLIN,5425506
51995,309808,-82.58,38.4,WEST VIRGINIA,KENOVA,5425530
51990,309755,-81.5369,38.8898,WEST VIRGINIA,LE ROY,5425275
1193699,5460775,-81.81667,37.45,WEST VIRGINIA,IAEGER,5424844
1193713,5461249,-81.16667,38.33333,WEST VIRGINIA,VAN,5425125
1193713,5461323,-81.65,38.68333,WEST VIRGINIA,HURRICANE,5425271
1193713,5461658,-82.28333,37.68333,WEST VIRGINIA,RIPLEY,5425661
28031,164414,-82.4363,38.4138,WEST VIRGINIA,HUNTINGTON,5425701
65232,394865,-80.35,39.28,WEST VIRGINIA,CLARKSBURG,5426301
