EPISODE_ID,EVENT_ID,LONGITUDE,LATITUDE,STATE,LOCATION,ZIPCODE
97900,588981,-105.022,42.0722,WYOMING,WHEATLAND,5682201
1136513,5297429,-104.4,43.96667,WYOMING,OSAGE,5682723
97731,587701,-104.2127,42.934,WYOMING,LUSK,5682225
1136513,5297426,-104.55,44.16667,WYOMING,UPTON,5682730
1136513,5297425,-104.63333,44.11667,WYOMING,UPTON,5682730
1119712,5259669,-106.3,43.7,WYOMING,SUSSEX,5682639
97732,587702,-104.75,43.27,WYOMING,WEST LANCE CREEK,5682222
1119720,5259678,-110.11667,41.76667,WYOMING,OPAL,5683124
97900,588980,-104.95,42.3539,WYOMING,WHEATLAND,5682213
97731,587699,-104.62,42.78,WYOMING,MANVILLE,5682227
1119718,5259675,-109.35,41.58333,WYOMING,ROCK SPGS,
1219089,5530297,-104.4167,43.7,WYOMING,NEWCASTLE,5682701
1219090,5530298,-104.85,44.68333,WYOMING,HULETT,5682721
1219090,5530299,-104.5667,44.78333,WYOMING,ALVA,5682720
1136525,5297540,-104.2,44.91667,WYOMING,COLONY,5657717
97900,588984,-105.06700000000001,42.05,WYOMING,WHEATLAND,5682201
1136523,5297530,-105.48333000000001,44.28333,WYOMING,GILLETTE,5682716
1136523,5297529,-104.86667,43.93333,WYOMING,UPTON,5682730
1119715,5259672,-106.48333000000001,44.2,WYOMING,BUFFALO,5682834
1136518,5297446,-104.78333,44.38333,WYOMING,MOORCROFT,5682721
1219090,5530300,-104.6,44.91667,WYOMING,HULETT,5682720
1219091,5530302,-105.6333,44.4,WYOMING,GILLETTE,5682716
53998,323483,-105.0145,42.2149,WYOMING,DWYER,5682201
1219091,5530303,-105.5667,44.43333,WYOMING,GILLETTE,5682716
1219091,5530303,-105.6333,44.38333,WYOMING,GILLETTE,5682716
1119716,5259673,-106.36667,44.58333,WYOMING,BUFFALO,5682835
1219092,5530304,-105.0333,43.65,WYOMING,ROCHELLE,5682701
1136511,5297352,-104.9,43.6,WYOMING,ROCHELLE,5682701
1136518,5297445,-105.01666999999999,44.15,WYOMING,ROZET,
1219093,5530306,-104.95,44.25,WYOMING,MOORCROFT,5682721
1136513,5297422,-104.88333,44.1,WYOMING,UPTON,5682730
1136513,5297432,-104.9,43.6,WYOMING,ROCHELLE,5682701
16808,96749,-106.1764,42.9107,WYOMING,BROOKHURST,5682636
97731,587700,-104.57,42.85,WYOMING,MANVILLE,5682227
16808,96748,-106.65,43.72,WYOMING,KAYCEE,5682639
97900,588983,-105.1121,42.0999,WYOMING,WHEATLAND,5682201
1119720,5259678,-110.03333,41.76667,WYOMING,OPAL,
1175605,5412573,-104.21667,43.73333,WYOMING,NEWCASTLE,5682701
1136511,5297353,-105.46667,43.71667,WYOMING,WRIGHT,5682718
4411,25005,-105.5514,44.2289,WYOMING,GILLETTE,5682718
1119725,5258144,-108.21667,43.83333,WYOMING,KIRBY,5682443
53998,323488,-104.68,42.16,WYOMING,GUERNSEY,5682201
1119713,5259670,-106.3,43.7,WYOMING,SUSSEX,5682639
4411,25006,-105.5406,44.28,WYOMING,GILLETTE,5682718
1219093,5530307,-104.7,44.38333,WYOMING,KEYHOLE RESERVOIR,5682721
1175590,5412454,-105.46667,43.88333,WYOMING,WRIGHT,5682718
53998,323489,-104.3973,41.92,WYOMING,YODER,5682244
4411,33742,-105.6547,43.6647,WYOMING,WRIGHT,5682732
97731,587697,-104.79,42.61,WYOMING,MEADOWDALE,5682227
4411,25013,-104.5087,44.308,WYOMING,SUNDANCE,5682729
1175590,5412455,-105.41667,43.75,WYOMING,WRIGHT,5682718
4411,25011,-104.78,44.38,WYOMING,KEYHOLE RESERVOIR,5682721
4411,25007,-105.3944,44.2187,WYOMING,GILLETTE,5682718
4411,25008,-105.3516,44.188,WYOMING,GILLETTE,5682718
4411,25009,-105.1001,44.2084,WYOMING,ROZET,5682727
4411,25010,-104.8786,44.3211,WYOMING,MOORCROFT,5682721
124991,749640,-106.87,42.59,WYOMING,ALCOVA,5682620
1175590,5412456,-105.46667,43.75,WYOMING,WRIGHT,5682718
1175590,5412457,-105.8,43.46667,WYOMING,WRIGHT,5682633
4411,25012,-104.5621,44.4,WYOMING,SUNDANCE,5682729
1119711,5259668,-106.7,44.28333,WYOMING,BUFFALO,5682834
1119724,5258143,-108.18333,43.8,WYOMING,KIRBY,5682430
97779,596374,-108.3905,44.4972,WYOMING,EMBLEM,5682422
43281,252158,-104.6858,44.5031,WYOMING,DEVILS TOWER,5682729
1136513,5297357,-105.7,43.88333,WYOMING,WRIGHT,5682718
1136513,5297358,-105.36667,44.18333,WYOMING,WYODAK,5682718
1136513,5297359,-105.2,44.2,WYOMING,ROZET,5682727
1119721,5259679,-108.18333,43.95,WYOMING,KIRBY,5682401
124553,747379,-105.79,44.94,WYOMING,RECLUSE,5682725
99562,597461,-104.35,42.14,WYOMING,LINGLE,5682223
1113077,5239370,-109.56667,41.51667,WYOMING,JAMES TOWN,
97900,588979,-104.95,42.1079,WYOMING,WHEATLAND,5682201
4411,25003,-105.7376,43.6507,WYOMING,PINE TREE JCT,5682732
97779,587954,-108.4314,44.4461,WYOMING,BURLINGTON,5682411
97900,588603,-105.1664,41.4098,WYOMING,HORSE CREEK,5682061
1119722,5258141,-108.18333,43.86667,WYOMING,WORLAND,5682401
97731,587698,-104.65,42.77,WYOMING,MANVILLE,5682227
1119722,5259680,-108.18333,43.86667,WYOMING,WORLAND,5682401
97900,588601,-104.9968,41.273,WYOMING,CHEYENNE,5682009
97900,588599,-105.0915,41.2595,WYOMING,HORSE CREEK,5682009
97870,588437,-106.99,44.72,WYOMING,BIG HORN,5682801
19983,119004,-110.6668,44.1338,WYOMING,SOUTH ENTRANCE,5682190
19983,119005,-110.975,42.9904,WYOMING,STAR VALLEY RANCH,5683127
97900,588604,-105.1,41.2845,WYOMING,FEDERAL,5682061
114886,689204,-106.97,44.78,WYOMING,(SHR)SHERIDAN CO ARP,5682801
15293,86969,-106.5932,42.8198,WYOMING,MILLS,5682604
99231,595954,-104.257,44.5839,WYOMING,ALADDIN,5682710
115002,690036,-104.5891,43.6668,WYOMING,CLARETON,5682701
115001,690030,-104.42,43.98,WYOMING,OSAGE,5682723
50008,293931,-105.2,44.3813,WYOMING,ROZET,5682727
54048,323784,-104.07,41.18,WYOMING,PINE BLUFFS,5682082
50008,293931,-105.2715,44.3312,WYOMING,ROZET,5682727
54048,323786,-104.07,41.18,WYOMING,PINE BLUFFS,5682082
54081,324089,-105.1217,42.1626,WYOMING,WHEATLAND,5682201
97900,588995,-105.1083,41.14,WYOMING,CHEYENNE,5682009
115001,690028,-104.4765,43.9572,WYOMING,OSAGE,5682723
115001,690027,-104.82,43.8,WYOMING,CLARETON,5682701
97900,588993,-105.4706,42.9205,WYOMING,DOUGLAS,5682633
97900,588990,-105.2253,41.9372,WYOMING,WESTVIEW CIRCLE,5682201
114995,690013,-104.3652,44.9977,WYOMING,COLONY,5657717
114995,690010,-104.9344,44.8881,WYOMING,LIGHTNING FLAT,5682720
1119880,5258184,-106.38333,44.85,WYOMING,CLEARMONT,5682835
1119880,5258183,-106.38333,44.61667,WYOMING,CLEARMONT,5682835
114995,690009,-105.17,44.75,WYOMING,ROCKYPOINT,5682731
16506,95334,-105.3561,42.7602,WYOMING,DOUGLAS,5682633
1116643,5251718,-106.3,43.7,WYOMING,SUSSEX,5682639
1111945,5237229,-103.93333,41.88333,WYOMING,TORRINGTON,
16506,95334,-105.37,42.75,WYOMING,DOUGLAS,5682633
1111935,5237122,-104.81667,41.2,WYOMING,CHEYENNE,5682009
1111933,5237120,-104.81667,41.13333,WYOMING,CHEYENNE,5682001
1116104,5249518,-106.66667,44.6,WYOMING,SHERIDAN,5682832
53998,323497,-104.16,41.73,WYOMING,DUROC,5682221
53998,323498,-104.9,41.23,WYOMING,(CYS)CHEYENNE AIRPORT,5682009
53998,323499,-104.79,41.29,WYOMING,(CYS)CHEYENNE AIRPORT,5682009
53998,323500,-104.76,41.17,WYOMING,(CYS)CHEYENNE AIRPORT,5682009
1116104,5249519,-106.66667,44.6,WYOMING,SHERIDAN,5682832
1116104,5249520,-106.48333000000001,44.8,WYOMING,SHERIDAN,5682835
1116104,5249521,-107.16667,44.65,WYOMING,SHERIDAN,5682833
1116116,5249602,-106.26666999999999,44.71667,WYOMING,CLEARMONT,5682835
1116116,5249603,-106.25,44.71667,WYOMING,LEITER,5682835
16450,95051,-104.4437,44.1554,WYOMING,UPTON,5682730
16450,95053,-104.13,44.07,WYOMING,FOUR CORNERS,5682701
16450,95054,-104.0873,44.0393,WYOMING,FOUR CORNERS,5682701
115,392,-109.2,41.59,WYOMING,ROCK SPGS,5682901
16450,112661,-104.055,44.0568,WYOMING,FOUR CORNERS,5682701
16450,112661,-104.102,44.0425,WYOMING,FOUR CORNERS,5682701
1111919,5237106,-107.88333,41.58333,WYOMING,RAWLINS,
1111931,5237118,-104.61667,41.28333,WYOMING,CHEYENNE,5682009
1111932,5237119,-104.81667,41.13333,WYOMING,CHEYENNE,5682001
1111934,5237121,-104.81667,41.13333,WYOMING,CHEYENNE,5682001
16427,94858,-104.2,44.92,WYOMING,COLONY,5657717
97900,588988,-105.2526,42.7212,WYOMING,DOUGLAS,5682633
1116642,5251717,-108.4,43.86667,WYOMING,KIRBY,5682443
1119880,5258181,-107.16667,44.91667,WYOMING,RANCHESTER,5682839
1119880,5258180,-107.26666999999999,45.03333,WYOMING,SHERIDAN,
1116639,5251646,-106.86667,42.41667,WYOMING,CASPER,5682327
1116636,5251643,-108.05,44.5,WYOMING,GREYBULL,5682426
114995,690000,-105.6306,44.8035,WYOMING,RECLUSE,5682725
43136,251333,-107.469,43.1404,WYOMING,MADDEN,
43136,251334,-106.816,42.5506,WYOMING,ALCOVA,5682620
114979,694645,-106.27,44.72,WYOMING,LEITER,5682837
1116635,5251642,-108.2,44.28333,WYOMING,BASIN,
114979,689857,-106.33,44.7,WYOMING,LEITER,5682835
1119878,5258080,-107.26666999999999,44.88333,WYOMING,DAYTON,5682839
43136,251341,-106.6595,44.35,WYOMING,BUFFALO,5682834
114979,689856,-106.25,44.72,WYOMING,LEITER,5682835
16465,95090,-104.95,44.27,WYOMING,MOORCROFT,5682721
54315,332708,-108.6653,44.3519,WYOMING,MEETEETSE,5682433
54315,326062,-109.0499,44.5264,WYOMING,CODY,5682414
16463,95089,-104.0598,44.0812,WYOMING,FOUR CORNERS,5682701
16463,95087,-104.2864,44.4277,WYOMING,SUNDANCE,5682729
16461,95086,-104.3816,44.7733,WYOMING,ALADDIN,5682710
1119880,5258182,-107.16667,44.91667,WYOMING,RANCHESTER,5682839
97900,588987,-104.9914,42.0807,WYOMING,WHEATLAND,5682201
15264,86781,-105.7305,42.7477,WYOMING,GLENROCK,5682637
15264,86782,-104.3,41.92,WYOMING,YODER,5682244
115573,694016,-108.4234,41.6437,WYOMING,TABLE ROCK,5682336
1116641,5251716,-108.05,44.48333,WYOMING,GREYBULL,5682426
97900,588986,-105.1059,42.05,WYOMING,WHEATLAND,5682201
115511,693543,-105.27,43.54,WYOMING,WRIGHT,5682718
115508,693533,-105.5,43.76,WYOMING,WRIGHT,5682718
115573,694016,-108.2037,41.6514,WYOMING,TIPTON,5682336
1116640,5251715,-106.71667,42.56667,WYOMING,ALCOVA,5682604
97900,588985,-105.148,41.9891,WYOMING,WHEATLAND,5682201
115504,693529,-104.7785,44.3825,WYOMING,PINE HAVEN,5682721
115502,693525,-105.6195,43.7112,WYOMING,WRIGHT,5682732
16571,95627,-104.311,42.13,WYOMING,LINGLE,5682223
16571,95627,-104.2524,42.13,WYOMING,LINGLE,5682240
1116619,5251625,-108.08333,42.8,WYOMING,RIVERTON,5682501
1116620,5251626,-107.0,43.03333,WYOMING,POWDER RIVER,5682604
1116621,5251627,-106.76666999999999,43.06667,WYOMING,NATRONA,5682604
1116630,5251636,-107.2,43.06667,WYOMING,WALTMAN,5682604
1119861,5259282,-106.88333,44.85,WYOMING,SHERIDAN,5682801
1119861,5259284,-106.65,44.8,WYOMING,SHERIDAN,5682845
15264,86782,-104.5257,41.95,WYOMING,VETERAN,5682244
15264,86781,-106.0674,42.85,WYOMING,GLENROCK,5682636
99240,596003,-105.7304,43.75,WYOMING,WRIGHT,5682718
16428,94865,-104.12799999999999,43.6895,WYOMING,NEWCASTLE,5682701
16430,94867,-105.2296,43.648,WYOMING,WRIGHT,5682718
15314,87111,-104.5444,43.5874,WYOMING,CLARETON,5682701
16663,96110,-104.82,41.4484,WYOMING,CHEYENNE,5682009
1182946,5429226,-106.95,44.86667,WYOMING,SHERIDAN,5682801
50284,295876,-104.18,42.4897,WYOMING,TORRINGTON,5682240
50284,295875,-104.62,42.77,WYOMING,MANVILLE,5682227
50284,295874,-104.97,42.1947,WYOMING,WHEATLAND,5682201
15293,86978,-106.0738,42.8396,WYOMING,FRY,5682609
15293,86976,-106.219,42.8409,WYOMING,BROOKHURST,5682609
15293,86975,-106.3181,42.806000000000004,WYOMING,ALLENDALE,5682601
15293,86973,-106.37200000000001,42.806999999999995,WYOMING,RED BUTTES VILLAGE,5682604
15293,86973,-106.2833,42.8194,WYOMING,ALLENDALE,5682601
15293,86972,-106.4249,42.8063,WYOMING,RED BUTTES VILLAGE,5682604
15293,86970,-106.4249,42.8063,WYOMING,RED BUTTES VILLAGE,5682604
16461,95084,-105.0735,44.9299,WYOMING,LIGHTNING FLAT,5682721
15293,86967,-106.5932,42.8198,WYOMING,MILLS,5682604
16663,96109,-104.83,41.75,WYOMING,CHUGWATER,5682210
1119873,5259386,-107.53333,45.21667,WYOMING,SHERIDAN,
98438,592181,-104.22,43.85,WYOMING,NEWCASTLE,5682701
124851,749040,-104.86,44.1,WYOMING,UPTON,5682730
15314,102902,-104.881,43.552,WYOMING,ROCHELLE,5682701
98262,591017,-105.7,44.99,WYOMING,RECLUSE,5682725
1119871,5259384,-106.83333,44.88333,WYOMING,SHERIDAN,5682801
53998,323494,-104.29,41.92,WYOMING,YODER,5682244
115515,693556,-105.73,43.75,WYOMING,SAVAGETON,5682718
115515,693555,-105.82,43.73,WYOMING,SAVAGETON,5682718
98446,592244,-105.2,44.28,WYOMING,ROZET,5682727
124959,749458,-106.4431,43.6961,WYOMING,SUSSEX,5682639
124959,749458,-106.5098,43.72,WYOMING,KAYCEE,5682639
124960,749459,-107.6168,41.7639,WYOMING,CHEROKEE,5682301
16808,96746,-108.77,42.87,WYOMING,MILFORD,5682520
54308,326025,-106.3109,42.8692,WYOMING,EVANSVILLE,5682601
124960,749459,-107.9872,41.6748,WYOMING,WAMSUTTER,5682336
124962,749462,-108.7234,42.8365,WYOMING,LANDER,5682520
124962,749462,-108.72,42.83,WYOMING,LANDER,5682520
98446,592243,-105.5,44.1742,WYOMING,GILLETTE,5682718
124789,748701,-104.7485,44.75,WYOMING,NEW HAVEN,5682720
16808,96743,-108.68,43.25,WYOMING,PAVILLION,5682523
16808,96742,-108.87,43.0,WYOMING,FT WASHAKIE,5682514
98446,592242,-105.5143,44.2798,WYOMING,GILLETTE,5682718
1119857,5259108,-106.38333,44.58333,WYOMING,CLEARMONT,5682835
53998,323490,-104.5843,41.956,WYOMING,LINGLE,5682244
53998,323493,-104.56,42.11,WYOMING,FORT LARAMIE,5682212
1119871,5259383,-106.75,44.95,WYOMING,SHERIDAN,5682801
16430,94866,-105.7196,44.0759,WYOMING,SAVAGETON,5682718
98146,590301,-106.2499,43.4129,WYOMING,EDGERTON,5682635
98146,590294,-106.7764,43.6511,WYOMING,KAYCEE GOSNEY ARPT,5682639
124854,749055,-105.46,44.391000000000005,WYOMING,(GCC)GILLETTE ARPT,5682716
124856,749058,-104.6922,44.5666,WYOMING,DEVILS TOWER,5682714
124856,749060,-104.8717,44.4388,WYOMING,CARLILE,5682721
97900,588996,-105.2044,41.14,WYOMING,CHEYENNE,5682009
124856,749061,-104.6,44.68,WYOMING,HULETT,5682720
124856,749065,-104.2,44.92,WYOMING,COLONY,5657717
16663,96107,-104.9838,42.0398,WYOMING,WHEATLAND,5682201
16623,95872,-104.7464,41.2637,WYOMING,CHEYENNE,5682009
16435,111834,-105.8657,44.7787,WYOMING,RECLUSE,5682725
16435,100685,-105.5172,44.763000000000005,WYOMING,WESTON,5682731
53998,323495,-104.2902,41.9881,WYOMING,TORRINGTON,5682240
53998,323496,-104.2664,41.783,WYOMING,HAWK SPRINGS,5682244
16435,94929,-104.9003,43.9056,WYOMING,UPTON,5682730
16435,94894,-104.38,44.4,WYOMING,SUNDANCE,5682729
16435,94894,-104.3426,44.4111,WYOMING,SUNDANCE,5682729
16435,94887,-105.33,44.63,WYOMING,WESTON,5682731
16435,94876,-105.4352,44.73,WYOMING,RECLUSE,5682731
16432,112918,-105.05,44.97,WYOMING,LIGHTNING FLAT,5682721
16431,94869,-105.551,44.302,WYOMING,GILLETTE,5682716
124854,749055,-105.552,44.379,WYOMING,(GCC)GILLETTE ARPT,5682716
98146,590299,-106.4807,43.5102,WYOMING,LINCH,5682639
97900,588998,-105.27,41.79,WYOMING,BOSLER,5682201
124854,749053,-105.48200000000001,44.328,WYOMING,GILLETTE,5682716
97950,588965,-105.568,43.23,WYOMING,BILL,5682633
124851,749041,-104.7528,44.3191,WYOMING,PINE HAVEN,5682721
97950,588964,-105.8765,43.4128,WYOMING,BILL,5682633
97949,588963,-105.4478,41.0476,WYOMING,HERMOSA,5682084
124978,749592,-108.8659,44.5655,WYOMING,(COD)YELLOWSTONE APT,
124978,749592,-108.8824,44.5754,WYOMING,CODY,
97900,589001,-105.7,41.58,WYOMING,BOSLER,5682051
43220,251855,-108.4818,43.8921,WYOMING,HAMILTON DOME,
43209,251785,-108.2677,44.6172,WYOMING,EMBLEM,
43209,251785,-108.3135,44.6038,WYOMING,EMBLEM,
97900,589000,-104.97,41.39,WYOMING,FEDERAL,5682009
124851,749042,-104.44,44.69,WYOMING,ALVA,5682711
124851,749043,-104.79,44.89,WYOMING,NEW HAVEN,5682720
124854,749046,-105.8,44.34,WYOMING,ECHETA,5682716
124854,749047,-105.75,44.37,WYOMING,ECHETA,5682716
124854,749048,-105.73,44.295,WYOMING,(GCC)GILLETTE ARPT,5682716
124854,749048,-105.71600000000001,44.306000000000004,WYOMING,(GCC)GILLETTE ARPT,5682716
124854,749050,-105.711,44.32899999999999,WYOMING,(GCC)GILLETTE ARPT,5682716
124854,749050,-105.64200000000001,44.352,WYOMING,(GCC)GILLETTE ARPT,5682716
124854,749053,-105.473,44.33,WYOMING,GILLETTE,5682716
114998,690014,-105.86,44.4934,WYOMING,ECHETA,5682716
109077,653295,-105.13,44.26,WYOMING,ROZET,5682727
16813,96756,-108.8756,44.1791,WYOMING,MEETEETSE,5682433
15805,90694,-104.3413,41.8893,WYOMING,YODER,5682244
15805,90695,-104.75200000000001,41.1812,WYOMING,CHEYENNE,5682009
15805,90695,-104.7521,41.0788,WYOMING,CHEYENNE,5682007
15805,90696,-104.6707,41.0174,WYOMING,CHEYENNE,5682007
15805,90696,-104.7521,41.0788,WYOMING,CHEYENNE,5682007
15805,90697,-104.97,42.0355,WYOMING,WHEATLAND,5682201
15805,90697,-104.73,42.27,WYOMING,GUERNSEY,5682214
15805,90698,-104.1859,41.13,WYOMING,CHEYENNE,5682082
15805,90698,-104.3123,41.18,WYOMING,BURNS,5682053
52610,361802,-107.3175,43.9387,WYOMING,TEN SLEEP,5682442
52609,314342,-106.3123,43.2328,WYOMING,COLUMBINE,5682601
52609,314341,-106.47,42.9,WYOMING,(CPR)NATRONA CO ARPT,5682604
52609,314339,-106.34,42.928999999999995,WYOMING,BAR NUNN,5682601
52609,314337,-106.82,43.03,WYOMING,NATRONA,5682648
106797,641127,-105.4286,44.2388,WYOMING,GILLETTE,5682718
15805,90694,-104.2931,41.5379,WYOMING,LA GRANGE,5682081
106797,641128,-105.3989,44.29,WYOMING,GILLETTE,5682718
1118480,5255677,-105.2,41.88333,WYOMING,WHEATLAND,5682201
1118482,5255679,-104.81667,41.13333,WYOMING,CHEYENNE,5682001
15805,90689,-105.0141,41.2835,WYOMING,FEDERAL,5682009
1118496,5255775,-104.58333,41.13333,WYOMING,CHEYENNE,5682007
1118495,5255774,-104.61667,41.13333,WYOMING,CHEYENNE,5682007
1118494,5255773,-104.66667,41.13333,WYOMING,CHEYENNE,5682007
15805,90689,-104.9832,41.2528,WYOMING,CHEYENNE,5682009
1118492,5255771,-104.36667,41.1,WYOMING,CARPENTER,5682054
15805,90690,-104.8003,41.8035,WYOMING,CHUGWATER,5682210
1118490,5255769,-104.55,41.05,WYOMING,CHEYENNE,5682054
15805,90690,-104.8079,42.0999,WYOMING,WHEATLAND,5682201
15805,90691,-104.1515,41.1086,WYOMING,PINE BLUFFS,5682082
1118487,5255766,-104.71667,41.2,WYOMING,CHEYENNE,5682009
1118486,5255765,-104.81667,41.1,WYOMING,CHEYENNE,5682007
1118485,5255764,-104.06667,41.16667,WYOMING,PINE BLUFFS,5682082
15805,90691,-104.1677,41.1395,WYOMING,PINE BLUFFS,5682082
1118483,5255680,-104.36667,41.03333,WYOMING,CARPENTER,5682054
1118481,5255678,-105.86667,43.13333,WYOMING,GLENROCK,5682637
106797,641130,-104.93,43.93,WYOMING,UPTON,5682730
106797,641131,-104.6406,43.9926,WYOMING,UPTON,5682730
106854,641371,-110.9532,42.9846,WYOMING,STAR VALLEY RANCH,5683127
107521,644394,-105.8313,44.4214,WYOMING,ECHETA,5682716
107523,644413,-105.671,44.8069,WYOMING,RECLUSE,5682725
107523,644419,-105.49,44.8,WYOMING,RECLUSE,5682731
107523,644427,-105.35,44.69,WYOMING,WESTON,5682731
107526,644430,-105.79,44.94,WYOMING,RECLUSE,5682725
107529,644432,-104.345,44.4161,WYOMING,SUNDANCE,5682729
107529,649038,-104.38,44.4,WYOMING,SUNDANCE,5682729
107531,644434,-104.175,44.71,WYOMING,ALADDIN,5682710
107549,644576,-104.6,44.68,WYOMING,HULETT,5682720
107550,644579,-104.81,44.36,WYOMING,PINE HAVEN,5682721
107550,644581,-104.38,44.41,WYOMING,SUNDANCE,5682729
107550,644583,-104.81,44.36,WYOMING,PINE HAVEN,5682721
107550,649084,-104.74,44.34,WYOMING,KEYHOLE RESERVOIR,5682721
17516,101253,-106.5483,44.5307,WYOMING,LAKE DE SMET,5682834
17516,101254,-106.3373,43.1687,WYOMING,MERINO,
17516,101252,-106.8917,44.5564,WYOMING,SADDLESTRING,5682832
52369,312720,-104.18,42.0411,WYOMING,TORRINGTON,5682240
52369,312722,-104.18,42.0555,WYOMING,TORRINGTON,5682240
52369,312723,-104.1129,41.9497,WYOMING,TORRINGTON,5682240
106858,641376,-106.8989,44.4581,WYOMING,SADDLESTRING,5682834
106858,653948,-106.7733,44.4165,WYOMING,BUFFALO ARPT,5682834
106858,654085,-106.7068,44.3485,WYOMING,BUFFALO,5682834
106858,654086,-106.5932,44.3342,WYOMING,BUFFALO,5682834
3029,16043,-104.83,41.75,WYOMING,CHUGWATER,5682210
3044,16141,-105.2579,44.28,WYOMING,GILLETTE,5682727
107153,642780,-104.2,42.51,WYOMING,PRAIRIE CENTER,5682240
1118499,5255778,-104.66667,43.38333,WYOMING,LANCE CREEK,5682222
107155,642790,-104.73,42.33,WYOMING,HARTVILLE,5682215
107159,642800,-104.82,41.2949,WYOMING,CHEYENNE,5682009
107159,642801,-104.82,41.2949,WYOMING,CHEYENNE,5682009
107159,642802,-104.52,42.21,WYOMING,FORT LARAMIE,5682212
107159,642803,-104.5891,42.2612,WYOMING,FORT LARAMIE,5682212
52369,312727,-104.17,41.82,WYOMING,DUROC,5682217
52369,312726,-104.18,42.07,WYOMING,TORRINGTON,5682240
52369,312724,-104.07,41.92,WYOMING,HUNTLEY,5682240
107155,642791,-105.0334,41.76,WYOMING,CHUGWATER,5682210
1118500,5255779,-104.66667,43.1,WYOMING,LANCE CREEK,5682222
1118506,5255785,-105.31667,42.3,WYOMING,WHEATLAND,5682201
1118507,5255786,-105.23333000000001,42.05,WYOMING,WHEATLAND,5682201
18234,106812,-104.9852,41.75,WYOMING,CHUGWATER,5682210
17427,100718,-105.6549,43.6646,WYOMING,WRIGHT,5682732
1141457,5314228,-108.43333,44.45,WYOMING,BURLINGTON,5682411
1141458,5314229,-108.45,44.45,WYOMING,BURLINGTON,5682411
1141459,5314230,-108.36667,44.5,WYOMING,EMBLEM,5682422
1141460,5314231,-106.28333,43.31667,WYOMING,MIDWEST,
1141461,5314322,-106.28333,43.41667,WYOMING,MIDWEST,5682643
1141463,5314324,-110.11667,43.05,WYOMING,PINEDALE,5682922
1179177,5421384,-104.45,43.36667,WYOMING,LUSK,5682701
1141464,5314325,-109.96667,43.15,WYOMING,CORA,5682925
17427,100719,-105.5549,43.6586,WYOMING,WRIGHT,5682718
17428,100723,-105.1,44.9145,WYOMING,ROCKYPOINT,5682731
17428,129175,-105.2,44.98,WYOMING,ROCKYPOINT,5682731
17430,100727,-105.243,43.636,WYOMING,WRIGHT,5682718
17431,100729,-104.22,43.85,WYOMING,NEWCASTLE,5682701
105716,634112,-106.8994,44.4581,WYOMING,SADDLESTRING,5682834
17427,100717,-105.96,43.66,WYOMING,SAVAGETON,5682718
1141456,5314227,-108.98333000000001,44.51667,WYOMING,CODY,5682414
1141455,5314226,-108.96667,44.58333,WYOMING,CODY,5682414
52956,316711,-104.36,41.19,WYOMING,BURNS,5682053
52956,316708,-104.36,41.38,WYOMING,MERIDEN,5682053
52956,316707,-104.3808,41.391000000000005,WYOMING,MERIDEN,5682050
4012,22379,-104.4918,42.8007,WYOMING,LUSK,5682225
17408,100659,-104.6,44.8826,WYOMING,HULETT,5682720
17408,100662,-104.6407,44.68,WYOMING,HULETT,5682720
17408,100662,-104.6188,44.6855,WYOMING,HULETT,5682720
116675,701481,-110.83,43.7537,WYOMING,TETON VILLAGE,5683012
3990,22294,-104.82,41.0143,WYOMING,CHEYENNE,5682007
3989,22293,-105.0035,42.27,WYOMING,GUERNSEY,5682201
17408,100730,-104.3224,44.63,WYOMING,ALADDIN,5682710
18269,107031,-105.27,43.3313,WYOMING,BILL,5682633
17415,100684,-104.8438,44.5186,WYOMING,OSHOTO,5682721
18269,107030,-104.4562,42.2747,WYOMING,TORRINGTON,5682212
17417,100691,-105.5172,44.763000000000005,WYOMING,WESTON,5682731
18237,106826,-104.3,43.2211,WYOMING,REDBIRD,5682225
3990,22294,-104.8714,41.0365,WYOMING,CHEYENNE,5682007
51916,309287,-105.7,44.5997,WYOMING,RECLUSE,5682716
18119,105818,-111.0338,43.7727,WYOMING,ALTA,5683414
16095,92641,-105.7,44.976000000000006,WYOMING,RECLUSE,5682725
1118528,5257578,-104.91667,41.13333,WYOMING,CHEYENNE,5682009
1118527,5257577,-104.81667,41.13333,WYOMING,CHEYENNE,5682001
106549,639495,-104.63,44.69,WYOMING,HULETT,5682720
1118521,5257571,-104.33333,41.06667,WYOMING,CARPENTER,5682054
1118520,5257570,-104.36667,41.13333,WYOMING,BURNS,5682054
1118519,5257569,-104.83333,41.75,WYOMING,CHUGWATER,5682210
1118519,5257569,-104.83333,41.7,WYOMING,CHUGWATER,5682210
1118518,5257568,-104.93333,41.05,WYOMING,CHEYENNE,5682001
1118517,5257567,-105.08333,41.26667,WYOMING,FEDERAL,5682009
1118515,5257565,-104.85,41.13333,WYOMING,CHEYENNE,5682001
1118513,5255792,-104.91667,41.13333,WYOMING,CHEYENNE,5682009
1118512,5255791,-104.43333,41.13333,WYOMING,CHEYENNE,5682053
1118511,5255790,-104.36667,41.18333,WYOMING,BURNS,5682053
1118510,5255789,-104.66667,43.05,WYOMING,LANCE CREEK,5682222
1118508,5255787,-104.85,41.76667,WYOMING,CHUGWATER,5682210
1118529,5257579,-104.91667,41.13333,WYOMING,CHEYENNE,5682009
106210,637789,-110.9853,42.9025,WYOMING,THAYNE,5683127
15796,160181,-105.2736,40.9988,WYOMING,PERKINS,5682059
15796,101208,-104.8743,41.0891,WYOMING,CHEYENNE,5682007
15789,90379,-105.3568,42.3366,WYOMING,WHEATLAND,5682201
15789,90379,-105.2764,42.1442,WYOMING,WHEATLAND,5682201
15796,90398,-105.58,41.3345,WYOMING,LARAMIE,5682072
15796,90398,-105.2736,40.9988,WYOMING,PERKINS,5682059
15796,90417,-105.2633,40.9915,WYOMING,CHEYENNE,
16094,92639,-105.5858,44.3514,WYOMING,GILLETTE,5682716
16093,92636,-105.85,44.4734,WYOMING,ECHETA,5682716
18119,105817,-110.7251,43.7522,WYOMING,JENNY LAKE,5683012
16093,92633,-105.8583,44.6174,WYOMING,RECLUSE,5682716
15796,90420,-105.4153,41.12,WYOMING,BUFORD,5682070
15796,90426,-104.6855,41.13,WYOMING,CHEYENNE,5682007
15796,90428,-104.82,41.1879,WYOMING,CHEYENNE,5682009
15796,90444,-104.1661,41.17,WYOMING,PINE BLUFFS,5682082
15796,90451,-105.2046,42.224,WYOMING,WHEATLAND,5682201
15796,90453,-104.1475,41.13,WYOMING,CHEYENNE,5682082
15796,90456,-104.6432,41.263000000000005,WYOMING,CHEYENNE,5682009
15796,90420,-105.5664,41.3098,WYOMING,LARAMIE,5682070
52956,316712,-104.33,41.04,WYOMING,CARPENTER,5682054
52369,312719,-104.18,42.07,WYOMING,TORRINGTON,5682240
52369,312716,-104.18,42.07,WYOMING,TORRINGTON,5682240
52019,309971,-104.63,44.1,WYOMING,UPTON,5682730
52019,309974,-104.37,44.18,WYOMING,UPTON,5682723
52023,310006,-104.7,43.5408,WYOMING,CLARETON,5682701
52023,310007,-104.601,43.6284,WYOMING,CLARETON,5682701
52035,310049,-104.93,43.93,WYOMING,UPTON,5682730
52035,310050,-105.0389,43.6634,WYOMING,ROCHELLE,5682701
52035,310051,-104.9146,43.6166,WYOMING,ROCHELLE,5682701
52035,310053,-105.0159,43.6802,WYOMING,ROCHELLE,5682701
52037,310056,-105.5,43.68,WYOMING,WRIGHT,5682732
1209924,5505411,-106.95,44.91667,WYOMING,SHERIDAN,5682801
110405,659607,-104.18,42.06,WYOMING,TORRINGTON,5682240
1220511,5531139,-106.8,44.7,WYOMING,SHERIDAN,5682801
1220511,5531138,-106.8,44.7,WYOMING,SHERIDAN,5682801
1220511,5531137,-106.8167,44.56667,WYOMING,SHERIDAN,5682832
15998,92011,-104.7248,41.2016,WYOMING,CHEYENNE,5682009
52016,334092,-104.81,44.36,WYOMING,PINE HAVEN,5682721
15998,92011,-104.82,41.1879,WYOMING,CHEYENNE,5682009
118555,712217,-104.36,41.19,WYOMING,BURNS,5682053
52016,309952,-104.5826,44.4,WYOMING,SUNDANCE,5682729
52288,312157,-104.31,41.82,WYOMING,FONDA,5682244
52286,312151,-104.76,41.17,WYOMING,(CYS)CHEYENNE AIRPORT,5682009
52286,312150,-104.76,41.17,WYOMING,(CYS)CHEYENNE AIRPORT,5682009
52286,312149,-104.1,41.42,WYOMING,ALBIN,5682050
52286,312148,-104.36,41.19,WYOMING,BURNS,5682053
52240,311630,-105.13,41.04,WYOMING,LYNCH,5682059
108726,651225,-104.4796,41.3959,WYOMING,CHEYENNE,5682009
108726,651226,-104.24,41.56,WYOMING,MERIDEN,5682081
108728,651228,-104.7,43.2,WYOMING,WEST LANCE CREEK,5682222
51998,309837,-105.37,44.9,WYOMING,ROCKYPOINT,5682731
118562,712262,-104.4999,43.1323,WYOMING,LANCE CREEK,5682222
118556,712219,-104.2829,42.6372,WYOMING,LUSK,5682225
118555,712218,-104.53,41.75,WYOMING,MERS HILL,5682210
51998,309840,-105.1,44.9145,WYOMING,ROCKYPOINT,5682731
51998,309842,-105.07,44.92,WYOMING,LIGHTNING FLAT,5682721
52016,309959,-104.68,44.36,WYOMING,KEYHOLE RESERVOIR,5682721
15998,92010,-104.4741,41.13,WYOMING,CHEYENNE,5682053
15998,92010,-104.3972,41.1595,WYOMING,BURNS,5682053
15998,92009,-104.4741,41.13,WYOMING,CHEYENNE,5682053
17882,103775,-106.1581,44.214,WYOMING,BUFFALO,5682834
109020,653062,-105.5,44.318999999999996,WYOMING,GILLETTE,5682716
109022,653071,-104.1771,43.9029,WYOMING,NEWCASTLE,5682701
109022,653689,-104.8771,44.1092,WYOMING,UPTON,5682730
109181,653849,-104.6434,43.7409,WYOMING,CLARETON,5682701
109181,653847,-104.68,43.7,WYOMING,CLARETON,5682701
109181,653846,-104.97,43.6579,WYOMING,ROCHELLE,5682701
109181,653845,-105.07,43.67,WYOMING,ROCHELLE,5682701
109181,653840,-105.32,43.69,WYOMING,WRIGHT,
109181,653837,-105.2896,43.7047,WYOMING,WRIGHT,
109082,653303,-104.68,43.7,WYOMING,CLARETON,5682701
109077,653309,-105.3348,44.2968,WYOMING,ROZET,5682716
109045,653185,-104.9888,44.6115,WYOMING,OSHOTO,5682721
109045,653188,-104.7625,44.5011,WYOMING,CARLILE,5682721
109045,653196,-104.4945,44.3281,WYOMING,SUNDANCE,5682729
17885,103792,-105.3775,42.7366,WYOMING,DOUGLAS,5682633
117893,708508,-108.8577,42.8588,WYOMING,(LND)HUNT FLD LANDER,5682520
109268,654422,-104.45,42.76,WYOMING,LUSK,5682225
3557,19456,-104.6168,41.75,WYOMING,CHUGWATER,5682210
15998,92009,-104.6663,41.13,WYOMING,CHEYENNE,5682007
15998,92008,-104.7992,42.3212,WYOMING,GUERNSEY,5682215
117225,704979,-105.45,44.16,WYOMING,GILLETTE,5682718
117405,706066,-106.96,44.83,WYOMING,SHERIDAN,5682801
3568,19846,-105.3625,41.1564,WYOMING,LARAMIE,5682070
3568,19520,-104.97,42.05,WYOMING,WHEATLAND,5682201
3568,19514,-104.82,41.3469,WYOMING,CHEYENNE,5682009
52288,312158,-104.34,41.89,WYOMING,YODER,5682244
3568,19514,-104.82,41.3613,WYOMING,CHEYENNE,5682009
109987,657884,-105.4458,44.3836,WYOMING,GILLETTE,5682716
109987,657883,-105.5279,44.3004,WYOMING,GILLETTE,5682716
109987,657882,-105.55,44.299,WYOMING,GILLETTE,5682716
3568,19511,-105.03,42.5,WYOMING,GLENDO,5682213
3568,19510,-105.1744,41.0194,WYOMING,CHEYENNE,5682059
3568,19508,-105.87,42.85,WYOMING,GLENROCK,5682637
3557,19457,-104.83,41.6777,WYOMING,CHUGWATER,5682210
109987,661998,-105.514,44.328,WYOMING,(GCC)GILLETTE ARPT,5682716
52290,312176,-104.83,41.14,WYOMING,(CYS)CHEYENNE AIRPORT,5682001
52290,312177,-104.83,41.15,WYOMING,(CYS)CHEYENNE AIRPORT,5682001
52290,312178,-104.81,41.14,WYOMING,(CYS)CHEYENNE AIRPORT,5682001
1114988,5244944,-109.16667,44.51667,WYOMING,CODY,5682414
1114989,5244945,-108.58333,42.9,WYOMING,HUDSON,5682520
1114989,5244946,-108.58333,42.9,WYOMING,HUDSON,5682520
1114990,5244947,-106.9,44.35,WYOMING,BUFFALO,5682834
107671,645249,-105.5494,44.2989,WYOMING,GILLETTE,5682716
107671,645250,-105.5387,44.2231,WYOMING,GILLETTE,5682718
107671,645251,-105.509,44.286,WYOMING,GILLETTE,5682716
1115133,5246921,-104.63333,44.1,WYOMING,UPTON,5682730
1115136,5247026,-104.7,44.5,WYOMING,DEVILS TOWER,5682729
1115136,5247027,-104.53333,44.5,WYOMING,SUNDANCE,5682720
52290,312230,-104.3451,41.004,WYOMING,CARPENTER,5682054
1137209,5301648,-106.25,43.41667,WYOMING,EDGERTON,5682635
1137210,5301649,-108.26666999999999,44.4,WYOMING,OTTO,5682410
1137211,5301650,-108.05,44.5,WYOMING,GREYBULL,5682426
52290,312229,-104.77,41.2,WYOMING,(CYS)CHEYENNE AIRPORT,5682009
1114988,5244944,-109.21667,44.51667,WYOMING,CODY,5682414
1178077,5417791,-105.08333,44.3,WYOMING,MOORCROFT,5682721
1178077,5417790,-105.11667,44.35,WYOMING,ROZET,5682727
107574,657085,-110.53,41.8,WYOMING,KEMMERER,5683101
52369,312714,-104.35,42.13,WYOMING,LINGLE,5682223
52369,312713,-104.4232,42.2916,WYOMING,FORT LARAMIE,5682212
52369,312712,-104.94,43.41,WYOMING,BILL,5682633
52369,312711,-104.92,42.77,WYOMING,LOST SPRINGS,5682229
52366,312684,-104.3687,43.0495,WYOMING,HAT CREEK,5682225
51916,309288,-105.2443,44.7771,WYOMING,WESTON,5682731
52366,312684,-104.3631,43.06399999999999,WYOMING,HAT CREEK,5682225
52290,312228,-104.5236,41.1203,WYOMING,CAMP STOOL,5682054
52366,312682,-104.35,43.09,WYOMING,HAT CREEK,5682225
51916,309290,-104.2097,44.5258,WYOMING,BEULAH,5682729
51917,309291,-104.22,43.9803,WYOMING,NEWCASTLE,5682701
1178820,5419652,-109.18333,44.88333,WYOMING,CLARK,5682435
116819,702495,-111.04,41.25,WYOMING,EVANSTON,5682930
107574,644696,-110.637,43.9119,WYOMING,COLTER BAY VILLAGE,5683013
116875,702689,-104.1008,43.0159,WYOMING,LUSK,5682225
116875,702691,-104.324,42.0157,WYOMING,TORRINGTON,5682240
51916,309289,-104.7129,44.7132,WYOMING,HULETT,5682720
52369,312718,-104.18,42.07,WYOMING,TORRINGTON,5682240
52290,312227,-104.53,41.17,WYOMING,DURHAM,5682060
52290,312223,-104.55,41.16,WYOMING,DURHAM,5682060
107826,646176,-108.2095,43.6472,WYOMING,THERMOPOLIS,5682443
108026,647199,-104.26,41.79,WYOMING,HAWK SPRINGS,5682217
3850,21423,-104.82,41.5348,WYOMING,CHEYENNE,5682009
108026,647200,-104.48,41.21,WYOMING,HILLSDALE,5682060
1219088,5530296,-104.1333,44.03333,WYOMING,FOUR CORNERS,5682701
52290,312190,-104.79,41.15,WYOMING,(CYS)CHEYENNE AIRPORT,5682001
52290,312189,-104.79,41.15,WYOMING,(CYS)CHEYENNE AIRPORT,5682001
52290,312188,-104.79,41.15,WYOMING,(CYS)CHEYENNE AIRPORT,5682001
52290,312187,-104.79,41.15,WYOMING,(CYS)CHEYENNE AIRPORT,5682001
52290,312184,-104.79,41.15,WYOMING,(CYS)CHEYENNE AIRPORT,5682001
52290,312183,-104.79,41.15,WYOMING,(CYS)CHEYENNE AIRPORT,5682001
52290,312182,-104.8,41.13,WYOMING,CHEYENNE,5682007
52290,312181,-104.75,41.19,WYOMING,(CYS)CHEYENNE AIRPORT,5682009
52290,312180,-104.85,41.15,WYOMING,(CYS)CHEYENNE AIRPORT,5682005
52290,312179,-104.81,41.15,WYOMING,(CYS)CHEYENNE AIRPORT,5682001
1137227,5301667,-107.31667,44.01667,WYOMING,TEN SLEEP,5682442
1137221,5301661,-107.41667,44.01667,WYOMING,TEN SLEEP,5682442
1137219,5301659,-107.41667,44.01667,WYOMING,TEN SLEEP,5682442
1137218,5301658,-107.96667,44.01667,WYOMING,WORLAND,5682401
52290,312222,-104.35,41.1,WYOMING,CAMP STOOL,5682054
52290,312207,-104.72,41.2,WYOMING,ARCHER,5682009
52290,312206,-104.79,41.19,WYOMING,(CYS)CHEYENNE AIRPORT,5682009
52290,312205,-104.85,41.15,WYOMING,(CYS)CHEYENNE AIRPORT,5682005
52290,312204,-104.79,41.17,WYOMING,(CYS)CHEYENNE AIRPORT,5682009
52290,312203,-104.81,41.16,WYOMING,(CYS)CHEYENNE AIRPORT,5682001
52290,312202,-104.82,41.17,WYOMING,(CYS)CHEYENNE AIRPORT,5682009
52290,312225,-104.56,41.15,WYOMING,DURHAM,5682053
52290,312197,-104.78,41.17,WYOMING,(CYS)CHEYENNE AIRPORT,5682009
52290,312193,-104.75,41.19,WYOMING,(CYS)CHEYENNE AIRPORT,5682009
1137212,5301651,-108.05,44.5,WYOMING,GREYBULL,5682426
1137214,5301653,-106.7,43.96667,WYOMING,BUFFALO,5682834
1137215,5301654,-108.15,43.88333,WYOMING,WORLAND,5682401
1137216,5301655,-108.28333,44.01667,WYOMING,WORLAND,5682401
1137217,5301656,-106.3,43.81667,WYOMING,SUSSEX,5682639
1137217,5301657,-106.3,43.81667,WYOMING,SUSSEX,5682639
52290,312195,-104.79,41.15,WYOMING,(CYS)CHEYENNE AIRPORT,5682001
51506,306212,-104.6,44.68,WYOMING,HULETT,5682720
51506,306210,-104.6569,44.5493,WYOMING,DEVILS TOWER,5682714
51506,306209,-104.7,44.58,WYOMING,DEVILS TOWER,5682714
104702,627129,-106.40100000000001,44.3399,WYOMING,BUFFALO,5682834
104702,640339,-106.3285,44.3049,WYOMING,BUFFALO,5682834
18866,111018,-104.18,42.07,WYOMING,TORRINGTON,5682240
51243,303978,-104.97,42.1079,WYOMING,WHEATLAND,5682201
104721,627213,-105.79,43.62,WYOMING,SAVAGETON,5682718
1136582,5302834,-106.55,44.56667,WYOMING,UCROSS,5682832
51243,303980,-104.7751,42.05,WYOMING,WHEATLAND,5682201
51243,303985,-104.5697,42.0031,WYOMING,YODER,5682244
51243,303988,-104.432,41.9925,WYOMING,TORRINGTON,5682243
51245,303997,-104.3,41.92,WYOMING,YODER,5682244
51245,304005,-104.1,41.42,WYOMING,ALBIN,5682050
51249,304038,-104.2543,43.3302,WYOMING,REDBIRD,5682225
51249,304040,-104.2391,43.357,WYOMING,REDBIRD,5682701
51252,304072,-104.2902,41.9881,WYOMING,TORRINGTON,5682240
51252,304073,-104.82,41.5642,WYOMING,CHEYENNE,5682009
19087,112472,-104.92,43.97,WYOMING,UPTON,
51252,304075,-104.82,41.5353,WYOMING,CHEYENNE,5682009
1179952,5422445,-104.86667,43.93333,WYOMING,UPTON,5682730
51243,303977,-104.97,42.05,WYOMING,WHEATLAND,5682201
53565,320648,-106.84,44.62,WYOMING,BANNER,5682832
19110,112644,-104.27,41.7366,WYOMING,HAWK SPRINGS,5682217
19110,112644,-104.17,41.63,WYOMING,LA GRANGE,5682221
1141169,5310533,-105.36667,44.28333,WYOMING,GILLETTE,5682727
1141169,5310533,-105.3,44.28333,WYOMING,GILLETTE,5682727
1141212,5310727,-105.7,43.71667,WYOMING,WRIGHT,5682718
1141219,5310804,-104.6,44.9,WYOMING,HULETT,5682720
1141239,5310829,-105.48333000000001,44.4,WYOMING,GILLETTE,5682716
1141239,5310830,-105.68333,44.28333,WYOMING,GILLETTE,5682716
1141239,5310831,-105.48333000000001,44.26667,WYOMING,GILLETTE,5682718
1138702,5304068,-106.2,42.16667,WYOMING,MEDICINE BOW,
51243,303967,-105.204,41.978,WYOMING,WHEATLAND,5682201
51243,303971,-105.009,42.05,WYOMING,WHEATLAND,5682201
51243,303973,-104.97,42.05,WYOMING,WHEATLAND,5682201
51243,303975,-104.97,42.0934,WYOMING,WHEATLAND,5682201
1179953,5422446,-104.85,43.68333,WYOMING,ROCHELLE,5682701
51252,304076,-104.82,41.5931,WYOMING,CHEYENNE,5682009
51252,304077,-104.27,41.8234,WYOMING,HAWK SPRINGS,5682244
51252,304078,-104.1249,41.92,WYOMING,YODER,5682240
17166,99627,-108.3596,43.0228,WYOMING,RIVERTON,5682501
1141304,5314560,-104.81667,41.3,WYOMING,CHEYENNE,5682009
1141305,5314561,-107.25,41.95,WYOMING,RAWLINS,
1141306,5314562,-105.58333,41.41667,WYOMING,LARAMIE,5682072
1141309,5314565,-105.23333000000001,41.13333,WYOMING,CHEYENNE,5682009
116115,697907,-106.27,42.87,WYOMING,EVANSVILLE,5682636
116115,697908,-108.3976,42.9763,WYOMING,ST STEPHENS,5682501
51303,304397,-104.18,42.099,WYOMING,TORRINGTON,5682240
116118,698408,-107.97,44.27,WYOMING,MANDERSON,5682432
116118,698409,-109.62,44.47,WYOMING,CODY FLYING L ARPT,5682414
116118,698411,-106.65,43.7634,WYOMING,KAYCEE,5682639
116118,698411,-106.92,43.67,WYOMING,BARNUM,5682639
116118,698415,-106.679,43.714,WYOMING,KAYCEE GOSNEY ARPT,5682639
116118,698415,-106.685,43.6916,WYOMING,KAYCEE GOSNEY ARPT,5682639
116118,698417,-108.45,44.21,WYOMING,DURKEE,
17166,99320,-108.38,43.03,WYOMING,RIVERTON,5682501
17166,99318,-106.1996,43.6078,WYOMING,LINCH,5682640
17159,99263,-107.25,41.818999999999996,WYOMING,RAWLINS,5682301
17159,99263,-107.2088,41.8107,WYOMING,RAWLINS,5682301
1138701,5304067,-105.58333,42.05,WYOMING,LARAMIE,5682058
1138700,5304066,-105.23333000000001,41.06667,WYOMING,BUFORD,5682059
1138699,5304065,-104.78333,41.1,WYOMING,CHEYENNE,5682007
1138698,5304064,-104.81667,41.13333,WYOMING,CHEYENNE,5682001
1138697,5304063,-104.83333,41.9,WYOMING,CHUGWATER,5682201
1138696,5304062,-104.53333,41.78333,WYOMING,HAWK SPGS,5682210
1138695,5304061,-105.31667,41.8,WYOMING,WHEATLAND,5682201
53565,320649,-106.33,44.7,WYOMING,LEITER,5682835
116066,697583,-106.2335,42.8589,WYOMING,EVANSVILLE,5682636
17148,99239,-111.0377,43.7634,WYOMING,ALTA,5683414
51281,304281,-104.82,41.13,WYOMING,CHEYENNE,5682001
51281,304285,-104.82,41.159,WYOMING,CHEYENNE,5682001
51281,304287,-104.7112,41.2119,WYOMING,CHEYENNE,5682009
51283,304297,-105.5649,42.6067,WYOMING,DOUGLAS,5682633
51283,304300,-104.97,42.1079,WYOMING,WHEATLAND,5682201
51283,304302,-104.7162,42.2598,WYOMING,GUERNSEY,5682214
17148,99236,-110.8583,43.5595,WYOMING,TETON VILLAGE,5683014
1180522,5423808,-108.76666999999999,42.86667,WYOMING,MILFORD,5682520
115975,697029,-104.1947,43.8488,WYOMING,NEWCASTLE,5682701
1119122,5258041,-105.65,42.95,WYOMING,DOUGLAS,5682633
1138831,5303367,-110.4,43.85,WYOMING,MORAN,5683013
1138830,5303366,-110.56667,43.85,WYOMING,MORAN,5683013
44391,257804,-108.1642,43.7569,WYOMING,CROSBY,5682443
44391,257816,-107.4203,44.0195,WYOMING,TEN SLEEP,5682442
44391,257816,-107.4897,43.9766,WYOMING,TEN SLEEP ARPT,5682442
44391,257827,-107.4151,44.004,WYOMING,TEN SLEEP,5682442
44391,257827,-107.4109,43.9867,WYOMING,TEN SLEEP,5682442
44391,257831,-107.4395,44.022,WYOMING,TEN SLEEP ARPT,5682442
44391,257831,-107.4291,44.0139,WYOMING,TEN SLEEP ARPT,5682442
44391,257832,-107.3818,44.0649,WYOMING,TEN SLEEP,5682442
44396,257833,-108.9916,44.4884,WYOMING,(COD)YELLOWSTONE APT,5682414
1138829,5303365,-110.7,43.65,WYOMING,MOOSE,5683012
19180,113171,-105.7,44.75899999999999,WYOMING,RECLUSE,5682725
19180,113166,-105.4175,44.8131,WYOMING,RECLUSE,5682731
1138828,5303364,-108.6,43.93333,WYOMING,GRASS CREEK,5682443
19181,113176,-105.87799999999999,44.5376,WYOMING,ECHETA,5682716
19183,113178,-104.95,44.27,WYOMING,MOORCROFT,5682721
19190,113201,-105.7,44.976000000000006,WYOMING,RECLUSE,5682725
19190,113204,-105.2,44.98,WYOMING,ROCKYPOINT,5682731
16813,96761,-107.5408,44.2979,WYOMING,HYATTVILLE,5682428
16813,96807,-109.6311,43.5344,WYOMING,DUBOIS,5682513
16813,96807,-109.6303,43.5346,WYOMING,DUBOIS,5682513
16827,96916,-106.6817,44.3103,WYOMING,BUFFALO,5682834
16827,96917,-107.4803,43.35,WYOMING,BADWATER,5682642
53977,323418,-107.02,44.9,WYOMING,KLEENBURN,5682839
16827,96938,-106.3647,42.9836,WYOMING,BISHOP,5682601
1138825,5303361,-108.38333,43.15,WYOMING,RIVERTON,5682649
16831,96942,-108.4198,43.6694,WYOMING,HAMILTON DOME,5682443
16831,96943,-106.2773,44.1506,WYOMING,BUFFALO,5682834
16831,96943,-106.2754,44.152,WYOMING,BUFFALO,5682834
16831,96948,-108.7846,44.1125,WYOMING,MEETEETSE,5682433
16831,96949,-108.6642,42.7891,WYOMING,LANDER,5682520
16882,97299,-106.2817,43.6883,WYOMING,SUSSEX,5682639
19190,113216,-105.33,44.63,WYOMING,WESTON,5682731
19190,113211,-105.07,44.92,WYOMING,LIGHTNING FLAT,5682721
16831,96942,-108.4146,43.6717,WYOMING,HAMILTON DOME,5682443
116118,698417,-108.42,44.17,WYOMING,WINCHESTER,
49565,290804,-104.22,43.85,WYOMING,NEWCASTLE,5682701
1188558,5446616,-105.3,41.11667,WYOMING,BUFORD,5682052
123985,744098,-104.81,44.36,WYOMING,PINE HAVEN,5682721
1119140,5256699,-105.26666999999999,43.45,WYOMING,BILL,5682633
1119138,5258057,-104.31667,41.41667,WYOMING,ALBIN,5682050
1119137,5258056,-104.26666999999999,41.18333,WYOMING,BURNS,5682053
1119136,5258055,-105.86667,42.9,WYOMING,GLENROCK,5682637
1119133,5258052,-104.81667,41.35,WYOMING,CHEYENNE,5682009
1119132,5258051,-104.81667,41.45,WYOMING,CHEYENNE,5682009
1119131,5258050,-104.81667,41.56667,WYOMING,CHEYENNE,5682009
1119130,5258049,-104.81667,41.5,WYOMING,CHEYENNE,5682009
1119129,5258048,-104.66667,43.4,WYOMING,LANCE CREEK,5682701
1119127,5258046,-104.33333,41.06667,WYOMING,CARPENTER,5682054
1119125,5258044,-104.06667,41.13333,WYOMING,PINE BLUFFS,5682082
1119123,5258042,-105.86667,43.23333,WYOMING,BILL,5682633
1219825,5532408,-104.4167,41.06667,WYOMING,CARPENTER,5682054
1219825,5532408,-104.3667,41.03333,WYOMING,CARPENTER,5682054
123985,744099,-104.81,44.36,WYOMING,PINE HAVEN,5682721
123985,744100,-104.51,44.25,WYOMING,SUNDANCE,5682729
123987,744103,-105.97,43.68,WYOMING,SAVAGETON,5682718
1119313,5257439,-105.38333,41.31667,WYOMING,LARAMIE,
1188557,5446615,-104.9,40.98333,WYOMING,CHEYENNE,
1188555,5446613,-105.88333,41.55,WYOMING,LARAMIE,
1188551,5446609,-105.98333000000001,41.73333,WYOMING,ROCK RIVER,5682083
1176602,5413947,-104.16667,42.96667,WYOMING,LUSK,5682225
1176609,5413954,-105.38333,41.68333,WYOMING,LARAMIE,5682201
1176610,5413955,-105.18333,41.66667,WYOMING,WHEATLAND,5682201
1176612,5413957,-104.06667,42.4,WYOMING,PRAIRIE CENTER,5682240
49565,290802,-104.13,44.07,WYOMING,FOUR CORNERS,5682701
1176613,5413958,-104.36667,42.46667,WYOMING,JAY EM,5682240
1176615,5413960,-104.81667,41.06667,WYOMING,CHEYENNE,5682007
1176617,5413962,-104.18333,42.06667,WYOMING,TORRINGTON,5682240
1176618,5413963,-104.06667,41.98333,WYOMING,TORRINGTON,5682240
1138824,5303360,-108.68333,43.25,WYOMING,PAVILLION,5682523
1138823,5303359,-108.7,43.93333,WYOMING,GRASS CREEK,5682443
1138822,5303358,-108.78333,43.93333,WYOMING,GRASS CREEK,5682401
44754,259454,-105.3388,44.1215,WYOMING,ROZET,5682718
1176614,5413959,-104.81667,41.03333,WYOMING,CHEYENNE,5682007
116118,698418,-108.91,44.42,WYOMING,(COD)YELLOWSTONE APT,5682414
116118,698418,-108.91,44.43,WYOMING,(COD)YELLOWSTONE APT,5682414
116118,698419,-106.39,42.931000000000004,WYOMING,BAR NUNN,5682601
1210256,5505828,-104.4167,42.43333,WYOMING,JAY EM,5682219
1210255,5505827,-105.3667,42.75,WYOMING,DOUGLAS,5682633
53023,317207,-104.5175,41.9148,WYOMING,VETERAN,5682244
53022,317195,-104.96,43.41,WYOMING,BILL,5682633
17376,100506,-104.6569,44.5493,WYOMING,DEVILS TOWER,5682714
17387,100562,-105.2,44.4247,WYOMING,ROZET,5682727
17387,100564,-105.0519,44.58,WYOMING,OSHOTO,5682721
17389,100566,-105.7,44.976000000000006,WYOMING,RECLUSE,5682725
17389,112659,-105.569,44.9614,WYOMING,RECLUSE,5682725
17392,100589,-105.47,43.6042,WYOMING,WRIGHT,5682718
17393,100595,-105.8695,44.7799,WYOMING,RECLUSE,5682725
17393,100598,-105.0265,44.9299,WYOMING,LIGHTNING FLAT,5682721
17394,100603,-105.6415,44.29,WYOMING,GILLETTE,5682716
52956,316721,-104.36,42.5,WYOMING,JAY EM,5682225
52956,316719,-104.85,41.15,WYOMING,(CYS)CHEYENNE AIRPORT,5682005
1210258,5505830,-104.85,41.15,WYOMING,CHEYENNE,5682005
1210258,5505830,-104.9,41.16667,WYOMING,CHEYENNE,5682009
1210264,5505836,-104.7333,42.6,WYOMING,GUERNSEY,5682213
1210265,5505837,-104.45,42.83333,WYOMING,LUSK,5682225
105187,630243,-110.5769,41.7914,WYOMING,KEMMERER,5683101
105187,630243,-110.535,41.7993,WYOMING,KEMMERER,5683101
105194,630304,-106.27600000000001,42.736000000000004,WYOMING,HOGADON,5682601
18412,107717,-106.34,44.64,WYOMING,CLEARMONT,5682835
18412,107716,-106.08,44.85,WYOMING,KENDRICK,5682831
105316,631384,-106.91,44.58,WYOMING,STORY,5682842
105316,631385,-106.92,44.57,WYOMING,STORY,5682842
1117444,5253803,-105.7,43.71667,WYOMING,WRIGHT,5682718
18360,107331,-104.45,42.77,WYOMING,LUSK,5682225
1210277,5505912,-104.85,41.13333,WYOMING,CHEYENNE,5682001
1210276,5505911,-105.15,41.13333,WYOMING,CHEYENNE,5682009
1210276,5505911,-105.1333,41.23333,WYOMING,CHEYENNE,5682009
1210275,5505910,-105.2,41.13333,WYOMING,CHEYENNE,5682009
1210267,5505839,-104.3333,41.85,WYOMING,YODER,5682244
1210266,5505838,-104.5167,42.21667,WYOMING,FT LARAMIE,5682212
1210266,5505838,-104.3667,42.46667,WYOMING,FT LARAMIE,5682240
1210277,5505912,-104.9167,41.06667,WYOMING,CHEYENNE,5682001
105187,630242,-109.47,41.52,WYOMING,GREEN RIVER,5682935
1117450,5253813,-105.88333,44.45,WYOMING,ECHETA,5682716
1117459,5253824,-105.48333000000001,44.06667,WYOMING,GILLETTE,5682718
1117491,5254053,-105.48333000000001,44.13333,WYOMING,GILLETTE,5682718
1117491,5254054,-104.4,44.03333,WYOMING,OSAGE,5682730
1117491,5254055,-104.7,43.7,WYOMING,CLARETON,5682701
1117491,5254056,-104.7,43.96667,WYOMING,OSAGE,5682730
1117491,5254057,-104.7,43.7,WYOMING,CLARETON,5682701
1117491,5254058,-104.63333,44.1,WYOMING,UPTON,5682730
52956,316716,-104.8313,41.1509,WYOMING,(CYS)CHEYENNE AIRPORT,5682001
1117491,5254059,-104.21667,43.85,WYOMING,NEWCASTLE,5682701
52956,316715,-104.85,41.19,WYOMING,(CYS)CHEYENNE AIRPORT,5682009
52956,316713,-104.82,41.17,WYOMING,(CYS)CHEYENNE AIRPORT,5682009
1117491,5254060,-104.4,44.03333,WYOMING,OSAGE,5682730
1117491,5254061,-104.21667,43.6,WYOMING,NEWCASTLE,5682701
1117493,5254155,-104.21667,43.85,WYOMING,NEWCASTLE,5682701
51505,306205,-105.47,44.97,WYOMING,ROCKYPOINT,5682731
51506,306206,-105.5202,44.29,WYOMING,GILLETTE,5682716
1117490,5254052,-104.96667,43.6,WYOMING,ROCHELLE,5682701
1117490,5254052,-104.6,43.63333,WYOMING,ROCHELLE,5682701
1117489,5254051,-104.81667,43.96667,WYOMING,UPTON,5682730
1117489,5254051,-104.98333000000001,43.85,WYOMING,UPTON,
1117459,5253825,-105.4,44.21667,WYOMING,GILLETTE,5682718
1117459,5253826,-105.36667,44.28333,WYOMING,WYODAK,5682727
1117466,5253928,-104.6,44.91667,WYOMING,HULETT,5682720
1117469,5253931,-105.1,44.21667,WYOMING,ROZET,5682727
1117469,5253932,-105.06667,44.35,WYOMING,MOORCROFT,5682721
1117469,5253932,-104.91667,44.28333,WYOMING,MOORCROFT,5682721
1117469,5253933,-104.95,44.21667,WYOMING,MOORCROFT,5682721
1117450,5253814,-105.7,44.73333,WYOMING,RECLUSE,5682716
1117470,5253935,-104.21667,43.83333,WYOMING,NEWCASTLE,5682701
52956,316717,-104.8317,41.1387,WYOMING,CHEYENNE,5682001
1117487,5254048,-105.41667,44.23333,WYOMING,GILLETTE,5682718
1117487,5254048,-105.48333000000001,44.23333,WYOMING,GILLETTE,5682718
1117488,5254049,-105.48333000000001,44.13333,WYOMING,GILLETTE,5682718
1117488,5254049,-105.28333,44.13333,WYOMING,GILLETTE,5682718
1117489,5254050,-105.25,43.88333,WYOMING,GILLETTE,5682718
1117489,5254050,-105.05,43.98333,WYOMING,GILLETTE,
1117470,5253935,-104.21667,43.85,WYOMING,NEWCASTLE,5682701
16808,96750,-108.60799999999999,43.141999999999996,WYOMING,KINNEAR,5682501
105187,630242,-109.2256,41.5853,WYOMING,ROCK SPGS,5682901
17373,100494,-104.7,44.4932,WYOMING,DEVILS TOWER,5682729
1141334,5314669,-106.28333,42.06667,WYOMING,HANNA,5682329
1141335,5314670,-106.2,41.9,WYOMING,MEDICINE BOW,5682329
1141336,5314671,-105.98333000000001,41.73333,WYOMING,ROCK RIVER,5682083
1141337,5314672,-105.58333,41.46667,WYOMING,LARAMIE,5682072
1141338,5314673,-105.41667,41.56667,WYOMING,BOSLER,5682051
1141339,5314674,-105.18333,41.61667,WYOMING,HORSE CREEK,5682009
1141341,5314676,-105.43333,41.43333,WYOMING,LARAMIE,5682072
1141341,5314676,-105.95,41.26667,WYOMING,LARAMIE,5682070
1141342,5314677,-104.81667,41.48333,WYOMING,CHEYENNE,5682009
1141343,5314678,-104.81667,41.3,WYOMING,CHEYENNE,5682009
1141344,5314679,-104.56667,41.13333,WYOMING,CHEYENNE,5682007
1141345,5310934,-104.6,41.21667,WYOMING,HILLSDALE,5682009
1141346,5310935,-104.45,41.18333,WYOMING,BURNS,5682053
1141346,5310935,-104.36667,41.16667,WYOMING,BURNS,5682053
1179408,5420118,-105.71667,42.5,WYOMING,DOUGLAS,5682633
1141333,5314668,-104.75,41.18333,WYOMING,CHEYENNE,5682009
1119103,5257962,-105.58333,41.31667,WYOMING,LARAMIE,5682072
1119104,5257963,-105.58333,41.31667,WYOMING,LARAMIE,5682072
116280,699178,-108.77,43.02,WYOMING,ETHETE,5682520
116118,698419,-106.39,42.93,WYOMING,BAR NUNN,5682601
116118,698420,-106.27,42.8411,WYOMING,EVANSVILLE,5682609
116118,698420,-106.27,42.87,WYOMING,EVANSVILLE,5682636
116118,698422,-107.3395,44.02,WYOMING,TEN SLEEP,5682442
116118,698423,-106.28,43.42,WYOMING,MIDWEST,5682643
116118,698423,-106.25,43.42,WYOMING,EDGERTON,5682635
1141311,5314567,-105.26666999999999,41.13333,WYOMING,CHEYENNE,5682009
1141347,5310936,-104.41667,41.06667,WYOMING,CARPENTER,5682054
1141312,5314568,-104.36667,41.95,WYOMING,VETERAN,5682243
1141319,5314575,-104.78333,41.91667,WYOMING,YODER,5682201
1141321,5314577,-104.1,41.46667,WYOMING,ALBIN,5682050
1141322,5314578,-104.1,41.58333,WYOMING,LA GRANGE,5682221
1141330,5314586,-104.96667,41.88333,WYOMING,WHEATLAND,5682201
1141331,5314587,-104.93333,41.05,WYOMING,CHEYENNE,5682001
1141332,5314588,-104.81667,41.13333,WYOMING,CHEYENNE,5682001
116280,699178,-108.43,42.94,WYOMING,ARAPAHOE,
1141317,5314573,-105.36667,41.15,WYOMING,LARAMIE,5682052
17375,100500,-105.7,44.976000000000006,WYOMING,RECLUSE,5682725
1179395,5421343,-104.66667,43.03333,WYOMING,LANCE CREEK,5682222
116406,699993,-104.595,43.6,WYOMING,CLARETON,5682701
18718,109901,-107.16,44.91,WYOMING,RANCHESTER,5682839
1138148,5304763,-104.08333,44.48333,WYOMING,ALVA,5682712
1138135,5306403,-104.93333,43.86667,WYOMING,CLARETON,
1138131,5306399,-104.43333,44.25,WYOMING,UPTON,5682729
109077,653309,-105.3636,44.288999999999994,WYOMING,GILLETTE,5682727
18707,109869,-106.96,44.79,WYOMING,SHERIDAN,5682801
18707,109864,-107.02,44.79,WYOMING,(SHR)SHERIDAN CO ARP,5682801
18707,109860,-106.96,44.79,WYOMING,SHERIDAN,5682801
18707,109854,-106.96,44.79,WYOMING,SHERIDAN,5682801
18707,109850,-107.26,44.87,WYOMING,DAYTON,5682836
18523,109836,-107.16,44.91,WYOMING,RANCHESTER,5682839
17369,100490,-104.6874,44.5036,WYOMING,DEVILS TOWER,5682729
17369,100491,-104.6611,44.68,WYOMING,HULETT,5682720
17371,100492,-105.7103,43.72,WYOMING,WRIGHT,5682718
17372,100493,-104.91,43.6,WYOMING,ROCHELLE,5682701
1138148,5304763,-104.36667,44.63333,WYOMING,ALVA,5682710
18718,109903,-106.96,44.79,WYOMING,SHERIDAN,5682801
18718,109905,-106.94,44.95,WYOMING,ACME,5682801
104868,628049,-106.77,44.81,WYOMING,WYARNO,5682801
116406,705862,-104.8768,44.1092,WYOMING,UPTON,5682730
116410,700028,-104.34200000000001,44.413000000000004,WYOMING,SUNDANCE,5682729
1141349,5310938,-104.36667,41.16667,WYOMING,BURNS,5682053
1141350,5310939,-104.43333,41.13333,WYOMING,BURNS,5682053
1141353,5309450,-104.81667,41.73333,WYOMING,CHUGWATER,5682210
1141354,5314680,-104.9,41.86667,WYOMING,SLATER,5682201
104738,627241,-105.935,43.78,WYOMING,SAVAGETON,5682718
1141348,5310937,-104.36667,41.18333,WYOMING,BURNS,5682053
17222,99665,-105.27,43.23,WYOMING,BILL,5682633
1141385,5314977,-106.95,44.8,WYOMING,SHERIDAN,5682801
1141385,5314978,-106.85,44.81667,WYOMING,WYARNO,5682801
1141385,5314980,-106.4,44.63333,WYOMING,CLEARMONT,5682835
1141391,5315064,-106.8,44.7,WYOMING,SHERIDAN,5682801
104791,627569,-106.2251,43.8379,WYOMING,SUSSEX,5682639
18750,110138,-106.38,44.64,WYOMING,CLEARMONT,5682835
18750,110137,-107.06,44.62,WYOMING,BIG HORN,5682833
1141385,5314976,-107.16667,44.91667,WYOMING,RANCHESTER,5682839
1219088,5530295,-104.1333,44.06667,WYOMING,FOUR CORNERS,5682701
75985,458537,-105.0448,44.9903,WYOMING,LIGHTNING FLAT,5682721
1219088,5530293,-104.4667,44.33333,WYOMING,SUNDANCE,5682729
1094669,5143148,-106.05,44.15,WYOMING,BUFFALO,5682834
1094670,5143149,-108.86667,43.0,WYOMING,FT WASHAKIE,5682514
1094671,5143150,-108.66667,43.15,WYOMING,KINNEAR,5682501
1094672,5143151,-108.45,43.5,WYOMING,(RIW)RIVERTON RGNL A,
6111,35594,-104.8716,44.1,WYOMING,UPTON,5682730
6111,35593,-104.4564,44.5778,WYOMING,HULETT,5682711
6111,35592,-104.6,44.521,WYOMING,HULETT,5682720
1155144,5366655,-107.81667,42.5,WYOMING,JEFFREY CITY,5682520
1155142,5366653,-108.06667,41.23333,WYOMING,ROCK SPGS,
1155140,5366651,-107.7,43.16667,WYOMING,MONETA,5682642
1155139,5366650,-108.71667,42.83333,WYOMING,LANDER,5682520
1155136,5366563,-108.86667,43.1,WYOMING,FT WASHAKIE,5682514
1155135,5366562,-108.86667,43.0,WYOMING,FT WASHAKIE,5682514
1155133,5366560,-107.35,43.11667,WYOMING,HILAND,5682638
1155132,5366559,-109.2,43.63333,WYOMING,RIVERTON,5682523
1155131,5366558,-106.7,44.35,WYOMING,BUFFALO,5682834
1155128,5366555,-107.35,43.11667,WYOMING,HILAND,5682638
1155126,5366553,-107.38333,43.11667,WYOMING,HILAND,
1155125,5366552,-107.66667,43.26667,WYOMING,LYSITE,5682642
1155123,5366550,-107.35,43.11667,WYOMING,HILAND,5682638
1155121,5366548,-106.31667,42.83333,WYOMING,CASPER,5682601
1155120,5366547,-106.5,42.7,WYOMING,CASPER,5682604
1155118,5366545,-106.31667,42.68333,WYOMING,CASPER,5682604
29107,170746,-104.3,41.92,WYOMING,YODER,5682244
29107,170746,-104.18,42.0555,WYOMING,TORRINGTON,5682240
29074,170555,-108.77,42.87,WYOMING,MILFORD,5682520
29069,175665,-108.56200000000001,43.1009,WYOMING,(RIW)RIVERTON RGNL A,5682501
1094668,5143147,-106.81667,43.83333,WYOMING,KAYCEE,5682639
1094667,5143146,-108.1,43.91667,WYOMING,WORLAND,5682401
1094666,5143145,-106.35,44.1,WYOMING,BUFFALO,5682834
1094665,5143144,-108.4,43.86667,WYOMING,KIRBY,5682443
1155207,5364024,-104.45,43.16667,WYOMING,LUSK,5682225
1155206,5364023,-105.15,41.13333,WYOMING,CHEYENNE,5682009
1155205,5364022,-105.58333,41.31667,WYOMING,LARAMIE,5682072
1155204,5364021,-104.96667,42.05,WYOMING,WHEATLAND,5682201
1155203,5364020,-104.83333,41.75,WYOMING,CHUGWATER,5682210
1155202,5364019,-104.36667,41.18333,WYOMING,BURNS,5682053
1155201,5364018,-104.33333,41.06667,WYOMING,CARPENTER,5682054
1155200,5364017,-104.21667,41.16667,WYOMING,PINE BLUFFS,5682082
1155199,5364016,-104.36667,41.15,WYOMING,BURNS,5682053
29212,171399,-104.65799999999999,43.699,WYOMING,CLARETON,5682701
29212,171398,-104.5891,43.6668,WYOMING,CLARETON,5682701
29212,171397,-104.91,43.6,WYOMING,ROCHELLE,5682701
29212,171392,-105.2097,43.72,WYOMING,WRIGHT,
29069,175664,-108.5744,43.1164,WYOMING,KINNEAR,5682501
29212,171388,-105.47,43.72,WYOMING,WRIGHT,5682718
29207,171378,-104.4,43.97,WYOMING,OSAGE,5682723
29207,171377,-104.70700000000001,43.9663,WYOMING,UPTON,5682730
29205,171374,-104.505,44.769,WYOMING,ALVA,5682711
29205,171373,-104.635,44.725,WYOMING,HULETT,5682720
29200,171371,-104.1816,43.9169,WYOMING,NEWCASTLE,5682701
29200,171369,-104.4,43.97,WYOMING,OSAGE,5682723
29195,171350,-104.486,41.42,WYOMING,ALBIN,5682009
29157,171034,-105.37,42.7355,WYOMING,DOUGLAS,5682633
29157,171034,-105.508,42.75,WYOMING,DOUGLAS,5682633
29157,171033,-104.97,42.0355,WYOMING,WHEATLAND,5682201
29157,171033,-104.7361,42.05,WYOMING,WHEATLAND,5682201
1094663,5143142,-107.08333,43.66667,WYOMING,BARNUM,5682639
1094664,5143143,-108.8,43.65,WYOMING,THERMOPOLIS,5682443
29207,171382,-104.22,43.9803,WYOMING,NEWCASTLE,5682701
1155208,5364025,-104.48333000000001,41.41667,WYOMING,ALBIN,5682009
29069,175664,-108.693,43.1553,WYOMING,KINNEAR,5682501
29053,170502,-108.2,43.65,WYOMING,THERMOPOLIS,5682443
1154715,5363444,-105.48333000000001,44.13333,WYOMING,GILLETTE,5682718
1154710,5364594,-105.35,44.18333,WYOMING,GILLETTE,5682718
66194,397124,-104.37700000000001,44.401,WYOMING,SUNDANCE,5682729
66194,397123,-104.57,44.4,WYOMING,SUNDANCE,5682729
1094831,5145335,-105.7,44.13333,WYOMING,GILLETTE,5682718
1094831,5145335,-105.48333000000001,43.96667,WYOMING,GILLETTE,5682718
1094831,5145336,-105.48333000000001,44.21667,WYOMING,GILLETTE,5682718
1094831,5145337,-105.48333000000001,44.23333,WYOMING,GILLETTE,5682718
1094834,5145341,-105.7,44.65,WYOMING,RECLUSE,5682716
1094834,5145342,-105.48333000000001,44.28333,WYOMING,GILLETTE,5682716
1191933,5455182,-108.45,44.46667,WYOMING,BURLINGTON,5682411
1191933,5455182,-108.2667,44.45,WYOMING,BURLINGTON,5682410
1191932,5455181,-108.4167,44.78333,WYOMING,LOVELL,5682431
1191932,5455181,-108.5,44.75,WYOMING,LOVELL,5682431
1191931,5455180,-108.5667,44.75,WYOMING,BYRON,5682412
1191931,5455180,-108.5667,44.73333,WYOMING,BYRON,5682435
1191931,5455179,-108.5833,44.7,WYOMING,POWELL,5682435
1191931,5455179,-108.65,44.71667,WYOMING,POWELL,5682435
1191928,5455176,-106.1,44.35,WYOMING,BUFFALO,5682831
1191927,5456301,-110.7333,43.3,WYOMING,JACKSON,5683001
1191926,5456300,-110.7333,43.46667,WYOMING,JACKSON,5683001
1191925,5456299,-110.7333,43.46667,WYOMING,JACKSON,5683001
1191921,5456295,-107.2667,43.48333,WYOMING,ARMINTO,5682648
1191918,5456292,-108.4333,44.45,WYOMING,BURLINGTON,5682411
1191917,5456291,-108.75,44.75,WYOMING,POWELL,5682435
1191916,5456290,-108.4833,44.8,WYOMING,BYRON,5682431
83900,506456,-108.3833,43.2194,WYOMING,MIDVALE,5682649
1154715,5363445,-105.48333000000001,44.13333,WYOMING,GILLETTE,5682718
1154715,5363446,-105.38333,44.11667,WYOMING,GILLETTE,5682718
1154715,5363447,-105.31667,44.16667,WYOMING,GILLETTE,5682718
1154715,5363448,-105.26666999999999,44.13333,WYOMING,GILLETTE,5682727
29053,170501,-108.361,43.713,WYOMING,THERMOPOLIS ARPT,5682443
29014,170359,-106.27,44.72,WYOMING,LEITER,5682837
29014,170358,-106.34,44.71,WYOMING,LEITER,5682835
29014,170357,-106.34,44.71,WYOMING,LEITER,5682835
1154753,5364075,-105.26666999999999,44.13333,WYOMING,GILLETTE,5682727
1154752,5364074,-105.76666999999999,43.71667,WYOMING,WRIGHT,5682718
1154751,5364073,-104.7,44.38333,WYOMING,KEYHOLE RESERVOIR,5682721
1154749,5364071,-105.33333,43.61667,WYOMING,WRIGHT,5682718
1154737,5365335,-105.05,44.96667,WYOMING,WESTON,5682721
1154737,5363944,-105.33333,44.86667,WYOMING,LIGHTNING FLAT,5682731
1154733,5365331,-104.6,44.95,WYOMING,HULETT,5682720
1154733,5365243,-105.76666999999999,44.7,WYOMING,SPOTTED HORSE,5682716
1154727,5365226,-105.38333,44.28333,WYOMING,GILLETTE,5682718
29069,175663,-109.7996,43.6006,WYOMING,UNION PASS SUBDVSN,5682513
1154727,5365225,-105.73333000000001,44.28333,WYOMING,GILLETTE,5682716
1154727,5365223,-104.46667,44.46667,WYOMING,SUNDANCE,5682729
1154727,5365222,-104.78333,44.38333,WYOMING,MOORCROFT,5682721
1154727,5365222,-104.81667,44.36667,WYOMING,MOORCROFT,5682721
1154727,5365221,-104.95,44.33333,WYOMING,MOORCROFT,5682721
1154727,5365220,-105.1,44.28333,WYOMING,ROZET,5682727
1154727,5365219,-105.48333000000001,44.28333,WYOMING,GILLETTE,5682716
1154727,5365218,-105.65,44.28333,WYOMING,GILLETTE,5682716
1154720,5364831,-105.31667,44.63333,WYOMING,WESTON,5682731
1154716,5363451,-104.2,44.91667,WYOMING,COLONY,5657717
28993,170238,-104.43,44.68,WYOMING,ALVA,5682711
28993,170235,-104.62,44.78,WYOMING,HULETT,5682720
1154716,5363450,-104.63333,44.68333,WYOMING,HULETT,5682720
1154716,5363449,-104.93333,44.63333,WYOMING,OSHOTO,5682721
1154727,5365224,-104.11667,44.53333,WYOMING,BEULAH,5682712
83900,506456,-108.3014,43.2547,WYOMING,SHOSHONI MUNI ARPT,5682501
1155209,5364026,-104.81667,41.06667,WYOMING,CHEYENNE,5682007
1155210,5364027,-104.18333,43.16667,WYOMING,REDBIRD,5682225
1214015,5518581,-110.95,42.95,WYOMING,THAYNE,5683127
1214016,5518582,-110.9667,43.8,WYOMING,ALTA,5683414
1214017,5518583,-110.7333,43.46667,WYOMING,JACKSON,5683001
1214018,5518584,-108.6,44.35,WYOMING,MEETEETSE,
1214018,5518585,-108.4333,44.45,WYOMING,BURLINGTON,5682411
1214018,5518586,-108.4333,44.46667,WYOMING,BURLINGTON,5682411
1214018,5518587,-108.35,44.51667,WYOMING,EMBLEM,5682426
1214018,5518588,-108.3833,44.5,WYOMING,EMBLEM,5682422
1214020,5518591,-108.4833,44.8,WYOMING,BYRON,5682431
1214020,5518592,-108.45,44.78333,WYOMING,LOVELL,5682431
1214020,5518593,-108.3833,44.83333,WYOMING,LOVELL,5682431
1214020,5518594,-108.2833,44.83333,WYOMING,LOVELL,5682431
1214020,5518595,-108.2667,44.83333,WYOMING,LOVELL,5682431
77934,469636,-104.9927,44.5766,WYOMING,OSHOTO,5682721
77935,469653,-104.96,44.568999999999996,WYOMING,OSHOTO,5682721
77935,469656,-104.6922,44.5666,WYOMING,DEVILS TOWER,5682714
77941,469650,-105.045,44.9903,WYOMING,LIGHTNING FLAT,5682721
77942,469657,-105.7,44.99,WYOMING,RECLUSE,5682725
77953,469683,-105.8733,44.1792,WYOMING,GILLETTE,5682718
77954,469688,-105.73200000000001,43.961000000000006,WYOMING,SAVAGETON,5682718
77959,469763,-104.7146,44.0616,WYOMING,UPTON,5682730
77960,469765,-105.396,44.321999999999996,WYOMING,GILLETTE,5682716
77960,469767,-104.9296,44.2155,WYOMING,MOORCROFT,5682721
77960,469767,-105.0009,44.2403,WYOMING,MOORCROFT,5682721
78025,470068,-105.3035,44.6406,WYOMING,WESTON,5682731
78025,470069,-105.1748,44.6277,WYOMING,WESTON,5682731
78025,470071,-105.2352,44.3564,WYOMING,ROZET,5682727
1214013,5518579,-106.1167,43.55,WYOMING,LINCH,5682640
1214013,5518578,-106.2,43.6,WYOMING,LINCH,5682640
1214012,5518577,-108.1,43.91667,WYOMING,WORLAND,5682401
1214011,5518576,-108.55,43.15,WYOMING,RIVERTON,5682501
77324,466770,-104.23,43.38,WYOMING,REDBIRD,5682701
32880,192629,-107.7028,43.8428,WYOMING,(WRL)WORLAND MUNI AR,
32880,192629,-107.7143,43.8358,WYOMING,(WRL)WORLAND MUNI AR,
32880,192630,-108.2,43.65,WYOMING,THERMOPOLIS,5682443
32881,191855,-106.4255,42.8812,WYOMING,(CPR)NATRONA CO ARPT,5682604
32881,191855,-106.5142,42.8985,WYOMING,(CPR)NATRONA CO ARPT,5682604
32881,191856,-106.32,42.83,WYOMING,CASPER,5682601
32881,191857,-106.3874,42.8466,WYOMING,MOUNTAIN VIEW,5682604
32881,191858,-106.38,42.85,WYOMING,MOUNTAIN VIEW,5682604
6228,36300,-106.7916,43.8222,WYOMING,KAYCEE,5682639
77861,469337,-109.6777,41.8658,WYOMING,EDEN,5682935
77862,469340,-110.0877,42.9859,WYOMING,WARREN BRIDGE,5683115
77862,469746,-108.3654,43.004,WYOMING,RIVERTON,5682501
78025,470072,-105.12,44.1,WYOMING,ROZET,5682727
77862,469750,-110.92,42.73,WYOMING,AFTON,5683110
77862,469837,-108.37,42.9941,WYOMING,RIVERTON,5682501
77908,469574,-105.97,43.97,WYOMING,SAVAGETON,5682718
77908,469575,-105.73,43.9,WYOMING,SAVAGETON,5682718
77908,469577,-105.49,43.75,WYOMING,WRIGHT,5682732
77921,469602,-104.7,44.58,WYOMING,DEVILS TOWER,5682714
77922,469609,-104.4806,44.2362,WYOMING,SUNDANCE,5682729
77922,469611,-104.355,44.162,WYOMING,FOUR CORNERS,5682723
77924,469614,-105.396,44.321999999999996,WYOMING,GILLETTE,5682716
77932,469630,-104.6158,44.0898,WYOMING,UPTON,5682730
77934,469633,-105.6823,44.0572,WYOMING,SAVAGETON,5682718
77934,469634,-105.4714,44.3105,WYOMING,GILLETTE,5682716
77934,469635,-105.26899999999999,44.446000000000005,WYOMING,ROZET,5682727
1214010,5518575,-106.8167,43.83333,WYOMING,KAYCEE,5682639
77862,469837,-108.3906,42.9877,WYOMING,ST STEPHENS,5682501
1155209,5364026,-104.78333,41.1,WYOMING,CHEYENNE,5682007
78026,470073,-105.0234,44.7127,WYOMING,NEW HAVEN,5682721
78029,470076,-105.7,44.99,WYOMING,RECLUSE,5682725
29273,189428,-105.8172,44.9306,WYOMING,RECLUSE,5682725
29273,171786,-104.5186,44.68,WYOMING,HULETT,5682711
29273,171785,-104.6,44.68,WYOMING,HULETT,5682720
29273,171781,-104.6407,44.68,WYOMING,HULETT,5682720
29273,171776,-104.83,44.75,WYOMING,NEW HAVEN,5682720
29273,171768,-104.9115,44.75,WYOMING,NEW HAVEN,5682720
29273,171767,-105.26700000000001,44.788000000000004,WYOMING,ROCKYPOINT,5682731
29271,171762,-104.5914,44.1669,WYOMING,UPTON,5682730
79206,475191,-106.85,44.98,WYOMING,ACME,5682801
79206,475310,-106.27,44.85,WYOMING,LEITER,5682835
1155249,5364160,-104.36667,41.18333,WYOMING,BURNS,5682053
1155245,5364156,-104.35,42.13333,WYOMING,LINGLE,5682223
1155244,5364155,-104.36667,41.15,WYOMING,BURNS,5682053
1155244,5364155,-104.36667,41.18333,WYOMING,BURNS,5682053
1155237,5364148,-104.1,41.41667,WYOMING,ALBIN,5682050
1155236,5364147,-104.3,41.28333,WYOMING,BURNS,5682053
1155235,5364146,-104.53333,41.13333,WYOMING,CHEYENNE,5682054
1155235,5364146,-104.43333,41.13333,WYOMING,CHEYENNE,5682053
1155234,5364145,-104.81667,41.13333,WYOMING,CHEYENNE,5682001
1155234,5364145,-104.78333,41.13333,WYOMING,CHEYENNE,5682001
1155233,5364144,-106.91667,42.15,WYOMING,SEMINOE DAM,5682334
1155230,5364047,-104.96667,42.05,WYOMING,WHEATLAND,5682201
1155228,5364045,-104.35,42.13333,WYOMING,LINGLE,5682223
1155220,5364037,-104.3,41.91667,WYOMING,YODER,5682244
1155217,5364034,-105.25,42.25,WYOMING,WHEATLAND,5682201
1155216,5364033,-104.96667,42.3,WYOMING,WHEATLAND,5682201
1155215,5364032,-104.83333,42.05,WYOMING,WHEATLAND,5682201
29273,189430,-104.2,44.92,WYOMING,COLONY,5657717
29273,190535,-104.243,44.556999999999995,WYOMING,ALADDIN,5682729
29273,190535,-104.429,44.588,WYOMING,ALVA,5682710
29279,171791,-105.5852,44.4371,WYOMING,GILLETTE,5682716
78029,470078,-105.64,44.95,WYOMING,RECLUSE,5682725
78055,470166,-104.6728,44.1307,WYOMING,UPTON,5682730
78055,470168,-104.7505,44.1103,WYOMING,UPTON,5682730
1167264,5390024,-104.63333,44.68333,WYOMING,HULETT,5682720
29655,173813,-104.8861,41.0097,WYOMING,CHEYENNE,5682007
29655,173811,-104.7538,41.2503,WYOMING,CHEYENNE,5682009
78160,470626,-104.93,43.93,WYOMING,UPTON,5682730
78160,470627,-104.6795,43.9441,WYOMING,UPTON,5682730
29563,173349,-104.1,41.4634,WYOMING,ALBIN,5682050
29554,173309,-108.7947,42.8941,WYOMING,MILFORD,5682520
29554,173309,-108.6372,42.7183,WYOMING,(LND)HUNT FLD LANDER,5682520
29554,173299,-106.6826,44.2326,WYOMING,BUFFALO,5682834
29554,173299,-106.7746,44.3589,WYOMING,BUFFALO ARPT,5682834
78027,470074,-104.084,44.148999999999994,WYOMING,FOUR CORNERS,5682701
29554,173297,-106.8864,44.4542,WYOMING,SADDLESTRING,5682834
78792,473409,-106.2793,43.4121,WYOMING,MIDWEST,5682643
78795,473419,-108.93299999999999,44.7452,WYOMING,RALSTON,5682435
78795,473419,-108.6739,44.7522,WYOMING,GARLAND,5682435
79065,474556,-104.4517,44.4612,WYOMING,SUNDANCE,5682729
29393,172490,-104.2087,41.63,WYOMING,LA GRANGE,5682221
29393,172488,-104.3275,41.8995,WYOMING,YODER,5682244
79135,474945,-105.8394,44.211000000000006,WYOMING,ECHETA,5682716
79135,474946,-105.24,44.36,WYOMING,ROZET,5682727
79135,474947,-104.81,44.35,WYOMING,PINE HAVEN,5682721
79135,478409,-105.2572,44.3209,WYOMING,ROZET,5682727
79147,474976,-105.6928,44.3218,WYOMING,(GCC)GILLETTE ARPT,5682716
79147,474979,-105.3712,44.3821,WYOMING,GILLETTE,5682716
79147,474982,-104.9566,44.5234,WYOMING,OSHOTO,5682721
29554,173293,-106.5944,44.2491,WYOMING,BUFFALO,5682834
77316,466735,-104.07,42.94,WYOMING,WHITMAN,5682225
83900,506457,-108.1635,43.405,WYOMING,BOYSEN STATE PARK,5682649
83900,506462,-106.2477,43.412,WYOMING,EDGERTON,5682635
85656,517480,-108.3434,43.0189,WYOMING,RIVERTON,5682501
85656,521631,-108.1576,43.861999999999995,WYOMING,WINCHESTER,5682401
85656,521645,-106.1143,44.2122,WYOMING,BUFFALO,5682834
85703,517522,-109.103,44.5139,WYOMING,CODY,5682414
85703,517523,-108.3395,43.1865,WYOMING,MIDVALE,5682649
85703,517526,-108.8823,43.0063,WYOMING,FT WASHAKIE,5682514
85703,517529,-107.6465,42.9344,WYOMING,MONETA,
85707,517550,-108.5847,42.8989,WYOMING,HUDSON,5682520
85707,517552,-108.4586,43.0292,WYOMING,(RIW)RIVERTON RGNL A,5682501
85800,518020,-105.788,44.943000000000005,WYOMING,RECLUSE,5682725
85800,518021,-105.52,44.9,WYOMING,RECLUSE,5682731
85800,518033,-105.074,44.923,WYOMING,ROCKYPOINT,5682721
85800,518036,-104.92299999999999,44.7671,WYOMING,NEW HAVEN,5682720
85800,518037,-104.6336,44.7413,WYOMING,HULETT,5682720
85800,518042,-104.1406,44.7794,WYOMING,ALADDIN,5657717
85800,530614,-104.23700000000001,44.722,WYOMING,ALADDIN,5682710
85800,530614,-104.573,44.714,WYOMING,HULETT,5682720
85804,518046,-105.54,44.71,WYOMING,RECLUSE,5682716
85814,518114,-106.01,43.56,WYOMING,SAVAGETON,5682718
85818,518157,-104.18,44.64,WYOMING,ALADDIN,5682710
85822,518176,-104.95,44.26,WYOMING,MOORCROFT,5682721
85822,518177,-104.81,44.36,WYOMING,PINE HAVEN,5682721
85882,518531,-104.7161,42.05,WYOMING,WHEATLAND,5682201
85888,518566,-104.83,41.59,WYOMING,IRON MOUNTAIN,5682009
85888,518568,-104.6357,41.4743,WYOMING,CHEYENNE,5682009
85888,518571,-104.8136,42.05,WYOMING,WHEATLAND,5682201
85890,518582,-104.3316,41.42,WYOMING,ALBIN,5682050
85656,517480,-108.4196,43.03,WYOMING,RIVERTON,5682501
85656,517305,-108.4014,43.855,WYOMING,HAMILTON DOME,5682443
85640,521628,-106.3667,43.7047,WYOMING,SUSSEX,5682639
85640,521627,-106.4016,43.7049,WYOMING,SUSSEX,5682639
38496,223466,-104.22,43.8934,WYOMING,NEWCASTLE,5682701
38497,223468,-105.677,43.563,WYOMING,WRIGHT,5682718
38497,223469,-105.7352,43.7478,WYOMING,SAVAGETON,5682718
38498,223471,-105.334,44.03,WYOMING,ROZET,5682718
38498,223472,-105.1459,44.1864,WYOMING,ROZET,5682727
38499,223473,-105.5,44.2611,WYOMING,GILLETTE,5682718
38499,223473,-105.5232,44.3301,WYOMING,GILLETTE,5682716
38499,236227,-105.679,43.867,WYOMING,SAVAGETON,5682718
38500,223474,-104.62,44.3,WYOMING,KEYHOLE RESERVOIR,5682730
38500,223475,-104.49,44.83,WYOMING,ALVA,5682711
38500,223476,-104.38,44.96,WYOMING,COLONY,5682720
38500,236218,-104.62100000000001,44.693000000000005,WYOMING,HULETT,5682720
38500,236220,-104.33,44.99,WYOMING,COLONY,5657717
85890,518584,-104.6278,41.14,WYOMING,CHEYENNE,5682007
28124,165063,-105.7,44.976000000000006,WYOMING,RECLUSE,5682725
28123,165055,-105.33,44.03,WYOMING,ROZET,5682718
28118,165018,-104.12,44.85,WYOMING,COLONY,5657717
28117,165017,-104.22,43.85,WYOMING,NEWCASTLE,5682701
28117,165016,-104.4184,43.7067,WYOMING,NEWCASTLE,5682701
28116,165015,-104.77,43.55,WYOMING,ROCHELLE,5682701
28116,165014,-104.9262,43.5363,WYOMING,CLARETON,5682701
28116,165013,-105.2504,43.5416,WYOMING,WRIGHT,5682718
28116,165012,-105.67,43.59,WYOMING,WRIGHT,5682718
85594,517078,-107.1802,43.07,WYOMING,WALTMAN,5682604
85594,517078,-107.2594,43.07,WYOMING,WALTMAN,5682604
85595,517093,-108.8642,43.7665,WYOMING,DICKIE,
85595,517093,-108.823,43.7548,WYOMING,ANCHOR RESERVOIR,
85640,517205,-106.6589,43.7158,WYOMING,KAYCEE,5682639
28123,165059,-104.73,44.05,WYOMING,UPTON,5682730
85449,516109,-105.27,44.79,WYOMING,ROCKYPOINT,5682731
85890,518586,-104.82,41.2413,WYOMING,CHEYENNE,5682009
86145,520142,-104.6256,41.1382,WYOMING,ARCHER,5682007
1215142,5520745,-104.4833,41.61667,WYOMING,HAWK SPGS,5682221
1215142,5520745,-104.4667,41.63333,WYOMING,HAWK SPGS,5682221
86266,527405,-104.42,43.98,WYOMING,OSAGE,5682723
86275,520733,-105.36,44.09,WYOMING,ROZET,5682718
86275,520734,-105.167,44.18600000000001,WYOMING,ROZET,5682727
86277,520735,-104.7328,44.8408,WYOMING,NEW HAVEN,5682720
1215150,5520820,-104.45,42.83333,WYOMING,LUSK,5682225
86277,520736,-104.721,44.7311,WYOMING,NEW HAVEN,5682720
1170385,5398472,-104.9,43.6,WYOMING,ROCHELLE,5682701
1170388,5398565,-105.46667,43.71667,WYOMING,WRIGHT,5682718
1170388,5398566,-105.48333000000001,44.28333,WYOMING,GILLETTE,5682716
1170390,5398585,-105.88333,44.45,WYOMING,ECHETA,5682716
1170390,5398586,-104.5,43.9,WYOMING,OSAGE,5682701
1170390,5398587,-105.05,44.86667,WYOMING,ROCKYPOINT,5682721
63618,380886,-104.38,44.82,WYOMING,ALVA,5682711
63600,380861,-104.63,44.1,WYOMING,UPTON,5682730
63600,380860,-104.95,44.26,WYOMING,MOORCROFT,5682721
38879,225719,-104.7154,41.03,WYOMING,CARPENTER,5682007
38879,225721,-104.82,41.0866,WYOMING,CHEYENNE,5682007
38879,225724,-104.7154,41.03,WYOMING,CARPENTER,5682007
86277,527426,-104.6719,44.6288,WYOMING,HULETT,5682720
86277,530615,-104.62,44.571999999999996,WYOMING,DEVILS TOWER,5682720
86277,530615,-104.50200000000001,44.589,WYOMING,ALVA,5682720
86284,520760,-105.2904,43.7034,WYOMING,WRIGHT,
86412,521472,-107.17,44.91,WYOMING,RANCHESTER,5682839
86417,521487,-104.1,41.42,WYOMING,ALBIN,5682050
86419,521498,-104.6702,41.9954,WYOMING,BORDEAUX,5682201
1215141,5520744,-104.8167,41.61667,WYOMING,CHEYENNE,5682009
1215139,5520742,-105.7667,42.75,WYOMING,DOUGLAS,5682637
1215138,5520741,-105.8667,42.85,WYOMING,GLENROCK,5682637
86266,520710,-104.199,44.175,WYOMING,FOUR CORNERS,5682701
86145,520142,-104.6278,41.14,WYOMING,CHEYENNE,5682007
86145,520155,-105.1659,41.14,WYOMING,CHEYENNE,5682009
86145,520157,-104.8879,41.0888,WYOMING,CHEYENNE,5682007
38720,224592,-104.1705,42.5309,WYOMING,JAY EM,5682240
86150,520162,-105.5,43.2,WYOMING,BILL,5682633
86150,520163,-105.4289,43.23,WYOMING,BILL,5682633
86150,520165,-105.25,43.22,WYOMING,BILL,5682633
86150,520165,-105.17,43.2,WYOMING,BILL,5682633
63812,381838,-104.67,43.7,WYOMING,CLARETON,5682701
86186,520371,-105.2168,43.3236,WYOMING,BILL,5682633
86186,520374,-104.4666,41.1568,WYOMING,BURNS,5682053
86189,520376,-104.36,41.19,WYOMING,BURNS,5682053
86189,520377,-104.07,41.18,WYOMING,PINE BLUFFS,5682082
86145,520133,-105.2115,41.8556,WYOMING,WHEATLAND,5682201
1215121,5520723,-104.9833,44.61667,WYOMING,OSHOTO,5682721
1215121,5520725,-104.65,44.55,WYOMING,DEVILS TOWER,5682714
86202,520404,-105.0698,41.14,WYOMING,CHEYENNE,5682009
86202,520405,-104.9151,41.0684,WYOMING,CHEYENNE,5682001
86264,520703,-105.33,44.03,WYOMING,ROZET,5682718
1215126,5520736,-104.0833,44.5,WYOMING,BEULAH,5682712
86265,520704,-105.23,44.52,WYOMING,WESTON,5682727
86266,520706,-104.92200000000001,43.933,WYOMING,UPTON,5682730
1215131,5521316,-105.1333,41.23333,WYOMING,CHEYENNE,5682009
1215133,5521318,-104.9667,42.05,WYOMING,WHEATLAND,5682201
1215134,5520737,-104.7833,41.11667,WYOMING,CHEYENNE,5682007
1215134,5520737,-104.7833,41.1,WYOMING,CHEYENNE,5682007
1215135,5520738,-104.35,42.05,WYOMING,LINGLE,5682223
1215135,5520738,-104.55,41.98333,WYOMING,LINGLE,5682244
1215121,5520724,-104.7167,44.58333,WYOMING,DEVILS TOWER,5682714
83900,506462,-106.28,43.42,WYOMING,MIDWEST,5682643
85449,516108,-105.5,44.8,WYOMING,RECLUSE,5682731
38379,222872,-104.3844,43.3114,WYOMING,REDBIRD,5682225
28444,167462,-104.3956,41.8188,WYOMING,HAWK SPRINGS,5682244
28444,167460,-104.83,41.75,WYOMING,CHUGWATER,5682210
28444,167457,-104.6328,41.8109,WYOMING,CHUGWATER,5682210
28444,167457,-104.7477,41.8114,WYOMING,CHUGWATER,5682210
28443,167455,-104.4297,42.1923,WYOMING,FORT LARAMIE,5682223
28443,167455,-104.18,42.07,WYOMING,TORRINGTON,5682240
28443,167453,-105.37,42.6921,WYOMING,DOUGLAS,5682633
28443,167452,-104.97,42.05,WYOMING,WHEATLAND,5682201
28437,167443,-104.5029,41.78,WYOMING,HAWK SPRINGS,5682244
28437,167442,-104.9291,41.9156,WYOMING,BORDEAUX,5682201
84673,511354,-105.79,44.94,WYOMING,RECLUSE,5682725
84673,511355,-105.7,44.99,WYOMING,RECLUSE,5682725
84674,511358,-105.25,43.88,WYOMING,WRIGHT,5682718
84674,511360,-104.81,43.74,WYOMING,CLARETON,5682701
84674,511361,-104.78,43.69,WYOMING,CLARETON,5682701
84674,511363,-104.68,43.7,WYOMING,CLARETON,5682701
84674,511364,-104.56200000000001,43.666000000000004,WYOMING,CLARETON,5682701
84675,511365,-104.29,44.583999999999996,WYOMING,ALADDIN,5682710
84675,511366,-104.6,44.68,WYOMING,HULETT,5682720
84675,511369,-104.5856,44.6902,WYOMING,HULETT,5682720
84675,511370,-104.6,44.68,WYOMING,HULETT,5682720
84687,511434,-107.97,44.02,WYOMING,WORLAND,5682401
84692,511452,-110.63,43.9,WYOMING,COLTER BAY VILLAGE,5683013
84692,511651,-108.4029,44.8375,WYOMING,LOVELL,5682431
84692,511652,-110.0041,43.3445,WYOMING,GREEN RIVER LAKES,5682925
84692,511652,-110.0059,43.34,WYOMING,GREEN RIVER LAKES,5682925
84692,521535,-108.39299999999999,44.843999999999994,WYOMING,LOVELL,5682431
28444,167462,-104.0906,41.8354,WYOMING,HAWK SPRINGS,5682240
28450,167492,-104.4992,41.63,WYOMING,LA GRANGE,5682221
28486,167638,-108.4471,43.7197,WYOMING,HAMILTON DOME,5682443
28486,167638,-108.4211,43.7105,WYOMING,HAMILTON DOME,5682443
83900,509167,-108.3197,43.3148,WYOMING,BOYSEN STATE PARK,5682501
83900,509167,-108.3367,43.2966,WYOMING,MIDVALE,5682501
83900,509302,-108.3178,43.3223,WYOMING,BOYSEN STATE PARK,5682501
83900,521425,-108.446,43.0242,WYOMING,(RIW)RIVERTON RGNL A,5682501
28982,170179,-104.97,42.1079,WYOMING,WHEATLAND,5682201
1214453,5516211,-106.3167,43.13333,WYOMING,CASPER,
28895,169845,-106.34,42.9,WYOMING,BAR NUNN,5682601
28895,169841,-106.53,42.83,WYOMING,MILLS,5682604
28895,169837,-108.2741,42.8428,WYOMING,RIVERTON,5682501
28859,169684,-104.83,41.75,WYOMING,CHUGWATER,5682210
28859,169683,-104.82,41.15,WYOMING,(CYS)CHEYENNE AIRPORT,5682001
28782,169186,-104.83,41.75,WYOMING,CHUGWATER,5682210
28782,169185,-105.58,41.4068,WYOMING,LARAMIE,5682072
84714,511680,-106.56,44.57,WYOMING,UCROSS,5682832
28782,169185,-105.58,41.4358,WYOMING,LARAMIE,5682072
1154155,5361765,-105.2,41.13333,WYOMING,CHEYENNE,5682009
1154154,5361764,-105.53333,41.28333,WYOMING,LARAMIE,5682070
1154153,5361763,-104.73333000000001,42.96667,WYOMING,LUSK,5682224
1154152,5361762,-104.36667,41.03333,WYOMING,CARPENTER,5682054
1154151,5361761,-104.45,41.03333,WYOMING,CARPENTER,5682054
1154150,5361760,-104.56667,41.03333,WYOMING,CARPENTER,5682054
1154149,5361759,-104.53333,41.13333,WYOMING,CHEYENNE,5682054
84349,509256,-106.4228,42.7319,WYOMING,PARADISE VLY,5682601
84349,509256,-106.4589,42.7435,WYOMING,GOOSE EGG,5682604
84353,509260,-108.4371,44.9114,WYOMING,COWLEY ARPT,5682420
84353,509260,-108.443,44.9217,WYOMING,COWLEY ARPT,5682420
1199925,5476945,-108.7167,42.83333,WYOMING,LANDER,5682520
1199926,5476946,-108.3833,43.03333,WYOMING,RIVERTON,5682501
28781,169183,-104.2456,41.9428,WYOMING,LINGLE,5682240
38379,222876,-104.45,42.77,WYOMING,LUSK,5682225
84714,511724,-106.87,44.89,WYOMING,WAKELEY,5682801
28396,167003,-104.2477,41.0879,WYOMING,BURNS,5682054
28386,166962,-104.4385,41.7131,WYOMING,LA GRANGE,5682221
28386,166961,-104.383,41.63,WYOMING,LA GRANGE,5682221
65014,389458,-104.2961,44.442,WYOMING,SUNDANCE,5682729
65012,389457,-104.0839,44.1492,WYOMING,FOUR CORNERS,5682701
64991,389387,-105.2202,44.28,WYOMING,ROZET,5682727
64990,389382,-104.469,44.04600000000001,WYOMING,OSAGE,5682730
64989,389379,-104.8226,44.2737,WYOMING,PINE HAVEN,5682721
28386,166961,-104.2237,41.6134,WYOMING,LA GRANGE,5682221
28386,166960,-104.8106,41.75,WYOMING,CHUGWATER,5682210
28386,166960,-104.6942,41.75,WYOMING,CHUGWATER,5682210
28386,166959,-105.37,42.75,WYOMING,DOUGLAS,5682633
28386,166958,-105.0389,42.1012,WYOMING,WHEATLAND,5682201
28386,166958,-104.73,42.27,WYOMING,GUERNSEY,5682214
28385,166955,-104.82,41.1445,WYOMING,CHEYENNE,5682001
28385,166955,-104.75200000000001,41.1812,WYOMING,CHEYENNE,5682009
84759,511922,-106.85,44.97,WYOMING,ACME,5682801
84909,512801,-104.18,42.4797,WYOMING,TORRINGTON,5682240
85242,514930,-105.27,43.54,WYOMING,WRIGHT,5682718
64768,387857,-105.03,42.52,WYOMING,(76V)GLENDO THOMAS AIRPORT,5682213
64768,387794,-105.4757,42.2121,WYOMING,GARRETT,5682201
85421,516028,-104.63,44.1,WYOMING,UPTON,5682730
85448,516105,-105.97,43.68,WYOMING,SAVAGETON,5682718
38379,222804,-105.1195,42.3174,WYOMING,WHEATLAND,5682201
38379,222835,-104.7001,42.3235,WYOMING,GUERNSEY,5682214
38379,222836,-104.2157,43.1886,WYOMING,REDBIRD,5682225
38379,222837,-104.1627,42.7161,WYOMING,VAN TASSELL,5682225
38379,222838,-104.9717,43.446999999999996,WYOMING,BILL,5682633
28386,166963,-104.62,42.6976,WYOMING,MANVILLE,5682227
1191466,5455137,-105.3167,44.63333,WYOMING,WESTON,5682731
1191466,5455138,-105.25,44.7,WYOMING,WESTON,5682731
28386,166979,-104.7166,42.05,WYOMING,WHEATLAND,5682201
28396,166999,-104.1153,41.5891,WYOMING,LA GRANGE,5682221
28396,166999,-104.0227,41.6103,WYOMING,LA GRANGE,
28395,166997,-104.6471,41.13,WYOMING,CHEYENNE,5682007
28395,166997,-104.7112,41.2119,WYOMING,CHEYENNE,5682009
28386,166984,-104.18,42.1496,WYOMING,TORRINGTON,5682240
28386,166984,-104.4297,42.1723,WYOMING,BARNES,5682223
1191498,5455451,-105.7,44.95,WYOMING,RECLUSE,5682725
1191497,5455450,-105.4833,44.28333,WYOMING,GILLETTE,5682716
1191495,5455448,-104.95,44.71667,WYOMING,NEW HAVEN,5682721
1191493,5455446,-105.0833,44.91667,WYOMING,LIGHTNING FLAT,5682731
1191493,5455445,-105.2,44.96667,WYOMING,ROCKYPOINT,5682731
1191493,5455444,-105.1,44.75,WYOMING,ROCKYPOINT,5682731
1191492,5455442,-105.4667,43.71667,WYOMING,WRIGHT,5682718
84721,511733,-107.17,44.91,WYOMING,RANCHESTER,5682839
1191489,5455437,-105.3333,44.18333,WYOMING,GILLETTE,5682718
1191482,5455348,-104.9167,44.75,WYOMING,NEW HAVEN,5682720
1191482,5455347,-104.7,44.58333,WYOMING,DEVILS TOWER,5682714
1191481,5455346,-104.9667,44.88333,WYOMING,WESTON,5682720
1191480,5455344,-104.6,44.83333,WYOMING,HULETT,5682720
1191479,5455343,-105.1667,44.63333,WYOMING,WESTON,5682731
1191479,5455342,-105.9333,44.7,WYOMING,SPOTTED HORSE,5682831
1191479,5455341,-105.3167,44.63333,WYOMING,WESTON,5682731
1191479,5455340,-105.4833,44.51667,WYOMING,GILLETTE,5682716
1191477,5455336,-105.4833,44.88333,WYOMING,RECLUSE,5682731
1191477,5455336,-105.7,45.01667,WYOMING,RECLUSE,
1191477,5455334,-105.4833,44.88333,WYOMING,RECLUSE,5682731
1191476,5455333,-105.9667,44.28333,WYOMING,GILLETTE,5682716
28386,166979,-104.8336,42.05,WYOMING,WHEATLAND,5682201
1191482,5455349,-104.2333,44.43333,WYOMING,BEULAH,5682729
86419,521500,-104.93,42.77,WYOMING,LOST SPRINGS,5682229
77314,466727,-104.5017,42.0174,WYOMING,LINGLE,5682243
77276,466622,-104.37,42.3687,WYOMING,JAY EM,5682212
1093076,5138618,-109.56667,41.51667,WYOMING,JAMES TOWN,
76564,461826,-104.81,41.15,WYOMING,(CYS)CHEYENNE AIRPORT,5682001
76564,461827,-104.8053,41.1033,WYOMING,CHEYENNE,5682007
74984,453407,-110.8133,43.4893,WYOMING,WILSON,5683001
74983,453402,-110.7176,43.6585,WYOMING,MOOSE,5683012
74981,453399,-110.9583,42.976000000000006,WYOMING,STAR VALLEY RANCH,5683127
1195085,5463112,-104.4,43.96667,WYOMING,OSAGE,5682723
1195084,5463111,-104.1333,44.06667,WYOMING,FOUR CORNERS,5682701
1195084,5463110,-104.55,44.16667,WYOMING,UPTON,5682730
1195083,5463109,-104.3833,44.4,WYOMING,SUNDANCE,5682729
1195083,5463108,-104.1167,44.53333,WYOMING,BEULAH,5682712
1195082,5463106,-104.5833,44.4,WYOMING,SUNDANCE,5682729
76564,461828,-104.7945,41.1037,WYOMING,ORCHARD VALLY,5682007
76564,461829,-104.7821,41.1352,WYOMING,CHEYENNE,5682001
76564,461830,-104.7239,41.13,WYOMING,CHEYENNE,5682007
76566,461833,-105.1851,41.13,WYOMING,CHEYENNE,5682009
76566,461835,-105.1659,41.13,WYOMING,CHEYENNE,5682009
1197084,5469453,-105.4833,44.28333,WYOMING,GILLETTE,5682716
1197085,5469454,-105.2667,44.13333,WYOMING,GILLETTE,5682727
1197085,5469455,-104.9833,44.13333,WYOMING,ROZET,
1197085,5469457,-104.2167,43.9,WYOMING,NEWCASTLE,5682701
1197086,5469458,-104.3833,44.25,WYOMING,SUNDANCE,5682729
1197086,5469459,-104.3833,44.25,WYOMING,SUNDANCE,5682729
1197086,5469460,-104.5,44.18333,WYOMING,SUNDANCE,5682729
1197086,5469461,-104.3667,44.18333,WYOMING,UPTON,5682729
1197087,5469462,-104.3667,44.18333,WYOMING,UPTON,5682729
1197088,5469463,-104.2167,43.85,WYOMING,SAVAGETON,5682701
76387,460608,-106.3368,43.0854,WYOMING,BISHOP,5682601
76339,460386,-106.7669,42.5475,WYOMING,ALCOVA,5682620
76339,460386,-106.7685,42.5468,WYOMING,ALCOVA,5682620
76251,459768,-106.7921,43.8319,WYOMING,MAYOWORTH,5682639
1196363,5470940,-108.1167,43.58333,WYOMING,THERMOPOLIS,5682443
1093016,5138231,-105.25,41.0,WYOMING,CHEYENNE,5682059
1093017,5138232,-104.81667,41.13333,WYOMING,CHEYENNE,5682001
1093018,5138233,-104.76666999999999,41.13333,WYOMING,CHEYENNE,5682001
1093019,5138234,-104.28333,40.96667,WYOMING,CARPENTER,
1196365,5470942,-106.9,44.5,WYOMING,BUFFALO,5682834
30939,181433,-106.77,44.83,WYOMING,WYARNO,5682801
30940,181434,-106.86,44.62,WYOMING,BANNER,5682832
30993,181718,-107.26,44.87,WYOMING,DAYTON,5682836
76235,459687,-107.06,44.77,WYOMING,(SHR)SHERIDAN CO ARP,5682801
76235,459689,-106.99,44.81,WYOMING,FT MACKENZIE,5682801
76235,459691,-106.98,44.81,WYOMING,FT MACKENZIE,5682801
76235,459692,-106.96,44.83,WYOMING,SHERIDAN,5682801
1197088,5469526,-105.7833,43.86667,WYOMING,WRIGHT,5682718
76235,459694,-106.96,44.84,WYOMING,SHERIDAN,5682801
31023,181869,-107.26,44.87,WYOMING,DAYTON,5682836
76235,459695,-106.87,44.89,WYOMING,WAKELEY,5682801
76235,459696,-106.85,44.93,WYOMING,ACME,5682801
76235,459697,-106.68,44.93,WYOMING,WYARNO,5682801
1157711,5373021,-104.2,44.91667,WYOMING,COLONY,5657717
1157703,5372882,-105.48333000000001,44.65,WYOMING,GILLETTE,5682716
1157702,5372879,-105.13333,44.96667,WYOMING,WESTON,5682731
1157691,5372778,-104.75,44.78333,WYOMING,HULETT,5682720
1157691,5372777,-104.46667,44.46667,WYOMING,SUNDANCE,5682729
1157690,5372776,-105.9,44.88333,WYOMING,RECLUSE,5682831
1157690,5372775,-105.83333,44.7,WYOMING,SPOTTED HORSE,5682716
1157690,5372774,-105.65,44.76667,WYOMING,RECLUSE,5682716
1157690,5372773,-105.7,44.73333,WYOMING,RECLUSE,5682716
31023,181867,-107.34,44.9,WYOMING,DAYTON,5682836
76117,461822,-105.2912,42.75,WYOMING,DOUGLAS,5682633
1197088,5469527,-105.2,43.71667,WYOMING,WRIGHT,5682718
1195042,5464209,-104.2333,43.85,WYOMING,NEWCASTLE,5682701
74676,451603,-106.91,44.58,WYOMING,STORY,5682842
74656,451457,-104.1,41.42,WYOMING,ALBIN,5682050
74653,451454,-105.3693,43.23,WYOMING,BILL,5682633
74653,451453,-105.7293,43.3685,WYOMING,BILL,5682633
74638,451405,-106.0909,42.9562,WYOMING,FRY,5682636
74638,451405,-106.0895,42.9567,WYOMING,FRY,5682636
74638,451400,-107.6151,42.9313,WYOMING,MONETA,5682501
74638,451398,-106.337,43.169,WYOMING,MERINO,
74638,451394,-106.9872,43.0321,WYOMING,POWDER RIVER,5682648
74638,451393,-106.98899999999999,43.035,WYOMING,POWDER RIVER,5682604
74638,451390,-106.779,43.028999999999996,WYOMING,PETRIE,5682646
74638,451379,-108.93,43.01,WYOMING,FT WASHAKIE,5682514
74632,451374,-109.226,43.335,WYOMING,CROWHEART,5682512
74631,451373,-109.66,43.54,WYOMING,DUBOIS MUNI ARPT,5682513
74620,451311,-108.9005,44.1888,WYOMING,MEETEETSE,5682433
74620,451310,-109.7996,43.6006,WYOMING,UNION PASS SUBDVSN,5682513
74620,451291,-108.7038,44.3313,WYOMING,MEETEETSE,5682433
74620,451288,-108.4348,44.446999999999996,WYOMING,BURLINGTON,5682411
74620,451287,-108.0446,44.4948,WYOMING,GREYBULL,5682426
7858,45231,-108.3076,43.891999999999996,WYOMING,KIRBY,
7858,45231,-108.3218,43.9022,WYOMING,KIRBY,
7858,45235,-108.3104,43.87,WYOMING,WINCHESTER,5682443
74620,451286,-108.2906,44.3747,WYOMING,OTTO,5682434
7858,45235,-108.2703,43.87,WYOMING,WINCHESTER,5682401
7858,45256,-108.17,43.87,WYOMING,WINCHESTER,5682401
7861,45254,-110.73,43.47,WYOMING,JACKSON,5683001
1159518,5368833,-104.7,41.33333,WYOMING,CHEYENNE,5682009
74676,451604,-106.9,44.58,WYOMING,STORY,5682842
74676,451612,-106.9,44.58,WYOMING,STORY,5682842
74676,451617,-106.91,44.58,WYOMING,STORY,5682842
74676,451625,-106.86,44.62,WYOMING,BANNER,5682832
1195033,5464091,-104.1667,44.9,WYOMING,LIGHTNING FLAT,5657717
1195031,5464085,-105.7,44.73333,WYOMING,RECLUSE,5682716
74751,451933,-104.2046,41.17,WYOMING,PINE BLUFFS,5682082
74751,451927,-104.141,41.1479,WYOMING,PINE BLUFFS,5682082
74751,451925,-104.1737,41.1483,WYOMING,(82V)PINE BLUFFS AIRPORT,5682082
74751,451923,-104.13799999999999,41.1188,WYOMING,PINE BLUFFS,5682082
74751,451922,-104.1661,41.17,WYOMING,PINE BLUFFS,5682082
1195018,5463983,-106.5333,42.83333,WYOMING,MILLS,5682604
1195017,5463982,-109.65,42.75,WYOMING,BOULDER,5682923
1195017,5463981,-109.8667,42.78333,WYOMING,PINEDALE,5682941
1195017,5463980,-109.7167,42.78333,WYOMING,BOULDER,5682923
1195017,5463979,-109.7167,42.8,WYOMING,BOULDER,5682923
74751,451921,-104.2121,41.1257,WYOMING,PINE BLUFFS,5682082
1195049,5464225,-104.3167,44.88333,WYOMING,COLONY,5657717
74751,451920,-104.3,41.35,WYOMING,ALBIN,5682053
74703,456264,-106.28,43.42,WYOMING,MIDWEST,5682643
74703,453394,-106.587,43.4269,WYOMING,MIDWEST,5682639
74703,453392,-106.2778,43.4117,WYOMING,MIDWEST,5682643
74703,453392,-106.2509,43.4119,WYOMING,EDGERTON,5682635
74703,451735,-106.8864,43.6092,WYOMING,BARNUM,5682639
74703,451733,-108.1815,43.8044,WYOMING,KIRBY,5682430
74703,451733,-108.1939,43.8027,WYOMING,KIRBY,5682443
74703,451732,-108.9547,44.0761,WYOMING,PITCHFORK,5682433
74701,451727,-106.7433,43.7891,WYOMING,MAYOWORTH,5682639
74701,451727,-106.8426,43.8607,WYOMING,MAYOWORTH,5682639
74676,451645,-106.91,44.58,WYOMING,STORY,5682842
74676,451637,-106.88,44.84,WYOMING,WAKELEY,5682801
74676,451634,-106.96,44.65,WYOMING,BIG HORN,5682801
74707,451762,-104.3,41.9055,WYOMING,YODER,5682244
1159520,5368835,-104.71667,42.36667,WYOMING,FT LARAMIE,5682215
76117,461818,-106.2525,41.2721,WYOMING,ALBANY,5682070
30875,181107,-108.4206,43.0198,WYOMING,RIVERTON,5682501
76064,458872,-104.4894,42.77,WYOMING,LUSK,5682225
76064,458872,-104.4106,42.77,WYOMING,LUSK,5682225
75761,457236,-104.73,42.2845,WYOMING,GUERNSEY,5682214
75761,457235,-105.0128,42.2144,WYOMING,DWYER,5682201
30443,178331,-104.48,41.22,WYOMING,HILLSDALE,5682060
30443,178331,-104.37,41.2813,WYOMING,BURNS,5682053
76064,458878,-105.29,41.17,WYOMING,BUFORD,5682070
76074,458942,-104.06,41.72,WYOMING,WYCROSS,5682217
76074,458943,-106.25,42.35,WYOMING,SHIRLEY BASIN,
76074,458944,-104.895,41.15,WYOMING,(CYS)CHEYENNE AIRPORT,5682009
76074,458945,-104.35,41.03,WYOMING,CARPENTER,5682054
76074,458946,-104.3619,41.0442,WYOMING,CARPENTER,5682054
76074,458947,-105.04,41.65,WYOMING,LITTLE BEAR,5682009
30405,178030,-110.6106,43.8449,WYOMING,MORAN,5683013
7461,45187,-105.5608,41.32,WYOMING,LARAMIE,5682072
7461,42877,-104.07,41.17,WYOMING,PINE BLUFFS,5682082
7461,42877,-105.12,41.2845,WYOMING,FEDERAL,5682009
7461,42876,-104.2815,41.0023,WYOMING,CARPENTER,5682054
7461,42875,-104.82,41.4191,WYOMING,CHEYENNE,5682009
7461,42874,-105.37,42.75,WYOMING,DOUGLAS,5682633
30405,178029,-110.6106,43.8449,WYOMING,MORAN,5683013
76074,458949,-105.08,41.54,WYOMING,LITTLE BEAR,5682061
76074,458950,-105.87,41.54,WYOMING,COOPER LAKE,
30557,179004,-104.78,44.38,WYOMING,KEYHOLE RESERVOIR,5682721
30557,179006,-104.74,44.34,WYOMING,KEYHOLE RESERVOIR,5682721
30557,179007,-104.59,44.32,WYOMING,KEYHOLE RESERVOIR,5682729
1213288,5514308,-104.9,43.9,WYOMING,UPTON,5682730
76064,458871,-104.65,41.24,WYOMING,DURHAM,5682009
76064,458870,-104.7,41.22,WYOMING,ARCHER,5682009
76064,458869,-105.29,41.57,WYOMING,WYOMING,5682051
76032,474574,-107.6863,44.2226,WYOMING,HYATTVILLE,5682428
75984,458536,-104.9193,44.2913,WYOMING,MOORCROFT,5682721
75990,458544,-104.5184,44.8108,WYOMING,ALVA,5682720
75990,458545,-104.405,44.589,WYOMING,ALVA,5682710
75990,468655,-104.3661,44.6552,WYOMING,ALVA,5682710
30493,178667,-105.098,41.041000000000004,WYOMING,LYNCH,5682059
75993,458549,-105.01,44.44,WYOMING,OSHOTO,5682721
75995,458551,-105.72,44.074,WYOMING,SAVAGETON,5682718
7523,43230,-105.5,44.29,WYOMING,GILLETTE,5682716
7523,43226,-105.5714,44.2389,WYOMING,GILLETTE,5682718
7522,43222,-105.4286,44.3411,WYOMING,GILLETTE,5682716
7520,43215,-104.84100000000001,44.7,WYOMING,CARLILE,5682721
7520,43212,-104.2,44.92,WYOMING,COLONY,5657717
1158036,5379608,-106.13333,44.35,WYOMING,BUFFALO,5682831
75550,456112,-104.7554,41.1453,WYOMING,(CYS)CHEYENNE AIRPORT,5682001
1158037,5379609,-106.15,44.35,WYOMING,BUFFALO,5682831
1158039,5379611,-106.91667,42.83333,WYOMING,CASPER,5682604
76032,474567,-106.2659,44.0733,WYOMING,KAYCEE KUIPER ARPT,5682834
76032,474567,-106.0497,44.0334,WYOMING,SUSSEX,5682834
76032,474574,-107.6639,44.2387,WYOMING,HYATTVILLE,5682428
1132908,5290284,-104.51666999999999,43.15,WYOMING,LANCE CREEK,5682222
1132907,5290283,-104.45,43.16667,WYOMING,LUSK,5682225
75762,457717,-104.62,42.77,WYOMING,MANVILLE,5682227
75762,457716,-104.1129,41.9497,WYOMING,TORRINGTON,5682240
75762,457240,-104.8748,41.8742,WYOMING,SLATER,5682201
75762,457240,-104.8,41.8,WYOMING,CHUGWATER,5682210
75762,457239,-104.7706,41.857,WYOMING,CHUGWATER,5682201
75761,457237,-105.03,41.26,WYOMING,FEDERAL,5682009
75761,457237,-105.05,41.27,WYOMING,FEDERAL,5682009
1158038,5379610,-109.46667,41.23333,WYOMING,GREEN RIVER,
30875,181112,-108.385,43.0325,WYOMING,RIVERTON,5682501
75550,456111,-104.7968,41.1449,WYOMING,(CYS)CHEYENNE AIRPORT,5682001
75550,456109,-104.76899999999999,41.1356,WYOMING,CHEYENNE,5682001
30620,179374,-104.6407,44.68,WYOMING,HULETT,5682720
30620,179376,-104.95,44.27,WYOMING,MOORCROFT,5682721
30620,179377,-105.0358,44.3314,WYOMING,MOORCROFT,5682721
75503,455857,-104.2653,44.4919,WYOMING,SUNDANCE,5682729
75503,455845,-104.81,44.36,WYOMING,PINE HAVEN,5682721
75503,455826,-105.5323,44.4408,WYOMING,(GCC)GILLETTE ARPT,5682716
1213279,5514285,-105.0833,44.95,WYOMING,LIGHTNING FLAT,5682731
1213278,5514284,-105.1667,43.63333,WYOMING,WRIGHT,5682718
1213278,5514283,-105.2,43.71667,WYOMING,WRIGHT,5682718
75381,455220,-104.5943,42.8963,WYOMING,LANCE CREEK,5682227
75381,455219,-104.8896,43.0965,WYOMING,LANCE CREEK,5682224
75381,455218,-105.23,43.23,WYOMING,BILL,5682633
75377,455202,-105.8354,41.57,WYOMING,BOSLER,
30858,181048,-108.3701,44.4179,WYOMING,BURLINGTON,5682434
30858,181050,-108.2935,44.4283,WYOMING,OTTO,5682434
30858,181051,-108.0521,44.4921,WYOMING,GREYBULL,5682426
30858,181052,-108.0274,44.4901,WYOMING,GREYBULL,5682426
30858,181055,-106.76899999999999,43.8176,WYOMING,MAYOWORTH,5682639
30858,181059,-106.7276,43.7711,WYOMING,KAYCEE GOSNEY ARPT,5682639
30858,181064,-106.1581,44.2142,WYOMING,BUFFALO,5682834
30858,181066,-106.3326,42.9826,WYOMING,CASPER HARFORD ARPT,5682601
30858,181075,-108.0446,44.4948,WYOMING,GREYBULL,5682426
75364,455179,-104.3,43.1053,WYOMING,REDBIRD,5682225
75364,455177,-104.1,42.8147,WYOMING,VAN TASSELL,5682225
1213269,5514086,-105.2833,43.85,WYOMING,WRIGHT,5682718
1213269,5514084,-105.25,43.86667,WYOMING,WRIGHT,5682718
30875,181104,-108.4589,43.0296,WYOMING,(RIW)RIVERTON RGNL A,5682501
30620,179373,-105.5858,44.3514,WYOMING,GILLETTE,5682716
30611,179262,-104.7335,44.2998,WYOMING,KEYHOLE RESERVOIR,5682721
30606,179259,-104.2,44.92,WYOMING,COLONY,5657717
75550,456067,-104.8053,41.1567,WYOMING,CHEYENNE,5682001
75550,456108,-104.7685,41.1412,WYOMING,(CYS)CHEYENNE AIRPORT,5682001
75550,456107,-104.7889,41.1435,WYOMING,(CYS)CHEYENNE AIRPORT,5682001
75550,456106,-104.79799999999999,41.1488,WYOMING,(CYS)CHEYENNE AIRPORT,5682001
75550,456105,-104.82,41.2747,WYOMING,CHEYENNE,5682009
75550,456104,-104.7431,41.13,WYOMING,CHEYENNE,5682007
75550,456103,-104.8072,41.1519,WYOMING,(CYS)CHEYENNE AIRPORT,5682001
75550,456102,-104.7816,41.13,WYOMING,CHEYENNE,5682001
75550,456101,-104.8281,41.2909,WYOMING,(CYS)CHEYENNE AIRPORT,5682009
75550,456087,-104.8092,41.1668,WYOMING,(CYS)CHEYENNE AIRPORT,5682009
75550,456086,-104.76299999999999,41.1365,WYOMING,CHEYENNE,5682001
75550,456085,-104.8472,41.1705,WYOMING,(CYS)CHEYENNE AIRPORT,5682009
75550,456084,-104.8355,41.1554,WYOMING,(CYS)CHEYENNE AIRPORT,5682001
75550,456083,-104.8347,41.1567,WYOMING,CHEYENNE,5682001
75550,456110,-104.7792,41.1193,WYOMING,(CYS)CHEYENNE AIRPORT,5682007
75550,456082,-104.7312,41.1577,WYOMING,CHEYENNE,5682001
75550,456080,-104.8281,41.2039,WYOMING,(CYS)CHEYENNE AIRPORT,5682009
75550,456079,-104.79,41.15,WYOMING,(CYS)CHEYENNE AIRPORT,5682001
75550,456078,-104.82,41.2024,WYOMING,CHEYENNE,5682009
75550,456077,-104.82,41.2458,WYOMING,CHEYENNE,5682009
75550,456076,-104.9152,41.2016,WYOMING,CHEYENNE,5682009
75550,456075,-104.8642,41.2102,WYOMING,CHEYENNE,5682009
75550,456074,-104.82,41.2747,WYOMING,CHEYENNE,5682009
75550,456073,-104.82,41.3037,WYOMING,CHEYENNE,5682009
75550,456072,-104.82,41.159,WYOMING,CHEYENNE,5682001
75550,456071,-104.7248,41.2016,WYOMING,CHEYENNE,5682009
75550,456070,-104.82,41.2747,WYOMING,CHEYENNE,5682009
75550,456069,-104.82,41.2747,WYOMING,CHEYENNE,5682009
75550,456068,-104.8568,41.1969,WYOMING,CHEYENNE,5682009
75550,456081,-104.8744,41.1709,WYOMING,CHEYENNE,5682009
77278,466639,-104.97,41.8329,WYOMING,WHEATLAND,5682201
1159521,5368836,-104.51666999999999,42.38333,WYOMING,FT LARAMIE,5682212
74493,450457,-104.42,43.98,WYOMING,OSAGE,5682723
73637,445526,-104.3973,44.2675,WYOMING,SUNDANCE,5682729
73636,445521,-105.4285,44.2343,WYOMING,GILLETTE,5682718
73636,445520,-105.6909,44.1408,WYOMING,GILLETTE,5682718
73634,455043,-104.2806,44.5684,WYOMING,ALADDIN,5682729
1194371,5465325,-104.6667,43.2,WYOMING,LANCE CREEK,5682222
1194370,5465324,-105.2667,43.23333,WYOMING,BILL,5682633
1194370,5465324,-105.1333,43.33333,WYOMING,BILL,5682633
1194368,5465322,-105.2667,43.2,WYOMING,BILL,5682633
1194367,5465321,-105.3667,42.93333,WYOMING,DOUGLAS,5682633
1194366,5465320,-105.2667,43.25,WYOMING,BILL,5682633
1194362,5465316,-105.8667,42.73333,WYOMING,GLENROCK,5682637
73634,445524,-104.68,44.54,WYOMING,DEVILS TOWER,5682714
73634,445523,-104.7,44.58,WYOMING,DEVILS TOWER,5682714
73634,445514,-105.5,44.3913,WYOMING,GILLETTE,5682716
73633,445512,-105.91,44.08,WYOMING,SAVAGETON,5682718
73633,445511,-105.9205,43.87,WYOMING,SAVAGETON,5682718
77272,466568,-104.37700000000001,44.401,WYOMING,SUNDANCE,5682729
6745,39047,-104.0501,43.7273,WYOMING,NEWCASTLE,
31348,184200,-105.35,42.42,WYOMING,ESTERBROOK,5682633
31348,187212,-104.8384,42.2368,WYOMING,GUERNSEY,5682201
73517,444635,-104.18,42.1568,WYOMING,TORRINGTON,5682240
73517,444634,-104.35,42.14,WYOMING,LINGLE,5682223
73517,444633,-104.35,42.14,WYOMING,LINGLE,5682223
31380,184325,-106.5246,42.7656,WYOMING,BESSEMER BEND,5682604
73469,444230,-104.2528,42.77,WYOMING,LUSK,5682225
29985,175643,-107.8945,43.5662,WYOMING,EAST THERMOPOLIS,
29985,175636,-108.69200000000001,42.5751,WYOMING,MINERS DELIGHT,5682520
73638,445527,-104.8163,43.7295,WYOMING,CLARETON,5682701
73638,445528,-104.1425,44.0462,WYOMING,FOUR CORNERS,5682701
73645,445534,-104.8161,44.0446,WYOMING,UPTON,5682730
73646,445535,-104.4585,44.0469,WYOMING,OSAGE,5682730
73879,453284,-108.0446,44.4948,WYOMING,GREYBULL,5682426
73879,450995,-106.7628,44.0541,WYOMING,KAYCEE KUIPER ARPT,5682834
73879,447092,-108.6422,44.0077,WYOMING,MEETEETSE,5682443
73879,447091,-106.8207,44.3815,WYOMING,BUFFALO ARPT,5682834
73879,447089,-108.4348,44.446999999999996,WYOMING,BURLINGTON,5682411
73879,447085,-110.0059,43.7513,WYOMING,BROOKS LAKE,5682513
73879,447076,-110.7624,43.4796,WYOMING,JACKSON,5683001
73879,447076,-110.8085,43.4622,WYOMING,WILSON,5683001
73878,447075,-106.7391,44.405,WYOMING,BUFFALO ARPT,5682834
73878,447074,-107.5903,44.1374,WYOMING,TEN SLEEP ARPT,5682442
77271,466562,-104.63,44.69,WYOMING,HULETT,5682720
77271,466563,-104.63,44.7097,WYOMING,HULETT,5682720
77272,466568,-104.3424,44.4128,WYOMING,SUNDANCE,5682729
8217,47313,-106.95,44.8,WYOMING,SHERIDAN,5682801
73685,445791,-104.95,44.35,WYOMING,MOORCROFT,5682721
73684,445789,-105.67,44.56,WYOMING,ECHETA,5682716
73684,445788,-105.91,44.49,WYOMING,ECHETA,5682716
73684,445787,-105.8,44.36,WYOMING,ECHETA,5682716
73682,445786,-105.9,44.81,WYOMING,RECLUSE,5682725
73682,445785,-105.9,44.81,WYOMING,RECLUSE,5682725
73682,445784,-105.94,44.72,WYOMING,RECLUSE,5682831
73682,445783,-105.8,44.36,WYOMING,ECHETA,5682716
73682,445782,-105.7818,44.2729,WYOMING,ECHETA,5682716
73681,445781,-105.3097,44.63,WYOMING,WESTON,5682731
73681,445780,-105.5403,44.3958,WYOMING,(GCC)GILLETTE ARPT,5682716
73681,445779,-105.5,44.3913,WYOMING,GILLETTE,5682716
73680,445777,-104.2826,44.1261,WYOMING,FOUR CORNERS,5682729
73679,445776,-105.20200000000001,44.989,WYOMING,ROCKYPOINT,5682731
73684,445790,-105.68,44.61,WYOMING,RECLUSE,5682716
73879,453286,-110.8768,43.4634,WYOMING,WILSON,5683014
8217,47314,-106.95,44.8,WYOMING,SHERIDAN,5682801
77272,466570,-104.32700000000001,44.356,WYOMING,SUNDANCE,5682729
1193986,5465761,-104.1,41.36667,WYOMING,ALBIN,5682082
1193985,5465760,-104.7,41.33333,WYOMING,CHEYENNE,5682009
1193984,5465759,-104.1333,41.3,WYOMING,PINE BLUFFS,5682082
1193983,5465758,-104.4833,41.38333,WYOMING,CHEYENNE,5682009
1193982,5465757,-104.75,41.18333,WYOMING,CHEYENNE,5682009
1193982,5465757,-104.7833,41.13333,WYOMING,CHEYENNE,5682001
1193980,5465755,-104.2667,41.91667,WYOMING,YODER,5682244
1160932,5377138,-105.18333,43.51667,WYOMING,WRIGHT,
1160953,5377496,-104.83333,44.75,WYOMING,NEW HAVEN,5682720
6510,38016,-106.7632,43.8018,WYOMING,KAYCEE,5682639
6510,38015,-106.65,43.8646,WYOMING,KAYCEE,5682639
6510,38014,-107.0,43.03,WYOMING,POWDER RIVER,5682604
6510,38013,-107.0235,44.35,WYOMING,BUFFALO,5682834
6510,38012,-107.0235,44.35,WYOMING,BUFFALO,5682834
6510,38011,-107.0235,44.35,WYOMING,BUFFALO,5682834
1161560,5332703,-104.23333000000001,41.31667,WYOMING,ALBIN,5682053
1161565,5332781,-104.9,42.05,WYOMING,WHEATLAND,5682201
1161568,5332784,-104.06667,41.21667,WYOMING,PINE BLUFFS,5682082
1161569,5332785,-104.48333000000001,43.38333,WYOMING,REDBIRD,5682701
31888,187213,-105.58,41.32,WYOMING,LARAMIE,5682072
31958,187479,-105.7997,43.7897,WYOMING,SAVAGETON,5682718
6375,37072,-104.7249,41.2016,WYOMING,CHEYENNE,5682009
77273,466583,-104.084,44.148999999999994,WYOMING,FOUR CORNERS,5682701
77273,466584,-104.11,44.07,WYOMING,FOUR CORNERS,5682701
77273,471122,-104.27,44.34,WYOMING,SUNDANCE,5682729
1162205,5337262,-106.31667,43.11667,WYOMING,CASPER,5682601
77273,471123,-104.32700000000001,44.356,WYOMING,SUNDANCE,5682729
1193987,5465762,-104.8167,41.48333,WYOMING,CHEYENNE,5682009
31547,185346,-105.1117,44.3617,WYOMING,ROZET,5682727
1194006,5464466,-104.2167,42.06667,WYOMING,TORRINGTON,5682240
1194012,5464472,-104.7,41.85,WYOMING,CHUGWATER,5682201
77272,466572,-104.325,44.299,WYOMING,SUNDANCE,5682729
77272,466573,-104.13799999999999,44.0774,WYOMING,FOUR CORNERS,5682701
77272,466575,-104.1423,44.0458,WYOMING,FOUR CORNERS,5682701
77272,471120,-104.68799999999999,44.501999999999995,WYOMING,DEVILS TOWER,5682729
77273,466578,-104.6881,44.5639,WYOMING,DEVILS TOWER,5682714
77273,466580,-104.38,44.41,WYOMING,SUNDANCE,5682729
29926,175365,-108.05,44.38,WYOMING,BASIN,5682410
29920,175278,-106.4255,42.8812,WYOMING,(CPR)NATRONA CO ARPT,5682604
29920,175272,-106.3373,43.113,WYOMING,BISHOP,5682601
29920,175269,-106.7523,44.0541,WYOMING,KAYCEE KUIPER ARPT,5682834
73354,449395,-106.2652,43.6886,WYOMING,SUSSEX,5682639
73354,449393,-107.571,44.1278,WYOMING,TEN SLEEP ARPT,5682442
73354,443248,-108.8266,44.328,WYOMING,MEETEETSE,
29980,175616,-108.4,43.65,WYOMING,THERMOPOLIS,5682443
73354,443248,-108.7217,44.3791,WYOMING,MEETEETSE,
73350,443216,-106.1581,44.2142,WYOMING,BUFFALO,5682834
73350,443214,-106.6178,43.7553,WYOMING,KAYCEE,5682639
73344,443106,-109.0994,44.5103,WYOMING,CODY,5682414
73341,443103,-108.47,44.88,WYOMING,COWLEY,5682420
73341,443099,-108.5023,44.7918,WYOMING,BYRON,5682431
73340,443097,-106.1993,43.6071,WYOMING,LINCH,5682640
73339,449377,-106.2652,43.6886,WYOMING,SUSSEX,5682639
73339,443092,-108.1576,43.861999999999995,WYOMING,WINCHESTER,5682401
1194020,5464480,-104.8167,41.56667,WYOMING,CHEYENNE,5682009
1194015,5464475,-105.5833,41.26667,WYOMING,LARAMIE,5682070
1194014,5464474,-104.8167,41.13333,WYOMING,CHEYENNE,5682001
1194014,5464474,-104.8167,41.18333,WYOMING,CHEYENNE,5682009
1194013,5464473,-104.7167,41.2,WYOMING,CHEYENNE,5682009
73350,443219,-106.6178,43.7553,WYOMING,KAYCEE,5682639
1159522,5368837,-105.23333000000001,41.13333,WYOMING,CHEYENNE,5682009
73879,453288,-108.3905,44.4972,WYOMING,EMBLEM,5682422
77271,466560,-104.6,44.68,WYOMING,HULETT,5682720
76885,463931,-104.115,44.648,WYOMING,ALADDIN,5682710
74307,449372,-104.22,43.85,WYOMING,NEWCASTLE,5682701
74305,449365,-104.5776,44.056000000000004,WYOMING,UPTON,5682730
74305,449362,-104.63,44.1,WYOMING,UPTON,5682730
1160008,5334625,-107.21667,43.66667,WYOMING,TEN SLEEP,5682442
1160009,5334626,-108.38333,43.03333,WYOMING,RIVERTON,5682501
1160010,5334846,-108.38333,43.03333,WYOMING,RIVERTON,5682501
1160011,5334847,-108.38333,43.03333,WYOMING,RIVERTON,5682501
1160012,5334848,-108.4,43.03333,WYOMING,RIVERTON,5682501
31217,183352,-104.3213,41.5433,WYOMING,MERIDEN,5682081
31217,187211,-104.4093,41.2298,WYOMING,HILLSDALE,5682053
1160013,5334849,-108.45,43.03333,WYOMING,RIVERTON,5682501
1160014,5334850,-108.46667,43.03333,WYOMING,RIVERTON,5682501
77111,465542,-105.5,44.3334,WYOMING,GILLETTE,5682716
74211,448797,-106.96,44.81,WYOMING,SHERIDAN,5682801
1132532,5283977,-104.18333,42.13333,WYOMING,TORRINGTON,5682240
1132529,5283974,-104.35,42.13333,WYOMING,LINGLE,5682223
1132528,5283973,-104.18333,42.16667,WYOMING,TORRINGTON,5682240
1132527,5283972,-104.18333,42.05,WYOMING,TORRINGTON,5682240
1132525,5283970,-104.48333000000001,41.41667,WYOMING,ALBIN,5682009
74204,448930,-104.17,41.7168,WYOMING,LA GRANGE,5682221
74204,448929,-104.1152,41.6709,WYOMING,LA GRANGE,5682221
74204,448929,-104.17,41.7168,WYOMING,LA GRANGE,5682221
74204,448708,-104.2091,41.3381,WYOMING,ALBIN,5682082
74204,448704,-104.16,41.64,WYOMING,LA GRANGE,5682221
74204,448697,-104.3413,41.8893,WYOMING,YODER,5682244
74204,448694,-104.2554,41.8398,WYOMING,YODER,5682244
76882,468894,-104.63,44.1,WYOMING,UPTON,5682730
76882,463929,-104.5129,43.9523,WYOMING,OSAGE,5682730
30127,176380,-108.9358,42.961999999999996,WYOMING,WIND RIVER,5682520
30127,176381,-108.6859,42.6975,WYOMING,SINKS CANYON SP,5682520
74492,450456,-104.7848,44.495,WYOMING,CARLILE,5682721
74488,450445,-104.7066,41.6579,WYOMING,CHUGWATER,5682210
74488,450443,-104.5178,42.2129,WYOMING,FORT LARAMIE,5682212
74468,450292,-105.49,43.76,WYOMING,WRIGHT,5682718
74458,450237,-105.7341,43.7468,WYOMING,SAVAGETON,5682718
74457,450224,-105.791,43.8665,WYOMING,SAVAGETON,5682718
74456,450219,-105.7324,44.2405,WYOMING,GILLETTE,5682716
74447,450166,-106.01,44.42,WYOMING,ECHETA,5682716
74439,450155,-105.12,44.1,WYOMING,ROZET,5682727
74439,450151,-105.3332,44.122,WYOMING,ROZET,5682718
74439,450150,-105.3638,44.0996,WYOMING,GILLETTE,5682718
7910,45442,-110.7529,43.4299,WYOMING,JACKSON,5683001
74438,450139,-104.749,44.415,WYOMING,KEYHOLE RESERVOIR,5682721
74204,448692,-104.5001,41.8484,WYOMING,VETERAN,5682244
74438,450134,-105.446,43.963,WYOMING,WRIGHT,5682718
74430,450102,-105.53,41.29,WYOMING,LARAMIE HOWE FLD,5682070
7910,45443,-110.7441,43.4598,WYOMING,JACKSON,5683001
7911,45445,-106.8174,43.42,WYOMING,MIDWEST,5682639
7911,45446,-106.32,42.83,WYOMING,CASPER,5682601
7911,45453,-106.4593,42.7278,WYOMING,CASPER,5682604
7911,45455,-106.4036,42.7687,WYOMING,CASPER,5682604
7911,45457,-106.32,42.7577,WYOMING,CASPER,5682601
7911,45460,-106.32,42.83,WYOMING,CASPER,5682601
7911,45461,-106.32,42.7577,WYOMING,CASPER,5682601
7911,47907,-106.32,42.5987,WYOMING,CASPER,5682604
7912,45481,-108.48299999999999,43.8545,WYOMING,THERMOPOLIS,
30127,176382,-108.6477,42.6555,WYOMING,MINERS DELIGHT,5682520
30127,176381,-108.7137,42.7123,WYOMING,SINKS CANYON SP,5682520
74430,450104,-105.58,41.31,WYOMING,LARAMIE,5682070
73879,453336,-106.8316,44.3631,WYOMING,BUFFALO ARPT,5682834
74204,448692,-104.5075,41.8477,WYOMING,VETERAN,5682244
74204,448690,-104.9838,42.0398,WYOMING,WHEATLAND,5682201
74072,448021,-104.18,42.1279,WYOMING,TORRINGTON,5682240
1213847,5518220,-104.1667,41.16667,WYOMING,PINE BLUFFS,5682082
74072,448019,-104.2959,42.1134,WYOMING,LINGLE,5682240
74072,448016,-104.35,42.14,WYOMING,LINGLE,5682223
1213849,5518222,-104.3,43.25,WYOMING,REDBIRD,5682225
74072,448015,-104.5185,42.2227,WYOMING,FORT LARAMIE,5682212
74072,448012,-104.3539,42.13,WYOMING,LINGLE,5682223
1213852,5518225,-104.1,41.41667,WYOMING,ALBIN,5682050
1213853,5518304,-104.0667,41.16667,WYOMING,PINE BLUFFS,5682082
74072,448011,-104.29,43.33,WYOMING,REDBIRD,5682225
1213855,5518306,-104.3667,41.26667,WYOMING,BURNS,5682053
1213856,5518307,-104.1,41.41667,WYOMING,ALBIN,5682050
1213858,5518309,-104.2833,41.0,WYOMING,CARPENTER,
1213859,5518310,-104.4833,41.41667,WYOMING,ALBIN,5682009
74072,448009,-104.42,42.14,WYOMING,BARNES,5682223
74072,448008,-104.3139,42.1411,WYOMING,LINGLE,5682223
74072,448007,-104.3463,42.1233,WYOMING,LINGLE,5682223
1213863,5518314,-104.3,43.1,WYOMING,REDBIRD,5682225
1213863,5518314,-104.2333,42.91667,WYOMING,REDBIRD,5682225
74072,448004,-104.4647,42.1791,WYOMING,FORT LARAMIE,5682212
74072,448002,-104.6035,42.8826,WYOMING,LUSK,5682227
1213868,5518319,-105.25,41.0,WYOMING,CHEYENNE,5682059
1213868,5518319,-105.2667,41.0,WYOMING,CHEYENNE,5682059
74072,448001,-104.6274,42.77,WYOMING,LUSK,5682227
1213875,5518328,-104.3667,41.18333,WYOMING,BURNS,5682053
77268,466537,-105.33,43.9,WYOMING,WRIGHT,5682718
77271,466559,-104.61399999999999,44.746,WYOMING,HULETT,5682720
74072,448022,-104.18,42.1134,WYOMING,TORRINGTON,5682240
1213845,5518218,-104.2167,41.91667,WYOMING,YODER,5682244
1213844,5518217,-104.8167,41.13333,WYOMING,CHEYENNE,5682001
1213844,5518217,-104.8167,41.06667,WYOMING,CHEYENNE,5682007
74204,448689,-104.96,42.05,WYOMING,WHEATLAND,5682201
74204,448688,-104.9652,41.9816,WYOMING,WHEATLAND,5682201
74204,448688,-104.97,41.9776,WYOMING,WHEATLAND,5682201
74204,448685,-105.009,42.05,WYOMING,WHEATLAND,5682201
74194,448653,-104.51,42.57,WYOMING,JAY EM,5682225
74146,448410,-104.6568,41.2528,WYOMING,CHEYENNE,5682009
74146,448407,-104.79,41.29,WYOMING,(CYS)CHEYENNE AIRPORT,5682009
74146,448406,-104.53,41.23,WYOMING,HILLSDALE,5682009
74146,448404,-104.875,41.295,WYOMING,(CYS)CHEYENNE AIRPORT,5682009
74144,448401,-104.6961,42.05,WYOMING,(EAN)WHEATLAND AIRPORT,5682201
74141,448381,-105.6156,41.3089,WYOMING,LARAMIE,5682070
74141,448379,-104.45,42.8713,WYOMING,LUSK,5682225
74139,448372,-104.38,41.97,WYOMING,VETERAN,5682243
74204,448691,-104.96,42.05,WYOMING,WHEATLAND,5682201
74138,448369,-104.75,42.27,WYOMING,GUERNSEY,5682214
1213834,5518207,-104.3833,41.88333,WYOMING,HAWK SPGS,5682244
74072,448038,-105.39,42.76,WYOMING,DOUGLAS,5682633
74072,448037,-105.2751,42.8761,WYOMING,DOUGLAS,5682633
74072,448034,-104.83,41.8803,WYOMING,CHUGWATER,5682201
1213838,5518211,-104.8167,41.01667,WYOMING,CHEYENNE,5682007
1213839,5518212,-104.4167,41.06667,WYOMING,CARPENTER,5682054
1213839,5518212,-104.3667,41.08333,WYOMING,CARPENTER,5682054
74072,448026,-104.18,42.07,WYOMING,TORRINGTON,5682240
74072,448025,-104.1731,42.0751,WYOMING,TORRINGTON,5682240
74072,448024,-104.1887,42.0769,WYOMING,TORRINGTON,5682240
74072,448023,-104.18,42.07,WYOMING,TORRINGTON,5682240
1213843,5518216,-104.3333,41.88333,WYOMING,YODER,5682244
1213843,5518216,-104.0333,42.01667,WYOMING,YODER,
1213834,5518207,-104.3333,41.88333,WYOMING,HAWK SPGS,5682244
86421,521505,-105.1432,42.1933,WYOMING,WHEATLAND,5682201
86421,521506,-105.262,41.14,WYOMING,CHEYENNE,5682009
38879,225725,-104.82,41.13,WYOMING,CHEYENNE,5682001
95873,575960,-108.7276,44.3234,WYOMING,MEETEETSE,5682433
95873,575961,-108.6424,44.0077,WYOMING,GRASS CREEK,5682443
95918,576299,-105.8,44.36,WYOMING,ECHETA,5682716
40764,237366,-107.16,44.91,WYOMING,RANCHESTER,5682839
40764,237367,-107.02,44.91,WYOMING,KLEENBURN,5682801
95919,576303,-105.28299999999999,43.973,WYOMING,WRIGHT,5682718
95919,576304,-104.92,43.93,WYOMING,UPTON,5682730
95920,576308,-105.096,44.92,WYOMING,ROCKYPOINT,5682731
95920,576309,-104.31700000000001,44.308,WYOMING,SUNDANCE,5682729
95921,576311,-105.365,43.84,WYOMING,WRIGHT,5682718
95921,576312,-104.18,43.9,WYOMING,NEWCASTLE,5682701
95932,576348,-105.3,44.64,WYOMING,WESTON,5682731
95932,576351,-105.26,44.66,WYOMING,WESTON,5682731
95932,576354,-104.633,44.74100000000001,WYOMING,HULETT,5682720
95932,576361,-104.81,44.36,WYOMING,PINE HAVEN,5682721
95932,576364,-105.167,44.18600000000001,WYOMING,ROZET,5682727
95932,576377,-105.2295,43.75,WYOMING,WRIGHT,
95944,576469,-105.7,44.99,WYOMING,RECLUSE,5682725
95945,576472,-104.81,44.36,WYOMING,PINE HAVEN,5682721
95946,576473,-104.13,44.856,WYOMING,COLONY,5657717
4812,27594,-105.7081,44.1164,WYOMING,GILLETTE,5682718
4812,27594,-105.7366,44.096000000000004,WYOMING,GILLETTE,5682718
95947,576475,-104.63,44.69,WYOMING,HULETT,5682720
95948,576479,-104.38,44.41,WYOMING,SUNDANCE,5682729
126271,757014,-107.42,44.02,WYOMING,TEN SLEEP,5682442
126271,757013,-106.8122,44.3832,WYOMING,BUFFALO,5682834
56899,340878,-105.5741,44.558,WYOMING,WESTON,5682716
95872,575957,-106.083,42.8581,WYOMING,FRY,5682636
126288,757034,-106.57,44.24,WYOMING,BUFFALO,5682834
126288,757034,-106.61,44.17,WYOMING,BUFFALO,5682834
126291,757049,-108.4474,44.0065,WYOMING,GRASS CREEK,5682401
20644,122743,-105.8705,43.72,WYOMING,WRIGHT,5682718
20606,122555,-104.368,44.6854,WYOMING,ALADDIN,5682711
20606,122554,-104.75,44.31,WYOMING,KEYHOLE RESERVOIR,5682721
20606,122552,-104.6,44.8247,WYOMING,HULETT,5682720
20605,122550,-105.07,44.92,WYOMING,LIGHTNING FLAT,5682721
20605,122546,-105.2,44.98,WYOMING,ROCKYPOINT,5682731
20605,122544,-105.33,44.9339,WYOMING,WESTON,5682731
95656,574570,-106.95,44.73,WYOMING,(SHR)SHERIDAN CO ARP,5682801
126402,757845,-106.28,43.42,WYOMING,MIDWEST,5682643
126402,757845,-106.25,43.42,WYOMING,EDGERTON,5682635
126401,757844,-108.6142,43.2155,WYOMING,PAVILLION,5682523
126401,757844,-108.4161,43.2114,WYOMING,MIDVALE,5682501
126400,757843,-106.1771,44.1949,WYOMING,BUFFALO,5682834
126271,756956,-108.9507,44.15,WYOMING,MEETEETSE,5682433
95808,575576,-106.5164,44.348,WYOMING,BUFFALO,5682834
126296,757068,-106.28,43.42,WYOMING,MIDWEST,5682643
126295,757065,-108.75,43.94,WYOMING,GRASS CREEK,5682443
4856,27812,-109.7815,44.4502,WYOMING,PAHASKA TEPEE,5682414
4856,27812,-109.7067,44.4281,WYOMING,PAHASKA TEPEE,5682414
4855,27811,-106.2,43.6,WYOMING,LINCH,5682640
126292,757052,-106.1294,43.5488,WYOMING,LINCH,5682640
126292,757052,-106.2,43.6,WYOMING,LINCH,5682640
40745,237165,-104.2157,43.1886,WYOMING,REDBIRD,5682225
126292,757051,-106.2776,43.485,WYOMING,MIDWEST,5682643
126292,757051,-106.28,43.42,WYOMING,MIDWEST,5682643
126291,757050,-106.5362,43.7902,WYOMING,KAYCEE,5682639
126291,757050,-106.62700000000001,43.7601,WYOMING,KAYCEE,5682639
126291,757049,-108.3533,44.0168,WYOMING,GEBO,5682401
95808,591483,-106.3285,44.3049,WYOMING,BUFFALO,5682834
20649,122755,-105.334,44.03,WYOMING,ROZET,5682718
126271,756956,-108.9389,44.1,WYOMING,PITCHFORK,5682433
1101535,5172215,-111.0,42.8,WYOMING,AUBURN,5683111
56416,338346,-104.7,43.6276,WYOMING,CLARETON,5682701
56416,338345,-104.9241,43.6802,WYOMING,ROCHELLE,5682701
1174477,5408486,-107.26666999999999,44.88333,WYOMING,DAYTON,5682839
126255,756852,-104.38,44.41,WYOMING,SUNDANCE,5682729
126255,756851,-104.3723,44.4234,WYOMING,SUNDANCE,5682729
126255,756850,-104.3227,44.3691,WYOMING,SUNDANCE,5682729
126255,756849,-104.38,44.41,WYOMING,SUNDANCE,5682729
126255,756847,-104.7922,44.4766,WYOMING,CARLILE,5682721
126255,756846,-104.8233,44.4499,WYOMING,CARLILE,5682721
126255,756845,-105.12,44.42,WYOMING,ROZET,5682727
126254,756843,-104.6,44.68,WYOMING,HULETT,5682720
126254,756842,-104.6,44.68,WYOMING,HULETT,5682720
56389,344576,-105.27,44.79,WYOMING,ROCKYPOINT,5682731
4777,27339,-105.2017,43.5258,WYOMING,WRIGHT,
4777,27338,-104.38,44.4,WYOMING,SUNDANCE,5682729
4777,27337,-104.3395,44.4,WYOMING,SUNDANCE,5682729
4777,27336,-104.38,44.4,WYOMING,SUNDANCE,5682729
4777,27332,-105.71,43.72,WYOMING,WRIGHT,5682718
4777,27331,-105.48,44.4101,WYOMING,GILLETTE,5682716
4777,27330,-105.6372,44.3924,WYOMING,GILLETTE,5682716
56389,338157,-105.02,44.71,WYOMING,NEW HAVEN,5682721
56389,338155,-105.1995,44.7855,WYOMING,ROCKYPOINT,5682731
126254,756840,-105.2548,44.6522,WYOMING,WESTON,5682731
126254,756839,-105.7,44.56,WYOMING,ECHETA,5682716
126254,756838,-105.9,44.9,WYOMING,RECLUSE,5682831
96304,578877,-106.99,44.82,WYOMING,FT MACKENZIE,5682801
41075,238920,-106.89,44.58,WYOMING,STORY,5682842
56418,338359,-105.2916,43.6993,WYOMING,WRIGHT,
56418,338361,-104.9146,43.6166,WYOMING,ROCHELLE,5682701
1174473,5408467,-106.95,44.8,WYOMING,SHERIDAN,5682801
1174473,5408466,-106.95,44.8,WYOMING,SHERIDAN,5682801
1101535,5172216,-111.0,42.8,WYOMING,AUBURN,5683111
56899,340875,-105.836,44.708,WYOMING,RECLUSE,5682716
1174359,5408443,-104.81667,41.1,WYOMING,CHEYENNE,5682007
1174359,5408443,-104.76666999999999,41.1,WYOMING,CHEYENNE,5682007
40991,238608,-104.68799999999999,44.5028,WYOMING,DEVILS TOWER,5682729
40991,238609,-104.4671,44.4359,WYOMING,SUNDANCE,5682729
40998,238639,-106.0202,44.1764,WYOMING,BUFFALO,5682834
40998,238639,-106.0222,44.1759,WYOMING,BUFFALO,5682834
41001,238641,-105.2253,44.4197,WYOMING,ROZET,5682727
41001,238641,-105.1041,44.3949,WYOMING,ROZET,5682727
41001,238643,-105.1428,44.3209,WYOMING,ROZET,5682727
41001,238644,-105.2077,44.4316,WYOMING,ROZET,5682727
41001,238646,-105.1285,44.3312,WYOMING,ROZET,5682727
1101532,5172212,-106.2,44.2,WYOMING,BUFFALO,5682834
41002,238647,-104.63,44.1,WYOMING,UPTON,5682730
41002,238649,-104.4,43.97,WYOMING,OSAGE,5682723
41002,238650,-104.4385,44.0369,WYOMING,OSAGE,5682730
41002,248508,-104.95,44.27,WYOMING,MOORCROFT,5682721
41004,238653,-104.0636,43.77,WYOMING,NEWCASTLE,5682701
41004,238653,-104.1684,43.8412,WYOMING,NEWCASTLE,5682701
1101628,5170118,-104.48333000000001,44.2,WYOMING,UPTON,5682729
1174472,5408464,-107.26666999999999,44.88333,WYOMING,DAYTON,5682839
1174473,5408465,-107.16667,44.91667,WYOMING,RANCHESTER,5682839
1101628,5170120,-104.21667,43.85,WYOMING,NEWCASTLE,5682701
1101629,5170122,-105.16667,43.71667,WYOMING,WRIGHT,5682718
1101629,5170123,-104.9,43.6,WYOMING,ROCHELLE,5682701
126255,765277,-104.0556,44.353,WYOMING,BEULAH,
126255,765277,-104.287,44.3206,WYOMING,SUNDANCE,5682729
41002,238648,-104.5914,44.1669,WYOMING,UPTON,5682730
41075,238921,-106.89,44.58,WYOMING,STORY,5682842
20651,122761,-104.9863,44.5966,WYOMING,OSHOTO,5682721
20651,122763,-104.7,44.4932,WYOMING,DEVILS TOWER,5682729
95242,572348,-108.7242,42.8353,WYOMING,LANDER,5682520
95242,572348,-108.7231,42.8427,WYOMING,LANDER,5682520
95242,572350,-108.3822,43.104,WYOMING,(RIW)RIVERTON RGNL A,5682501
95242,572350,-108.5132,43.0367,WYOMING,(RIW)RIVERTON RGNL A,5682501
95242,572407,-108.2109,42.7903,WYOMING,SAND DRAW,5682501
95264,572455,-110.9598,42.9737,WYOMING,STAR VALLEY RANCH,5683127
95264,572455,-110.9497,42.9765,WYOMING,STAR VALLEY RANCH,5683127
95264,572456,-110.9572,42.7458,WYOMING,AFTON,5683110
95264,572456,-110.9274,42.7241,WYOMING,AFTON MUNI ARPT,5683110
95295,572617,-108.1832,43.5171,WYOMING,EAST THERMOPOLIS,5682443
95295,572619,-106.5877,42.6739,WYOMING,BESSEMER BEND,5682604
95295,591458,-108.432,43.6793,WYOMING,RAIRDEN,5682443
95295,591465,-107.6911,43.3353,WYOMING,LYSITE,5682642
21125,124966,-106.6,44.64,WYOMING,ULM,5682835
21125,124964,-106.83,44.68,WYOMING,BANNER,5682801
21125,124963,-106.99,44.68,WYOMING,BIG HORN,5682801
21055,124501,-106.12,44.64,WYOMING,ARVADA,5682831
21055,124500,-106.11,44.63,WYOMING,ARVADA,5682831
1173893,5407400,-108.85,44.68333,WYOMING,RALSTON,5682435
1173894,5407401,-110.9,42.61667,WYOMING,SMOOT,5683126
1099218,5163487,-105.61667,44.38333,WYOMING,GILLETTE,5682716
1099218,5163488,-104.43333,44.68333,WYOMING,ALVA,5682711
1099221,5176429,-105.7,45.0,WYOMING,RECLUSE,5682725
1099221,5176430,-105.3,44.9,WYOMING,ROCKYPOINT,5682731
1099221,5176431,-105.1,44.93333,WYOMING,NEW HAVEN,5682731
1099221,5176432,-105.1,44.93333,WYOMING,NEW HAVEN,5682731
1099221,5176520,-104.33333,45.01667,WYOMING,COLONY,
95216,572176,-107.859,44.6392,WYOMING,SHELL,5682441
95215,572171,-106.3707,44.3973,WYOMING,BUFFALO,5682834
95215,572171,-106.3707,44.411,WYOMING,BUFFALO,5682834
95213,572145,-104.12,41.74,WYOMING,WYCROSS,5682217
1098762,5164075,-104.81667,41.25,WYOMING,CHEYENNE,5682009
1098768,5164081,-104.06667,41.16667,WYOMING,PINE BLUFFS,5682082
1098769,5164082,-104.28333,40.96667,WYOMING,CARPENTER,
1098774,5164166,-104.83333,42.05,WYOMING,WHEATLAND,5682201
1098775,5164167,-104.55,41.78333,WYOMING,HAWK SPGS,5682210
1098776,5164168,-104.73333000000001,42.26667,WYOMING,GUERNSEY,5682214
1098777,5164368,-104.51666999999999,41.78333,WYOMING,HAWK SPGS,5682244
1098778,5164369,-104.06667,41.1,WYOMING,PINE BLUFFS,5682082
1098779,5164370,-104.06667,41.16667,WYOMING,PINE BLUFFS,5682082
1098784,5164375,-104.36667,41.03333,WYOMING,CARPENTER,5682054
1098785,5164376,-105.18333,41.41667,WYOMING,HORSE CREEK,5682061
1098786,5164377,-104.9,42.1,WYOMING,WHEATLAND,5682201
1098787,5164378,-105.16667,42.4,WYOMING,GLENDO,5682213
1099225,5176536,-105.2,44.2,WYOMING,ROZET,5682727
1098788,5164379,-104.78333,41.16667,WYOMING,CHEYENNE,5682009
1150431,5352345,-104.28333,40.96667,WYOMING,CARPENTER,
1150430,5352344,-104.56667,41.03333,WYOMING,CARPENTER,5682054
1150429,5352343,-104.81667,40.96667,WYOMING,CHEYENNE,
1150426,5352340,-104.16667,42.46667,WYOMING,JAY EM,5682240
95203,572062,-104.85,43.25,WYOMING,WEST LANCE CREEK,5682633
1098911,5164229,-104.25,41.63333,WYOMING,LA GRANGE,5682221
1098913,5164524,-104.61667,42.76667,WYOMING,MANVILLE,5682227
95209,572080,-105.84299999999999,41.5357,WYOMING,BOSLER,
95209,572080,-105.8466,41.5392,WYOMING,COOPER LAKE,
95210,572101,-104.211,41.919,WYOMING,HUNTLEY,5682244
95210,572101,-104.15,42.053999999999995,WYOMING,(TOR)TORRINGTON AIRPORT,5682240
95210,572361,-104.46,41.74,WYOMING,FONDA,5682244
95210,572362,-104.18,41.9442,WYOMING,TORRINGTON,5682240
1150432,5352346,-104.63333,41.26667,WYOMING,CHEYENNE,5682009
20651,122762,-104.869,44.58,WYOMING,OSHOTO,5682721
1099225,5176539,-105.18333,43.51667,WYOMING,WRIGHT,
1099225,5176540,-104.4,43.96667,WYOMING,UPTON,5682723
20851,123647,-105.3286,44.1672,WYOMING,GILLETTE,5682718
20851,123646,-104.32,44.77,WYOMING,ALVA,5682710
1173896,5407403,-108.8,41.68333,WYOMING,POINT OF ROCKS,5682942
20851,123644,-104.4453,44.92,WYOMING,COLONY,5682720
20851,123643,-105.2,44.98,WYOMING,ROCKYPOINT,5682731
1173898,5407405,-107.96667,44.01667,WYOMING,WORLAND,5682401
1173899,5406553,-109.18333,43.31667,WYOMING,CROWHEART,5682512
1173900,5406554,-109.7,42.7,WYOMING,NEW FORK,5682923
1173901,5406555,-109.46667,41.51667,WYOMING,GREEN RIVER,5682935
20851,123642,-104.2578,44.9609,WYOMING,COLONY,5657717
1121974,5263395,-110.16667,42.58333,WYOMING,BIG PINEY,5683113
1121973,5265709,-110.23333000000001,42.63333,WYOMING,BIG PINEY,5683113
1121972,5265708,-108.51666999999999,43.88333,WYOMING,THERMOPOLIS,
1206452,5498040,-105.1333,41.23333,WYOMING,CHEYENNE,5682009
4866,29776,-104.63799999999999,42.0415,WYOMING,LINGLE,5682244
20683,122812,-104.0499,43.7272,WYOMING,NEWCASTLE,
20673,122797,-105.602,43.521,WYOMING,PINE TREE JCT,5682718
20657,122768,-105.8439,44.6277,WYOMING,RECLUSE,5682716
20655,122767,-104.7479,44.27,WYOMING,MOORCROFT,5682721
126533,758460,-106.77,44.48,WYOMING,LAKE DE SMET,5682834
126530,758426,-106.47,42.9,WYOMING,(CPR)NATRONA CO ARPT,5682604
126529,758425,-106.1771,44.1949,WYOMING,BUFFALO,5682834
126528,758422,-106.7,44.1619,WYOMING,BUFFALO,5682834
126528,758422,-106.0801,43.6,WYOMING,LINCH,5682640
126527,758414,-109.6017,42.75,WYOMING,BOULDER,5682923
20655,122766,-104.95,44.3568,WYOMING,MOORCROFT,5682721
20653,122764,-105.836,44.708,WYOMING,RECLUSE,5682716
20851,123648,-105.1,44.2084,WYOMING,ROZET,5682727
20851,123649,-105.0144,44.147,WYOMING,ROZET,
20851,123650,-105.2,44.98,WYOMING,ROCKYPOINT,5682731
20851,123653,-105.0891,44.9031,WYOMING,LIGHTNING FLAT,5682731
20947,124058,-106.58,44.64,WYOMING,ULM,5682835
1099230,5176176,-105.48333000000001,44.43333,WYOMING,GILLETTE,5682716
1099230,5176177,-104.38333,44.21667,WYOMING,SUNDANCE,5682729
1099232,5176550,-104.18333,44.1,WYOMING,FOUR CORNERS,5682701
1099232,5176551,-104.23333000000001,44.13333,WYOMING,FOUR CORNERS,5682729
1099232,5176552,-104.21667,44.28333,WYOMING,SUNDANCE,5682729
1099236,5176569,-104.95,44.26667,WYOMING,MOORCROFT,5682721
1099236,5176570,-105.13333,44.33333,WYOMING,ROZET,5682727
20947,124057,-106.84,44.63,WYOMING,BANNER,5682832
20947,124056,-106.89,44.58,WYOMING,STORY,5682842
20947,124055,-106.89,44.58,WYOMING,STORY,5682842
20891,123846,-105.2014,43.5256,WYOMING,WRIGHT,
20868,123761,-104.4061,44.5919,WYOMING,ALVA,5682710
1099225,5176540,-104.63333,43.93333,WYOMING,UPTON,5682730
95342,572901,-104.26,41.07,WYOMING,CARPENTER,5682054
95352,573006,-104.6,42.36,WYOMING,FORT LARAMIE,5682212
20854,123672,-104.38,44.4,WYOMING,SUNDANCE,5682729
20852,123651,-104.73,42.6029,WYOMING,GUERNSEY,5682213
20851,123730,-105.0144,44.147,WYOMING,ROZET,
20851,123728,-105.0437,44.7645,WYOMING,NEW HAVEN,5682721
20851,123664,-104.3692,44.1775,WYOMING,UPTON,5682723
1173895,5407402,-110.53333,41.78333,WYOMING,DIAMONDVILLE,5683116
20851,123662,-104.5231,44.2977,WYOMING,SUNDANCE,5682729
20851,123662,-104.5517,44.2772,WYOMING,SUNDANCE,5682729
20851,123661,-104.7,44.58,WYOMING,DEVILS TOWER,5682714
20851,123660,-104.08,44.53,WYOMING,BEULAH,5682712
20851,123657,-104.08,44.53,WYOMING,BEULAH,5682712
20851,123655,-104.18,44.63,WYOMING,ALADDIN,5682710
95342,572903,-104.45,42.76,WYOMING,LUSK,5682225
1098761,5164074,-104.45,42.75,WYOMING,LUSK,5682225
41075,238922,-106.89,44.58,WYOMING,STORY,5682842
41075,238924,-107.02,44.91,WYOMING,KLEENBURN,5682801
1120371,5260393,-105.43333,44.31667,WYOMING,GILLETTE,5682716
1120371,5260393,-105.41667,44.33333,WYOMING,GILLETTE,5682716
1120371,5260392,-105.41667,44.33333,WYOMING,GILLETTE,5682716
1120371,5260392,-105.43333,44.31667,WYOMING,GILLETTE,5682716
1120366,5260383,-105.13333,44.63333,WYOMING,WESTON,5682731
1120364,5260381,-104.63333,44.58333,WYOMING,DEVILS TOWER,5682720
1120314,5260147,-105.46667,43.6,WYOMING,WRIGHT,5682718
1120312,5260053,-105.1,44.28333,WYOMING,ROZET,5682727
1120305,5260042,-104.65,44.55,WYOMING,DEVILS TOWER,5682714
1120305,5260041,-104.7,44.58333,WYOMING,DEVILS TOWER,5682714
1120305,5260040,-104.83333,44.75,WYOMING,NEW HAVEN,5682720
1120299,5260033,-104.63333,43.55,WYOMING,NEWCASTLE,5682701
1120296,5260030,-104.7,43.7,WYOMING,CLARETON,5682701
4420,26505,-105.5204,44.28,WYOMING,GILLETTE,5682718
1120295,5260029,-104.9,43.6,WYOMING,ROCHELLE,5682701
1120291,5260023,-105.1,44.16667,WYOMING,MOORCROFT,5682727
1120281,5260435,-104.8,44.05,WYOMING,UPTON,5682730
1120281,5259931,-104.41667,43.7,WYOMING,NEWCASTLE,5682701
1120280,5260434,-104.4,43.96667,WYOMING,OSAGE,5682723
1120280,5260433,-105.08333,44.28333,WYOMING,ROZET,5682721
1120280,5260432,-105.08333,44.26667,WYOMING,MOORCROFT,5682721
1120280,5260431,-104.63333,44.1,WYOMING,UPTON,5682730
1120279,5260430,-104.78333,44.38333,WYOMING,MOORCROFT,5682721
1175135,5411424,-108.7,44.03333,WYOMING,GRASS CREEK,5682443
1175136,5411425,-106.33333,42.86667,WYOMING,CASPER,5682601
1175137,5411426,-106.31667,42.83333,WYOMING,CASPER,5682601
1175138,5411427,-108.2,43.65,WYOMING,THERMOPOLIS,5682443
1120374,5260397,-104.83333,44.75,WYOMING,NEW HAVEN,5682720
1120417,5260796,-104.38333,44.3,WYOMING,SUNDANCE,5682729
4420,26506,-105.48,44.28,WYOMING,GILLETTE,5682716
4420,26508,-104.2,44.92,WYOMING,COLONY,5657717
1218753,5529571,-106.4667,42.83333,WYOMING,CASPER,5682604
1188911,5446409,-104.61667,41.13333,WYOMING,CHEYENNE,5682007
1188910,5446408,-104.8,41.1,WYOMING,CHEYENNE,5682007
1188909,5446407,-105.41667,41.26667,WYOMING,LARAMIE,
125300,751516,-104.1333,44.7202,WYOMING,ALADDIN,5682710
125299,751512,-105.69,44.08,WYOMING,SAVAGETON,5682718
125295,751506,-105.79,44.35,WYOMING,ECHETA,5682716
125295,751505,-105.5852,44.4371,WYOMING,GILLETTE,5682716
4468,25290,-108.48,44.8,WYOMING,BYRON,5682431
4468,25289,-108.273,44.5,WYOMING,GREYBULL,5682426
4468,25288,-108.4022,43.8664,WYOMING,KIRBY,5682443
4466,25285,-106.6783,42.6007,WYOMING,ALCOVA,5682604
4466,25285,-106.72,42.57,WYOMING,ALCOVA,5682620
1175139,5411428,-106.2,42.83333,WYOMING,CASPER,5682609
1120436,5260915,-104.83333,43.7,WYOMING,CLARETON,5682701
1120422,5260802,-105.81667,44.91667,WYOMING,RECLUSE,5682725
1120421,5260801,-104.7,44.58333,WYOMING,DEVILS TOWER,5682714
1120420,5260800,-105.7,44.73333,WYOMING,RECLUSE,5682716
1120419,5260799,-105.18333,44.73333,WYOMING,WESTON,5682731
1120418,5260798,-105.21667,44.71667,WYOMING,WESTON,5682731
1120417,5260797,-104.38333,44.4,WYOMING,SUNDANCE,5682729
1120417,5260796,-104.38333,44.33333,WYOMING,SUNDANCE,5682729
125282,751455,-104.7922,44.4766,WYOMING,CARLILE,5682721
1175130,5411419,-106.38333,42.88333,WYOMING,CASPER,5682601
1175134,5411423,-110.2,41.96667,WYOMING,FONTENELLE,
4420,40501,-105.24,44.17,WYOMING,ROZET,5682718
4420,40497,-105.6,44.16,WYOMING,GILLETTE,5682718
4420,40497,-105.55,44.2,WYOMING,GILLETTE,5682718
1120423,5260804,-105.48333000000001,44.88333,WYOMING,RECLUSE,5682731
1218752,5529570,-106.6833,43.41667,WYOMING,MIDWEST,5682639
125279,751453,-104.6188,44.6855,WYOMING,HULETT,5682720
1104673,5166531,-105.31667,41.11667,WYOMING,LARAMIE,5682052
97682,587465,-105.7304,43.75,WYOMING,WRIGHT,5682718
97682,587466,-105.27,43.54,WYOMING,WRIGHT,5682718
125010,749700,-106.99,44.68,WYOMING,BIG HORN,5682801
97729,596393,-108.1564,41.6651,WYOMING,RED DESERT,5682336
97731,587694,-104.95,42.4118,WYOMING,WHEATLAND,5682213
97731,587695,-105.2223,42.76,WYOMING,DOUGLAS,5682633
97731,587696,-104.8,42.5,WYOMING,MEADOWDALE,5682213
124991,749641,-106.3082,42.8483,WYOMING,CASPER,5682601
54948,330280,-110.5,44.73,WYOMING,CANYON,5682190
54947,332736,-110.9843,42.7604,WYOMING,AUBURN,5683110
54947,332735,-110.9338,42.7932,WYOMING,GROVER,5683122
54947,330278,-110.95299999999999,42.7376,WYOMING,AFTON MUNI ARPT,5683110
54947,330278,-110.929,42.7228,WYOMING,AFTON MUNI ARPT,5683110
54947,330277,-110.9379,42.8955,WYOMING,BEDFORD,5683112
54946,330274,-106.2,43.6,WYOMING,LINCH,5682640
54946,330273,-108.1863,43.7077,WYOMING,LUCERNE,5682443
54946,330272,-108.1755,43.75,WYOMING,LUCERNE,5682443
54915,329953,-106.12100000000001,44.4934,WYOMING,BUFFALO,5682831
54913,329949,-108.7397,43.9293,WYOMING,GRASS CREEK,5682443
124991,749641,-106.4056,42.8218,WYOMING,RED BUTTES VILLAGE,5682604
124991,749640,-106.98,42.55,WYOMING,INDEPENDENCE ROCK,5682620
1175588,5412451,-104.7,44.38333,WYOMING,KEYHOLE RESERVOIR,5682721
1175589,5412453,-105.48333000000001,44.38333,WYOMING,GILLETTE,5682716
1219085,5530048,-105.4833,44.4,WYOMING,GILLETTE,5682716
1219086,5530287,-105.4167,44.28333,WYOMING,GILLETTE,5682718
1219087,5530290,-105.55,44.23333,WYOMING,GILLETTE,5682718
1219088,5530292,-104.5667,44.26667,WYOMING,SUNDANCE,5682729
97677,590304,-104.18,44.64,WYOMING,ALADDIN,5682710
97677,587456,-104.565,44.85,WYOMING,HULETT,5682720
55076,330966,-104.8735,44.3523,WYOMING,KEYHOLE RESERVOIR,5682721
55076,330968,-104.95,44.27,WYOMING,MOORCROFT,5682721
97665,587422,-105.5,44.3913,WYOMING,GILLETTE,5682716
97665,587423,-105.5,44.3479,WYOMING,GILLETTE,5682716
97665,587429,-105.04,44.9,WYOMING,LIGHTNING FLAT,5682721
97665,587430,-105.0375,44.8588,WYOMING,LIGHTNING FLAT,5682721
97665,590282,-105.4458,44.3836,WYOMING,GILLETTE,5682716
97666,587424,-105.68,44.15,WYOMING,GILLETTE,5682718
97666,587425,-105.334,44.03,WYOMING,ROZET,5682718
55146,331338,-104.3413,44.3331,WYOMING,SUNDANCE,5682729
42334,247092,-105.81299999999999,44.7632,WYOMING,RECLUSE,5682725
42334,247095,-105.59,44.82,WYOMING,RECLUSE,5682725
42334,247097,-105.1781,44.7663,WYOMING,ROCKYPOINT,5682731
97666,587426,-104.928,43.931000000000004,WYOMING,UPTON,5682730
97666,587427,-104.86,44.1,WYOMING,UPTON,5682730
1104672,5166530,-105.36667,41.15,WYOMING,LARAMIE,5682052
42334,247102,-104.7519,44.8837,WYOMING,NEW HAVEN,5682720
42334,247111,-104.6624,44.787,WYOMING,HULETT,5682720
42334,247188,-104.56,44.9,WYOMING,HULETT,5682720
42334,247211,-104.3598,44.8003,WYOMING,ALVA,5682710
42334,247222,-104.12,44.85,WYOMING,COLONY,5657717
42334,259409,-104.6,44.92,WYOMING,NEW HAVEN,5682720
42334,259452,-105.2674,44.7878,WYOMING,ROCKYPOINT,5682731
97666,587428,-104.22,43.85,WYOMING,NEWCASTLE,5682701
97667,587431,-105.49,44.8,WYOMING,RECLUSE,5682731
97676,587449,-105.167,44.18600000000001,WYOMING,ROZET,5682727
97676,587450,-104.86,44.1,WYOMING,UPTON,5682730
55089,331025,-104.55,44.24,WYOMING,SUNDANCE,5682730
55089,331024,-104.6697,44.3531,WYOMING,MOORCROFT,5682721
97677,587453,-105.04700000000001,44.992,WYOMING,LIGHTNING FLAT,5682721
42334,247110,-104.83,44.75,WYOMING,NEW HAVEN,5682720
41075,238923,-107.16,44.91,WYOMING,RANCHESTER,5682839
1188912,5446410,-104.43333,41.13333,WYOMING,CHEYENNE,5682053
1188915,5446413,-104.26666999999999,41.41667,WYOMING,ALBIN,5682050
97127,584151,-104.18,42.06,WYOMING,TORRINGTON,5682240
97127,584152,-104.8378,42.27,WYOMING,GUERNSEY,5682214
97127,584158,-104.3182,41.79,WYOMING,HAWK SPRINGS,5682244
97127,584160,-104.26,41.7466,WYOMING,HAWK SPRINGS,5682217
1103235,5157113,-107.78333,42.5,WYOMING,JEFFREY CITY,5682520
41187,239678,-105.5041,44.3869,WYOMING,(GCC)GILLETTE ARPT,5682716
41187,239679,-105.5247,44.4377,WYOMING,(GCC)GILLETTE ARPT,5682716
41187,239682,-105.1266,44.63,WYOMING,WESTON,5682731
41187,239684,-105.0147,44.7125,WYOMING,NEW HAVEN,5682721
41187,239686,-104.9219,44.7667,WYOMING,NEW HAVEN,5682720
41189,239690,-105.45,44.16,WYOMING,GILLETTE,5682718
41189,239692,-104.8719,44.1,WYOMING,UPTON,5682730
41190,239697,-104.22,43.85,WYOMING,NEWCASTLE,5682701
41190,239697,-104.1273,43.8223,WYOMING,NEWCASTLE,5682701
41198,239730,-105.23,44.94,WYOMING,ROCKYPOINT,5682731
41198,239731,-105.05,44.99,WYOMING,LIGHTNING FLAT,5682721
41238,239940,-104.4851,44.7402,WYOMING,ALVA,5682711
41257,241208,-109.15,44.88,WYOMING,CLARK,5682435
97261,584825,-104.928,43.931000000000004,WYOMING,UPTON,5682730
97261,584826,-104.27,43.67,WYOMING,NEWCASTLE,5682701
97261,584828,-104.19,43.636,WYOMING,NEWCASTLE,5682701
97261,584830,-104.12700000000001,43.696000000000005,WYOMING,NEWCASTLE,5682701
97263,584832,-104.0838,44.1491,WYOMING,FOUR CORNERS,5682701
97264,584850,-104.3405,44.8154,WYOMING,ALVA,5682710
97399,585947,-104.28,41.16,WYOMING,EGBERT,5682053
41406,241233,-108.87,44.15,WYOMING,MEETEETSE,5682433
41406,241248,-106.8142,44.5572,WYOMING,LAKE DE SMET,5682832
97127,584149,-105.12,42.3395,WYOMING,GLENDO,5682201
97127,584148,-104.74,42.3424,WYOMING,GUERNSEY,5682215
97127,584147,-104.7792,41.1707,WYOMING,CHEYENNE,5682009
97127,584146,-104.38,42.0034,WYOMING,VETERAN,5682243
126239,756724,-105.32,43.88,WYOMING,WRIGHT,5682718
126239,756723,-105.28,43.97,WYOMING,WRIGHT,5682718
126238,756721,-105.4458,44.3836,WYOMING,GILLETTE,5682716
126238,756720,-105.5,44.29,WYOMING,GILLETTE,5682716
1217969,5525962,-104.6667,43.25,WYOMING,LANCE CREEK,5682222
1217976,5525969,-105.2,42.38333,WYOMING,GLENDO,5682213
1217978,5525971,-105.35,42.48333,WYOMING,ESTERBROOK,5682633
96792,582360,-105.9612,42.8323,WYOMING,GLENROCK,5682637
96792,582363,-105.5474,42.8828,WYOMING,DOUGLAS,5682633
96792,582364,-104.5895,42.8623,WYOMING,LUSK,5682227
96792,582366,-104.4489,43.24,WYOMING,REDBIRD,5682225
96795,582405,-105.5544,41.2989,WYOMING,LARAMIE,5682070
96795,582406,-105.5491,41.2793,WYOMING,LARAMIE,5682070
41406,241249,-106.8284,44.5338,WYOMING,SADDLESTRING,5682832
96795,582408,-105.46,41.05,WYOMING,HERMOSA,5682084
96797,582415,-105.3,41.7,WYOMING,BOSLER,5682201
96797,582416,-105.26,41.19,WYOMING,BUFORD,5682009
96797,582417,-105.1398,41.2397,WYOMING,CHEYENNE,5682009
96797,582418,-105.1467,41.14,WYOMING,CHEYENNE,5682009
96800,582436,-104.48,41.61,WYOMING,WYCROSS,5682221
96805,582477,-104.2,43.45,WYOMING,RIVERVIEW,5682701
96805,582479,-105.0714,43.23,WYOMING,BILL,5682633
96808,582498,-104.45,42.76,WYOMING,LUSK,5682225
97127,584110,-105.7151,42.76,WYOMING,DOUGLAS,5682637
97127,584114,-105.7743,42.76,WYOMING,DOUGLAS,5682637
97127,584114,-105.7545,42.76,WYOMING,DOUGLAS,5682637
97127,584117,-104.52,42.04,WYOMING,ROCKEAGLE,5682244
97127,584145,-105.03,42.5,WYOMING,GLENDO,5682213
96797,582414,-105.35,41.86,WYOMING,GARRETT,5682201
1188912,5446410,-104.46667,41.13333,WYOMING,CHEYENNE,5682053
41409,241264,-107.2,43.0628,WYOMING,WALTMAN,5682604
97399,585950,-105.0189,42.1012,WYOMING,WHEATLAND,5682201
97457,586385,-105.7293,43.3685,WYOMING,BILL,5682633
97457,586389,-105.568,43.23,WYOMING,BILL,5682633
97457,586395,-105.1427,42.934,WYOMING,DOUGLAS,5682633
125782,771193,-107.1149,44.042,WYOMING,MAYOWORTH,5682834
125782,771193,-107.1061,44.0285,WYOMING,MAYOWORTH,5682834
125782,771191,-107.1319,44.0043,WYOMING,TEN SLEEP,5682442
125782,771191,-107.1501,43.9988,WYOMING,TEN SLEEP,5682442
125782,754359,-107.32,43.81,WYOMING,TEN SLEEP,
125782,754358,-108.17,43.87,WYOMING,WINCHESTER,5682401
125756,754212,-107.8494,44.83,WYOMING,LOVELL,5682431
125730,754012,-108.7514,42.3367,WYOMING,SOUTH PASS,
125730,754012,-108.758,42.3314,WYOMING,SOUTH PASS,
125730,754010,-109.8652,41.6086,WYOMING,WESTVACO,
125730,754010,-109.9419,41.5959,WYOMING,GRANGER,
97457,586400,-104.7423,42.7456,WYOMING,KEELINE,5682227
97457,586401,-104.53,42.52,WYOMING,JAY EM,5682219
97457,586438,-104.82,42.04,WYOMING,CHUGCREEK,5682201
97457,586553,-104.5016,41.6883,WYOMING,HAWK SPRINGS,5682221
97457,586553,-104.5288,41.7069,WYOMING,HAWK SPRINGS,5682210
97457,586578,-104.6424,41.1954,WYOMING,CHEYENNE,5682009
97457,586579,-104.5894,41.14,WYOMING,CHEYENNE,5682007
97483,586581,-104.18,42.06,WYOMING,TORRINGTON,5682240
97489,586594,-104.51,41.575,WYOMING,WYCROSS,5682221
97492,586602,-104.647,41.14,WYOMING,CHEYENNE,5682007
97492,586606,-104.9,41.64,WYOMING,IRON MOUNTAIN,5682009
1188916,5446414,-104.21667,41.91667,WYOMING,YODER,5682244
1188915,5446413,-104.33333,41.41667,WYOMING,ALBIN,5682050
97457,586380,-105.0,43.4,WYOMING,BILL,5682633
97419,586137,-104.34,41.01,WYOMING,CARPENTER,5682054
97419,586134,-104.3464,41.2002,WYOMING,BURNS,5682053
97418,586128,-104.55,42.09,WYOMING,ROCKEAGLE,5682212
97399,585952,-104.95,42.05,WYOMING,WHEATLAND,5682201
97399,585956,-104.95,41.95,WYOMING,FERGUSON CORNER,5682201
41543,242132,-106.31,44.59,WYOMING,CLEARMONT,5682835
41640,242641,-104.97,42.1079,WYOMING,WHEATLAND,5682201
41643,242653,-104.54,43.09,WYOMING,LANCE CREEK,5682222
41643,242655,-104.35,43.09,WYOMING,HAT CREEK,5682225
97399,585957,-104.95,41.9342,WYOMING,WHEATLAND,5682201
97399,585959,-105.0327,41.9886,WYOMING,WHEATLAND,5682201
97399,585964,-104.8795,41.867,WYOMING,CHUGWATER,5682201
97399,585966,-104.82,41.76,WYOMING,CHUGWATER,5682210
97399,585972,-104.7424,41.76,WYOMING,CHUGWATER,5682210
97399,585977,-104.68,41.65,WYOMING,MERIDEN,5682009
97399,585978,-104.68,41.55,WYOMING,MERIDEN,5682009
41409,241267,-106.9266,43.6873,WYOMING,BARNUM,5682639
97399,585979,-104.79,41.305,WYOMING,(CYS)CHEYENNE AIRPORT,5682009
97399,585981,-104.7239,41.14,WYOMING,CHEYENNE,5682007
97399,585982,-104.36,41.19,WYOMING,BURNS,5682053
97402,586003,-106.0244,41.9009,WYOMING,(MBW)MEDICINE BOW AIRPORT,5682083
97402,586003,-106.0444,41.9,WYOMING,MEDICINE BOW,5682083
97402,586007,-105.2424,42.05,WYOMING,WHEATLAND,5682201
97404,586015,-104.82,41.5742,WYOMING,CHEYENNE,5682009
97404,586016,-104.26,41.6887,WYOMING,HAWK SPRINGS,5682221
97404,586017,-104.17,41.7,WYOMING,WYCROSS,5682221
97404,586018,-104.3,41.92,WYOMING,YODER,5682244
97404,586019,-104.3413,41.8893,WYOMING,YODER,5682244
97404,586020,-104.28200000000001,41.9145,WYOMING,YODER,5682244
97416,586123,-105.2115,41.8556,WYOMING,WHEATLAND,5682201
97418,586127,-104.81,41.1,WYOMING,SOUTH GREELEY,5682007
97399,585980,-104.7243,41.3138,WYOMING,CHEYENNE,5682009
1150433,5352347,-104.61667,41.13333,WYOMING,CHEYENNE,5682007
1150434,5352348,-104.91667,41.13333,WYOMING,CHEYENNE,5682009
1098658,5153892,-106.31667,42.83333,WYOMING,CASPER,5682601
39325,228476,-104.3524,42.8416,WYOMING,LUSK,5682225
39325,228479,-104.18,42.2147,WYOMING,TORRINGTON,5682240
39325,228482,-104.17,41.63,WYOMING,LA GRANGE,5682221
63259,378774,-104.18,42.07,WYOMING,TORRINGTON,5682240
63259,378773,-104.18,42.07,WYOMING,TORRINGTON,5682240
87239,526536,-104.5342,41.3549,WYOMING,CHEYENNE,5682009
87239,526538,-104.4088,41.42,WYOMING,ALBIN,5682009
87239,526539,-104.3702,41.42,WYOMING,ALBIN,5682050
87239,526540,-104.3702,41.42,WYOMING,ALBIN,5682050
87239,526541,-104.2737,41.42,WYOMING,ALBIN,5682050
87239,526546,-105.4234,41.0173,WYOMING,DALE CREEK,5682070
87239,526547,-104.8573,41.0791,WYOMING,ORCHARD VALLY,5682007
87239,526549,-104.7807,41.1381,WYOMING,CHEYENNE,5682001
87239,526550,-104.79,41.2,WYOMING,(CYS)CHEYENNE AIRPORT,5682009
87239,526551,-104.72,41.17,WYOMING,ARCHER,5682009
87239,526552,-104.75,41.18,WYOMING,(CYS)CHEYENNE AIRPORT,5682009
87239,526553,-104.72,41.2,WYOMING,ARCHER,5682009
87239,526554,-104.48,41.26,WYOMING,HILLSDALE,5682060
87264,526614,-105.04,41.67,WYOMING,DIAMOND,5682210
87264,526616,-104.2377,41.0979,WYOMING,BURNS,5682054
87264,526617,-104.27,43.39,WYOMING,RIVERVIEW,5682701
87268,526632,-104.82,41.883,WYOMING,CHUGWATER,5682201
87268,526633,-104.3413,41.8893,WYOMING,YODER,5682244
87268,526634,-104.37,41.05,WYOMING,CARPENTER,5682054
87268,526636,-104.2246,43.3826,WYOMING,RIVERVIEW,5682701
87268,526640,-104.1215,41.0864,WYOMING,PINE BLUFFS,5682082
87272,526653,-104.82,41.2413,WYOMING,CHEYENNE,5682009
39325,228474,-104.1,42.7424,WYOMING,VAN TASSELL,5682242
39325,228473,-104.7104,42.32,WYOMING,HARTVILLE,5682214
39325,228472,-104.7075,42.3101,WYOMING,GUERNSEY,5682214
87239,526526,-104.6159,41.2935,WYOMING,CHEYENNE,5682009
87239,526507,-104.956,41.2423,WYOMING,CHEYENNE,5682009
1170642,5398029,-106.76666999999999,44.46667,WYOMING,BUFFALO,5682834
1170642,5398029,-106.7,44.35,WYOMING,BUFFALO,5682834
1170643,5398220,-106.7,44.35,WYOMING,BUFFALO,5682834
1170644,5398221,-106.31667,42.75,WYOMING,CASPER,5682601
87239,526512,-104.82,41.3137,WYOMING,CHEYENNE,5682009
63276,378957,-104.45,42.76,WYOMING,LUSK,5682225
87239,526517,-104.8287,41.2979,WYOMING,(CYS)CHEYENNE AIRPORT,5682009
87239,526524,-104.59,41.3,WYOMING,(WY05)SKYVIEW AIRPARK,5682009
128696,771931,-106.55,44.57,WYOMING,UCROSS,5682832
128696,771923,-106.9,44.57,WYOMING,STORY,5682842
128696,771922,-106.91,44.58,WYOMING,STORY,5682842
39314,228416,-105.58,41.32,WYOMING,LARAMIE,5682072
87272,526657,-104.8494,41.1935,WYOMING,CHEYENNE,5682009
39314,228418,-105.58,41.32,WYOMING,LARAMIE,5682072
39314,228420,-106.42,41.68,WYOMING,ELK MOUNTAIN,5682324
39314,228421,-104.82,41.13,WYOMING,CHEYENNE,5682001
39314,228422,-104.82,41.1155,WYOMING,CHEYENNE,5682007
39314,228423,-105.0339,41.5178,WYOMING,CHEYENNE,5682061
39314,228425,-105.98,41.73,WYOMING,ROCK RIVER,5682083
39325,228461,-104.67,43.03,WYOMING,LANCE CREEK,5682222
39325,228462,-104.7294,43.03,WYOMING,LANCE CREEK,5682224
39325,228464,-104.45,42.9147,WYOMING,LUSK,5682225
39325,228465,-104.73,42.32,WYOMING,HARTVILLE,5682215
39325,228469,-104.73,42.32,WYOMING,HARTVILLE,5682215
39325,228471,-104.73,42.32,WYOMING,HARTVILLE,5682215
5656,33036,-104.1198,43.85,WYOMING,NEWCASTLE,5682701
5656,33035,-104.1065,43.9318,WYOMING,NEWCASTLE,5682701
39314,228419,-107.25,41.78,WYOMING,RAWLINS,5682301
129109,773845,-104.73,41.88,WYOMING,SLATER,5682201
128391,770227,-104.5389,44.68,WYOMING,HULETT,5682720
87410,527422,-104.99600000000001,44.648999999999994,WYOMING,OSHOTO,5682721
63025,377376,-104.49,41.37,WYOMING,HILLSDALE,5682009
63025,377351,-105.087,42.05,WYOMING,WHEATLAND,5682201
63025,377344,-105.04,41.15,WYOMING,EMKAY,5682009
63025,377339,-105.2537,41.1935,WYOMING,GRANITE,5682009
63025,377338,-105.23,41.18,WYOMING,GRANITE,5682009
63025,377337,-104.61,41.76,WYOMING,PHILLIPS,5682210
63025,377336,-105.23,41.18,WYOMING,GRANITE,5682009
63025,377335,-104.79,41.58,WYOMING,LITTLE BEAR,5682009
63025,377334,-105.01,41.53,WYOMING,LITTLE BEAR,5682009
63025,377329,-105.0527,41.9886,WYOMING,WHEATLAND,5682201
63025,377326,-105.1632,42.1933,WYOMING,WHEATLAND,5682201
63025,377324,-105.35,42.19,WYOMING,FLETCHER PARK,5682201
63022,377312,-104.41,41.14,WYOMING,CAMP STOOL,5682053
63022,377310,-104.4766,41.2132,WYOMING,BURNS,5682060
63022,377309,-104.54799999999999,41.1688,WYOMING,HILLSDALE,5682060
63022,377308,-104.37,41.1511,WYOMING,BURNS,5682054
63022,377306,-105.1398,41.2297,WYOMING,CHEYENNE,5682009
63022,377304,-105.0331,41.1965,WYOMING,CHEYENNE,5682009
1123574,5269678,-110.53333,41.86667,WYOMING,KEMMERER,5683101
1123573,5269677,-110.53333,41.8,WYOMING,KEMMERER,5683101
1123571,5269675,-108.71667,42.83333,WYOMING,LANDER,5682520
1123568,5269633,-108.71667,42.83333,WYOMING,LANDER,5682520
1123567,5269632,-108.71667,42.83333,WYOMING,LANDER,5682520
1123566,5269631,-108.65,42.83333,WYOMING,LANDER,5682520
1123565,5269630,-108.71667,42.83333,WYOMING,LANDER,5682520
1123563,5269628,-108.71667,42.83333,WYOMING,LANDER,5682520
1123561,5269626,-108.71667,42.83333,WYOMING,LANDER,5682520
63025,377380,-104.31,41.08,WYOMING,CARPENTER,5682054
63025,377382,-104.36,41.23,WYOMING,BURNS,5682053
63025,377384,-104.36,41.23,WYOMING,BURNS,5682053
63025,377385,-104.07,41.17,WYOMING,PINE BLUFFS,5682082
87410,527424,-104.822,44.583,WYOMING,OSHOTO,5682721
87410,527425,-104.7204,44.5901,WYOMING,DEVILS TOWER,5682714
87410,527427,-104.68799999999999,44.56399999999999,WYOMING,DEVILS TOWER,5682714
87410,527428,-104.46,44.45,WYOMING,SUNDANCE,5682729
87410,527428,-104.45200000000001,44.478,WYOMING,SUNDANCE,5682729
87410,527429,-104.902,44.568999999999996,WYOMING,OSHOTO,5682721
87410,527431,-104.38,44.41,WYOMING,SUNDANCE,5682729
87412,527442,-104.81,44.36,WYOMING,PINE HAVEN,5682721
87412,527446,-104.38799999999999,44.088,WYOMING,OSAGE,5682723
87412,527447,-104.39399999999999,44.067,WYOMING,OSAGE,5682723
87412,527449,-104.17200000000001,43.906000000000006,WYOMING,NEWCASTLE,5682701
87413,527454,-105.353,44.516999999999996,WYOMING,WESTON,5682727
1134611,5296521,-104.83333,41.93333,WYOMING,SLATER,5682201
87272,526662,-104.3799,41.42,WYOMING,ALBIN,5682050
1134613,5296523,-104.18333,41.96667,WYOMING,TORRINGTON,5682240
1134616,5296526,-103.85,43.2,WYOMING,LUSK,
1134621,5296531,-105.03333,42.5,WYOMING,GLENDO,5682213
63256,378758,-104.22,43.38,WYOMING,REDBIRD,5682225
63056,377626,-104.7351,41.4593,WYOMING,LITTLE BEAR,5682009
63056,377626,-104.74,41.46,WYOMING,LITTLE BEAR,5682009
63056,377625,-104.8683,41.4396,WYOMING,LITTLE BEAR,5682009
63056,377625,-104.87,41.44,WYOMING,LITTLE BEAR,5682009
63056,377624,-105.1064,42.05,WYOMING,WHEATLAND,5682201
63056,377624,-104.81,41.85,WYOMING,SLATER,5682201
63025,377392,-104.43,41.14,WYOMING,CAMP STOOL,5682053
63025,377391,-104.36,41.19,WYOMING,BURNS,5682053
63025,377388,-104.4108,41.1493,WYOMING,BURNS,5682053
63025,377387,-104.07,41.17,WYOMING,PINE BLUFFS,5682082
1134615,5296525,-104.45,43.4,WYOMING,LUSK,5682701
87648,528900,-105.64,44.95,WYOMING,RECLUSE,5682725
129109,773846,-104.32,41.5255,WYOMING,MERIDEN,5682081
87239,526505,-104.9696,41.2526,WYOMING,CHEYENNE,5682009
86478,521803,-105.0049,42.2021,WYOMING,DWYER JUNCTION,5682201
86478,521803,-104.99,42.21,WYOMING,DWYER JUNCTION,5682201
86478,521804,-104.74,42.27,WYOMING,GUERNSEY,5682214
86493,521866,-109.3848,41.905,WYOMING,EDEN,
86493,521866,-109.3765,41.9096,WYOMING,EDEN,
86519,522072,-104.3778,41.92,WYOMING,YODER,5682244
86521,522077,-104.2385,42.06,WYOMING,TORRINGTON,5682240
86521,522082,-104.18,42.06,WYOMING,TORRINGTON,5682240
27914,163730,-106.65,43.72,WYOMING,KAYCEE,5682639
27913,163729,-104.9612,44.2707,WYOMING,MOORCROFT,5682721
27913,163728,-105.039,44.278,WYOMING,MOORCROFT,5682721
27911,163726,-104.689,44.912,WYOMING,NEW HAVEN,5682720
27911,163724,-105.04700000000001,44.992,WYOMING,LIGHTNING FLAT,5682721
39082,226949,-104.97,42.1079,WYOMING,WHEATLAND,5682201
39082,226950,-105.1844,42.05,WYOMING,WHEATLAND,5682201
39082,226951,-104.97,42.1079,WYOMING,WHEATLAND,5682201
39082,226952,-104.97,42.05,WYOMING,WHEATLAND,5682201
27911,163719,-105.12,44.996,WYOMING,ROCKYPOINT,5682731
27911,163717,-105.204,44.986000000000004,WYOMING,ROCKYPOINT,5682731
39082,226953,-104.53,41.97,WYOMING,VETERAN,5682243
27906,163725,-108.7927,44.2655,WYOMING,MEETEETSE,5682433
27906,163723,-108.7574,43.9189,WYOMING,GRASS CREEK,5682443
27906,163704,-108.8162,44.2346,WYOMING,MEETEETSE,5682433
27902,163676,-107.9942,42.2876,WYOMING,JEFFREY CITY,
27902,163676,-108.0098,42.2936,WYOMING,JEFFREY CITY,
27885,163624,-107.8059,44.2429,WYOMING,RAIRDEN,5682432
27885,163624,-107.8031,44.2477,WYOMING,RAIRDEN,5682432
86478,521798,-105.56200000000001,42.7046,WYOMING,DOUGLAS,5682633
39051,226655,-104.29299999999999,41.42,WYOMING,ALBIN,5682050
39044,226644,-104.96,41.3841,WYOMING,CHEYENNE,5682009
39044,226633,-104.82,41.376000000000005,WYOMING,CHEYENNE,5682009
38879,225728,-104.82,41.0432,WYOMING,CHEYENNE,5682007
38879,225730,-104.1,41.42,WYOMING,ALBIN,5682050
38879,225732,-104.07,41.17,WYOMING,PINE BLUFFS,5682082
38879,225734,-105.0915,41.2595,WYOMING,HORSE CREEK,5682009
38879,225736,-104.4108,41.2107,WYOMING,BURNS,5682053
38879,225741,-104.2298,41.1202,WYOMING,PINE BLUFFS,5682054
38879,225742,-104.2238,41.17,WYOMING,PINE BLUFFS,5682082
38879,226120,-104.37,41.18,WYOMING,BURNS,5682053
38879,226122,-104.1661,41.17,WYOMING,PINE BLUFFS,5682082
38879,226124,-104.82,41.1879,WYOMING,CHEYENNE,5682009
38879,226126,-104.1661,41.17,WYOMING,PINE BLUFFS,5682082
38879,226127,-104.243,41.17,WYOMING,PINE BLUFFS,5682053
38879,226147,-104.37,41.18,WYOMING,BURNS,5682053
39082,226954,-104.2385,42.07,WYOMING,TORRINGTON,5682240
63600,380859,-105.05,44.29,WYOMING,MOORCROFT,5682721
63600,380855,-105.57,44.54,WYOMING,(GCC)GILLETTE ARPT,5682716
63525,380445,-105.21,43.3,WYOMING,BILL,5682633
63525,380444,-105.26,43.21,WYOMING,BILL,5682633
86475,521772,-105.0327,41.9886,WYOMING,WHEATLAND,5682201
86475,521775,-104.7,42.02,WYOMING,BORDEAUX,5682201
86475,521777,-105.4775,42.6884,WYOMING,DOUGLAS,5682633
86475,521778,-104.18,42.06,WYOMING,TORRINGTON,5682240
86475,521791,-104.9473,41.94,WYOMING,BORDEAUX,5682201
86478,521790,-105.7152,43.0056,WYOMING,DOUGLAS,5682633
39044,226624,-104.9161,41.13,WYOMING,CHEYENNE,5682009
39044,226629,-104.82,41.2747,WYOMING,CHEYENNE,5682009
39044,226631,-104.82,41.2458,WYOMING,CHEYENNE,5682009
39044,226632,-104.82,41.3037,WYOMING,CHEYENNE,5682009
63600,380857,-105.18299999999999,44.345,WYOMING,ROZET,5682727
1170641,5397963,-106.31667,42.83333,WYOMING,CASPER,5682601
39082,226955,-104.2214,42.0393,WYOMING,TORRINGTON,5682240
1190784,5451567,-106.75,44.8,WYOMING,SHERIDAN,5682801
87201,526262,-105.2168,43.3236,WYOMING,BILL,5682633
87201,526265,-104.29,43.24,WYOMING,REDBIRD,5682225
87201,526269,-104.3181,43.2195,WYOMING,REDBIRD,5682225
87228,526438,-104.09,43.3118,WYOMING,RIVERVIEW,5682225
129923,778256,-104.7845,41.1289,WYOMING,CHEYENNE,5682007
5669,33131,-104.0597,44.53,WYOMING,BEULAH,5682712
5669,33130,-104.1711,44.8996,WYOMING,COLONY,5657717
5669,33128,-104.2,44.92,WYOMING,COLONY,5657717
5668,33127,-104.22,43.85,WYOMING,NEWCASTLE,5682701
5668,33126,-104.22,43.8934,WYOMING,NEWCASTLE,5682701
5667,33125,-104.18,44.63,WYOMING,ALADDIN,5682710
5667,33124,-105.48,44.2655,WYOMING,GILLETTE,5682718
5667,33123,-105.48,44.1933,WYOMING,GILLETTE,5682718
5667,33122,-104.9114,44.75,WYOMING,NEW HAVEN,5682720
5667,33120,-105.9849,44.73,WYOMING,RECLUSE,5682831
5667,33119,-104.2,44.92,WYOMING,COLONY,5657717
5667,33118,-104.4678,44.8345,WYOMING,ALADDIN,5682711
5667,33117,-104.6,44.9113,WYOMING,HULETT,5682720
5667,33116,-105.0644,44.9598,WYOMING,LIGHTNING FLAT,5682721
5667,33115,-105.0789,44.9496,WYOMING,LIGHTNING FLAT,5682731
5667,33114,-104.9701,44.8856,WYOMING,WESTON,5682721
5667,33113,-105.2429,44.9,WYOMING,ROCKYPOINT,5682731
5667,33112,-105.7,44.9758,WYOMING,RECLUSE,5682725
87233,526446,-104.7759,41.0598,WYOMING,CHEYENNE,5682007
5662,33101,-105.6819,44.28,WYOMING,GILLETTE,5682716
87233,526448,-104.5043,41.05,WYOMING,CARPENTER,5682054
87233,526451,-105.46,41.05,WYOMING,HERMOSA,5682084
87197,527932,-107.0133,43.38399999999999,WYOMING,ARMINTO,5682648
87195,526236,-104.2448,41.0692,WYOMING,CARPENTER,5682054
87195,526236,-104.2551,41.0688,WYOMING,CARPENTER,5682054
87194,526234,-105.4854,41.6465,WYOMING,BOSLER,5682051
86676,523136,-105.18,41.42,WYOMING,HORSE CREEK,5682061
86833,524259,-104.3481,41.8842,WYOMING,YODER,5682244
87046,530653,-105.689,44.053000000000004,WYOMING,SAVAGETON,5682718
87047,525470,-104.27,43.67,WYOMING,NEWCASTLE,5682701
87118,525867,-106.2696,42.8397,WYOMING,ALLENDALE,5682609
130358,780409,-108.6767,43.0021,WYOMING,ETHETE,5682520
130358,780409,-108.6266,42.9707,WYOMING,HUDSON,5682520
87118,525867,-106.2294,42.8611,WYOMING,BROOKHURST,5682636
87118,525870,-107.9932,43.3946,WYOMING,BOYSEN STATE PARK,5682649
87118,526224,-106.2887,42.8434,WYOMING,ALLENDALE,5682609
87118,526224,-106.2612,42.8301,WYOMING,STROUDS,5682609
87118,526227,-106.2924,42.8417,WYOMING,ALLENDALE,5682609
87118,526238,-109.9637,44.5024,WYOMING,PAHASKA TEPEE,5682414
39097,239981,-110.986,42.9098,WYOMING,THAYNE,5683127
1190778,5452544,-107.4667,44.8,WYOMING,SHERIDAN,5682836
87123,525866,-109.7884,43.4464,WYOMING,GREEN RIVER LAKES,5682925
27595,162121,-104.45,42.77,WYOMING,LUSK,5682225
27595,162121,-104.45,42.6397,WYOMING,LUSK,5682225
27595,162120,-106.27,42.3655,WYOMING,SHIRLEY BASIN,
87143,525924,-104.36,43.38,WYOMING,RIVERVIEW,5682225
87145,525930,-104.7941,43.1426,WYOMING,LANCE CREEK,5682224
87145,525952,-104.2,42.3942,WYOMING,PRAIRIE CENTER,5682240
1190765,5452578,-106.9,44.78333,WYOMING,SHERIDAN,5682801
87193,526230,-104.1215,41.0864,WYOMING,PINE BLUFFS,5682082
130075,779029,-106.32,42.7287,WYOMING,CASPER,5682601
87193,526231,-105.1275,41.14,WYOMING,CHEYENNE,5682009
87193,526232,-105.97,41.74,WYOMING,ROCK RIVER,5682083
87193,526233,-105.0122,41.14,WYOMING,CHEYENNE,5682009
87120,525859,-110.5689,41.7824,WYOMING,DIAMONDVILLE,5683101
1095856,5145784,-104.35,42.05,WYOMING,LINGLE,5682223
1095857,5145785,-104.18333,42.01667,WYOMING,TORRINGTON,5682240
1095858,5145786,-104.35,42.13333,WYOMING,LINGLE,5682223
1097040,5151458,-108.16667,43.2,WYOMING,RIVERTON,5682649
127384,763548,-106.99,44.68,WYOMING,BIG HORN,5682801
127384,763544,-107.35,44.9,WYOMING,DAYTON,5682836
5178,30369,-106.99,43.87,WYOMING,MAYOWORTH,5682639
5178,30369,-106.88,43.87,WYOMING,MAYOWORTH,5682639
40115,233307,-104.4797,41.3859,WYOMING,CHEYENNE,5682009
40115,233308,-104.1955,41.3484,WYOMING,ALBIN,5682082
40115,233309,-104.1,41.42,WYOMING,ALBIN,5682050
40115,233311,-104.1,41.5068,WYOMING,ALBIN,5682050
40115,233312,-104.1524,42.5365,WYOMING,JAY EM,5682240
23234,135505,-105.709,43.9212,WYOMING,SAVAGETON,5682718
1172329,5404127,-104.96667,42.45,WYOMING,GLENDO,5682213
1172330,5404128,-105.03333,42.5,WYOMING,GLENDO,5682213
1172331,5404129,-104.78333,41.16667,WYOMING,CHEYENNE,5682009
1172332,5404130,-104.75,42.65,WYOMING,KEELINE,5682227
1172333,5404131,-105.86667,42.88333,WYOMING,GLENROCK,5682637
1172334,5404132,-104.96667,41.13333,WYOMING,CHEYENNE,5682009
1172335,5404133,-105.05,41.13333,WYOMING,CHEYENNE,5682009
1172336,5404134,-105.05,41.13333,WYOMING,CHEYENNE,5682009
1172337,5404135,-105.03333,41.3,WYOMING,HORSE CREEK,5682009
1172338,5404195,-105.08333,41.13333,WYOMING,CHEYENNE,5682009
1172339,5404196,-105.1,41.13333,WYOMING,CHEYENNE,5682009
1172340,5404197,-104.66667,43.03333,WYOMING,LANCE CREEK,5682222
1172341,5404198,-104.51666999999999,43.15,WYOMING,LANCE CREEK,5682222
1172342,5404199,-104.45,43.25,WYOMING,LUSK,5682225
1172343,5404200,-104.96667,42.05,WYOMING,WHEATLAND,5682201
1172344,5404201,-104.83333,42.05,WYOMING,WHEATLAND,5682201
1097040,5151457,-108.18333,43.18333,WYOMING,RIVERTON,5682649
1097039,5151455,-108.46667,44.88333,WYOMING,COWLEY,5682420
1097039,5151454,-108.46667,44.88333,WYOMING,COWLEY,5682420
1097039,5151453,-108.58333,44.88333,WYOMING,DEAVER,5682421
127596,765066,-108.4394,43.03,WYOMING,RIVERTON,5682501
39953,232331,-105.4391,44.8172,WYOMING,WESTON,5682731
39953,232332,-105.1349,44.9643,WYOMING,WESTON,5682731
39964,232447,-105.1459,44.1864,WYOMING,ROZET,5682727
39976,232502,-104.3168,41.0134,WYOMING,CARPENTER,5682054
40026,232836,-104.73,42.32,WYOMING,HARTVILLE,5682215
40026,232837,-104.6867,41.7057,WYOMING,CHUGWATER,5682210
40026,232838,-104.311,42.13,WYOMING,LINGLE,5682223
40026,232839,-104.52,42.22,WYOMING,FORT LARAMIE,5682212
1151129,5353801,-110.73333000000001,43.46667,WYOMING,JACKSON,5683001
127596,765065,-108.2465,43.1856,WYOMING,SHOSHONI,5682649
40095,233236,-104.3,43.25,WYOMING,REDBIRD,5682225
40096,233237,-104.8894,41.857,WYOMING,CHUGWATER,5682201
1172345,5404202,-104.16667,41.63333,WYOMING,LA GRANGE,5682221
40096,233548,-104.2902,41.9881,WYOMING,TORRINGTON,5682240
40096,233550,-104.7524,41.75,WYOMING,CHUGWATER,5682210
40096,233551,-104.83,41.75,WYOMING,CHUGWATER,5682210
40096,233552,-104.0973,42.0086,WYOMING,TORRINGTON,5682240
40096,233553,-104.73299999999999,41.75,WYOMING,CHUGWATER,5682210
40096,233554,-104.7136,41.75,WYOMING,CHUGWATER,5682210
40096,233555,-104.27,41.8234,WYOMING,HAWK SPRINGS,5682244
40096,233556,-104.17,41.7168,WYOMING,LA GRANGE,5682221
40096,233577,-105.5451,43.1469,WYOMING,BILL,5682633
40096,233584,-104.6688,41.7002,WYOMING,CHUGWATER,5682210
40096,233584,-104.8026,41.7295,WYOMING,CHUGWATER,5682210
5293,30965,-104.1,41.4489,WYOMING,ALBIN,5682050
1097039,5151451,-109.06667,44.51667,WYOMING,CODY,5682414
1097039,5151452,-108.75,44.75,WYOMING,POWELL,5682435
40096,233549,-104.18,42.07,WYOMING,TORRINGTON,5682240
39910,232014,-104.63,44.1,WYOMING,UPTON,5682730
5166,30153,-104.82,41.5637,WYOMING,CHEYENNE,5682009
5166,30152,-104.82,41.0143,WYOMING,CHEYENNE,5682007
1122372,5265881,-104.63333,44.1,WYOMING,UPTON,5682730
1122370,5265879,-104.21667,43.9,WYOMING,NEWCASTLE,5682701
1097902,5152538,-105.7,44.73333,WYOMING,RECLUSE,5682716
1189573,5449617,-108.2,43.71667,WYOMING,THERMOPOLIS,5682443
1189572,5449616,-108.03333,44.31667,WYOMING,MANDERSON,5682410
1189571,5449615,-108.66667,43.15,WYOMING,KINNEAR,5682501
95143,571625,-106.6141,42.9422,WYOMING,BUCKNUM,5682604
95143,571630,-106.2771,43.413000000000004,WYOMING,MIDWEST,5682643
95143,571632,-108.1117,43.2361,WYOMING,SHOSHONI,5682649
95143,591679,-106.66799999999999,44.3298,WYOMING,BUFFALO,5682834
95171,571847,-108.5741,43.9814,WYOMING,GRASS CREEK,5682443
95171,571848,-108.458,43.2715,WYOMING,MIDVALE,5682501
95171,571848,-108.5197,43.215,WYOMING,MIDVALE,5682501
95174,571882,-108.9547,44.0761,WYOMING,PITCHFORK,5682433
95174,571886,-108.2599,42.9926,WYOMING,RIVERTON,
95174,571888,-108.7742,43.0148,WYOMING,ETHETE,5682520
95174,591653,-107.1457,43.062,WYOMING,LOX,5682604
1122234,5265135,-104.36667,41.03333,WYOMING,CARPENTER,5682054
1122233,5265134,-104.48333000000001,41.21667,WYOMING,HILLSDALE,5682060
1150440,5352354,-105.13333,41.23333,WYOMING,CHEYENNE,5682009
1150439,5352353,-104.96667,41.96667,WYOMING,WHEATLAND,5682201
1150437,5352351,-104.81667,41.08333,WYOMING,CHEYENNE,5682007
1098654,5153888,-106.28333,43.41667,WYOMING,MIDWEST,5682643
1150435,5352349,-104.81667,41.13333,WYOMING,CHEYENNE,5682001
1098654,5153888,-106.25,43.41667,WYOMING,MIDWEST,5682635
1098655,5153889,-108.7,43.65,WYOMING,THERMOPOLIS,
1098656,5153890,-106.65,43.58333,WYOMING,KAYCEE,5682639
1097900,5152534,-104.65,43.73333,WYOMING,CLARETON,5682701
1097900,5152533,-104.9,43.9,WYOMING,UPTON,5682730
1097899,5154035,-104.63333,44.68333,WYOMING,HULETT,5682720
1097899,5154033,-104.83333,44.75,WYOMING,NEW HAVEN,5682720
5166,30152,-104.48,41.22,WYOMING,HILLSDALE,5682060
5166,30151,-105.58,41.4646,WYOMING,LARAMIE,5682072
94265,566846,-106.6168,43.8088,WYOMING,KAYCEE KUIPER ARPT,5682639
94265,566846,-106.6457,43.9464,WYOMING,KAYCEE KUIPER ARPT,5682639
94845,570012,-106.7441,44.4521,WYOMING,LAKE DE SMET,5682834
61112,365376,-104.63,44.52,WYOMING,DEVILS TOWER,5682714
94871,570120,-105.12,44.1,WYOMING,ROZET,5682727
94872,570121,-105.72,43.98,WYOMING,SAVAGETON,5682718
94877,586835,-105.79,43.8295,WYOMING,SAVAGETON,5682718
94888,570223,-108.6975,44.475,WYOMING,WILLWOOD,
94888,570224,-108.7294,44.4883,WYOMING,(COD)YELLOWSTONE APT,
94888,570224,-108.7494,44.5021,WYOMING,(COD)YELLOWSTONE APT,
75987,458541,-104.469,44.04600000000001,WYOMING,OSAGE,5682730
5166,30153,-104.82,41.1878,WYOMING,CHEYENNE,5682009
40189,233820,-105.37,43.0974,WYOMING,DOUGLAS,5682633
40210,233896,-104.82,41.13,WYOMING,CHEYENNE,5682001
40210,233897,-104.8378,41.1355,WYOMING,CHEYENNE,5682001
40210,233899,-104.8378,41.1355,WYOMING,CHEYENNE,5682001
40210,233901,-104.7928,41.1505,WYOMING,CHEYENNE,5682001
95002,571085,-108.1943,43.803000000000004,WYOMING,KIRBY,5682443
95002,571086,-106.4652,43.6864,WYOMING,SUSSEX,5682639
95002,571086,-106.6928,43.6953,WYOMING,KAYCEE GOSNEY ARPT,5682639
1097890,5154688,-105.9,44.88333,WYOMING,RECLUSE,5682831
1097896,5153585,-105.7,44.73333,WYOMING,RECLUSE,5682716
1097896,5153586,-104.83333,44.75,WYOMING,NEW HAVEN,5682720
1097896,5153927,-104.63333,44.68333,WYOMING,HULETT,5682720
1097896,5153928,-104.1,44.63333,WYOMING,ALADDIN,5682710
1097899,5152532,-104.1,44.63333,WYOMING,ALADDIN,5682710
40210,233895,-105.3,41.12,WYOMING,BUFORD,5682052
39907,232010,-105.5,44.29,WYOMING,GILLETTE,5682716
39907,232007,-105.8423,44.2094,WYOMING,ECHETA,5682718
39892,247592,-104.4582,43.9976,WYOMING,OSAGE,5682723
87876,530514,-105.59,41.31,WYOMING,LARAMIE,5682070
87876,530515,-104.16,41.64,WYOMING,LA GRANGE,5682221
88031,531412,-105.7,44.99,WYOMING,RECLUSE,5682725
1096280,5147542,-104.3,41.91667,WYOMING,YODER,5682244
39460,229271,-106.32,42.8155,WYOMING,CASPER,5682601
39509,229580,-104.9402,42.1035,WYOMING,WHEATLAND,5682201
39509,229581,-104.9925,42.4331,WYOMING,GLENDO,5682213
39513,229585,-104.73299999999999,41.75,WYOMING,CHUGWATER,5682210
39513,229587,-106.8481,41.7842,WYOMING,HANNA,
39513,229588,-105.0653,41.6273,WYOMING,HORSE CREEK,5682061
39513,229589,-104.87,41.58,WYOMING,LITTLE BEAR,5682009
39513,229591,-106.42,41.68,WYOMING,ELK MOUNTAIN,5682324
39513,229592,-104.3,41.8476,WYOMING,YODER,5682244
39513,229593,-104.8861,41.64,WYOMING,HORSE CREEK,5682009
39513,229594,-104.6893,41.13,WYOMING,CHEYENNE,5682007
39513,229595,-104.2027,41.4107,WYOMING,PINE BLUFFS,5682050
39513,229597,-104.3021,41.0812,WYOMING,CARPENTER,5682054
39513,229599,-104.1536,41.78,WYOMING,HAWK SPRINGS,5682217
39513,229600,-104.27,41.8234,WYOMING,HAWK SPRINGS,5682244
1190348,5454637,-104.5,43.03333,WYOMING,LANCE CREEK,5682225
1190347,5454636,-104.33333,42.96667,WYOMING,LUSK,5682225
1190346,5454635,-104.71667,43.0,WYOMING,LANCE CREEK,5682222
1190346,5454635,-104.66667,43.03333,WYOMING,LANCE CREEK,5682222
1190345,5454634,-104.13333,41.26667,WYOMING,PINE BLUFFS,5682082
1190344,5454633,-104.55,41.31667,WYOMING,BURNS,5682009
5524,32304,-104.82,41.13,WYOMING,CHEYENNE,5682001
5524,32303,-104.82,41.0143,WYOMING,CHEYENNE,5682007
26950,157943,-107.9797,41.6728,WYOMING,WAMSUTTER,5682336
26950,157943,-108.1423,41.6487,WYOMING,RED DESERT,5682336
1096019,5148937,-107.16667,44.91667,WYOMING,RANCHESTER,5682839
1095921,5147045,-104.81667,41.18333,WYOMING,CHEYENNE,5682009
1095859,5145787,-104.18333,42.06667,WYOMING,TORRINGTON,5682240
1095860,5145788,-104.18333,41.96667,WYOMING,TORRINGTON,5682240
5564,32580,-104.83,41.8078,WYOMING,CHUGWATER,5682210
1095881,5146185,-104.36667,42.46667,WYOMING,JAY EM,5682240
1095890,5146634,-105.38333,42.35,WYOMING,WHEATLAND,5682633
1095891,5146635,-105.36667,42.35,WYOMING,WHEATLAND,5682633
1095892,5146636,-104.96667,42.33333,WYOMING,WHEATLAND,5682201
1095893,5146637,-104.96667,42.41667,WYOMING,WHEATLAND,5682213
1095894,5146638,-104.96667,42.45,WYOMING,GLENDO,5682213
1095895,5146639,-104.73333000000001,42.33333,WYOMING,GUERNSEY,5682215
1095896,5146640,-104.58333,42.46667,WYOMING,JAY EM,5682219
1095897,5146641,-104.96667,42.31667,WYOMING,WHEATLAND,5682201
1095898,5146642,-105.01666999999999,42.46667,WYOMING,GUERNSEY,5682213
1190343,5454632,-104.81667,41.26667,WYOMING,CHEYENNE,5682009
1095899,5146643,-104.18333,42.48333,WYOMING,TORRINGTON,5682240
1095901,5146645,-104.51666999999999,42.21667,WYOMING,FT LARAMIE,5682212
1095902,5146731,-104.35,42.21667,WYOMING,LINGLE,5682212
1095904,5146733,-104.35,42.21667,WYOMING,LINGLE,5682212
1095906,5146735,-104.71667,42.05,WYOMING,WHEATLAND,5682201
1095907,5146736,-104.43333,42.06667,WYOMING,LINGLE,5682223
1095908,5146737,-104.41667,42.13333,WYOMING,LINGLE,5682223
1095910,5146739,-104.35,42.13333,WYOMING,LINGLE,5682223
1095911,5146740,-104.28333,42.06667,WYOMING,TORRINGTON,5682240
1095913,5147037,-104.7,42.3,WYOMING,GUERNSEY,5682214
1095914,5147038,-104.45,42.46667,WYOMING,JAY EM,5682219
1095915,5147039,-104.28333,42.46667,WYOMING,JAY EM,5682240
1095916,5147040,-104.98333000000001,41.41667,WYOMING,HORSE CREEK,5682009
1095917,5147041,-104.81667,41.56667,WYOMING,CHEYENNE,5682009
1095900,5146644,-104.16667,42.46667,WYOMING,JAY EM,5682240
1190328,5453614,-104.06667,43.05,WYOMING,LUSK,5682225
1190326,5453612,-104.18333,41.95,WYOMING,TORRINGTON,5682240
1190325,5453611,-104.66667,43.06667,WYOMING,LANCE CREEK,5682222
127670,765616,-106.2646,42.8503,WYOMING,EVANSVILLE,5682609
127670,765616,-106.1847,42.8174,WYOMING,STROUDS,5682609
127670,765605,-106.28,43.42,WYOMING,MIDWEST,5682643
127658,765506,-104.6,44.68,WYOMING,HULETT,5682720
127637,765567,-108.5416,44.98,WYOMING,FRANNIE,5682423
127637,765567,-108.3727,44.776,WYOMING,LOVELL,5682431
127637,765560,-108.2021,43.6367,WYOMING,THERMOPOLIS,5682443
127637,765560,-108.2247,43.6521,WYOMING,THERMOPOLIS,5682443
39862,231857,-105.9425,44.9677,WYOMING,RECLUSE,5682831
127637,765559,-106.63,43.72,WYOMING,KAYCEE,5682639
127637,765559,-106.62700000000001,43.7601,WYOMING,KAYCEE,5682639
127637,765558,-106.32,42.9,WYOMING,BAR NUNN,5682601
39864,231862,-105.1735,44.0926,WYOMING,ROZET,5682727
127670,765617,-108.29,44.96,WYOMING,COWLEY ARPT,5682431
39869,231872,-105.0083,43.6669,WYOMING,ROCHELLE,5682701
39873,231878,-104.7602,44.8685,WYOMING,NEW HAVEN,5682720
127637,765558,-106.3173,42.8974,WYOMING,BAR NUNN,5682601
127637,765557,-106.34,42.9,WYOMING,BAR NUNN,5682601
127637,765557,-106.292,42.8218,WYOMING,ALLENDALE,5682601
127637,765556,-106.2942,43.4448,WYOMING,MIDWEST,
127637,765556,-106.2479,43.3888,WYOMING,SALT CREEK COLUMBINE,5682635
39884,231937,-104.32,43.56,WYOMING,NEWCASTLE,5682701
127637,765555,-106.92,44.25,WYOMING,BUFFALO,5682834
127637,765555,-106.7,44.0605,WYOMING,BUFFALO,5682834
39892,231971,-105.4746,43.7403,WYOMING,WRIGHT,5682718
39892,231973,-105.47,43.72,WYOMING,WRIGHT,5682718
39892,231982,-105.12,44.1,WYOMING,ROZET,5682727
39892,231991,-104.4302,44.2433,WYOMING,UPTON,5682729
39869,231874,-104.91,43.6,WYOMING,ROCHELLE,5682701
1219088,5530294,-104.6167,44.23333,WYOMING,SUNDANCE,5682730
127670,765618,-106.7217,44.2701,WYOMING,BUFFALO,5682834
127670,765620,-106.88,44.48,WYOMING,SADDLESTRING,5682834
1190323,5453609,-104.83333,41.81667,WYOMING,CHUGWATER,5682210
1190323,5453609,-104.83333,41.75,WYOMING,CHUGWATER,5682210
1190320,5453606,-104.51666999999999,42.21667,WYOMING,FT LARAMIE,5682212
1190320,5453606,-104.63333,42.21667,WYOMING,FT LARAMIE,5682212
1190318,5453604,-104.73333000000001,42.26667,WYOMING,GUERNSEY,5682214
1190317,5453603,-104.81667,41.48333,WYOMING,CHEYENNE,5682009
1190305,5453591,-104.15,43.36667,WYOMING,REDBIRD,5682225
62724,375078,-105.49799999999999,44.288999999999994,WYOMING,GILLETTE,5682716
1171201,5401285,-106.38333,44.58333,WYOMING,CLEARMONT,5682835
1171202,5401286,-106.38333,44.63333,WYOMING,CLEARMONT,5682835
39658,239718,-105.478,44.2472,WYOMING,GILLETTE,5682718
39659,230482,-105.97,44.71,WYOMING,RECLUSE,5682831
89335,538050,-105.3,44.64,WYOMING,WESTON,5682731
127670,765618,-106.5995,44.1762,WYOMING,BUFFALO,5682834
89335,538054,-105.1673,44.63,WYOMING,WESTON,5682731
89388,538382,-108.2,43.65,WYOMING,THERMOPOLIS,5682443
62396,373346,-104.8346,42.2645,WYOMING,WENDOVER,5682214
62396,373346,-104.8455,42.2527,WYOMING,WENDOVER,5682201
1211698,5509217,-105.0833,44.95,WYOMING,LIGHTNING FLAT,5682731
1211692,5508337,-104.2,44.86667,WYOMING,COLONY,5657717
62062,371286,-104.07,41.18,WYOMING,PINE BLUFFS,5682082
62062,371285,-104.07,41.18,WYOMING,PINE BLUFFS,5682082
62062,371284,-104.07,41.18,WYOMING,PINE BLUFFS,5682082
62062,371283,-104.07,41.18,WYOMING,PINE BLUFFS,5682082
62062,371282,-104.12,41.27,WYOMING,PINE BLUFFS,5682082
127671,765634,-106.5151,42.6867,WYOMING,CASPER,5682604
127671,765633,-106.28,43.42,WYOMING,MIDWEST,5682643
127670,765620,-106.6428,44.3091,WYOMING,BUFFALO,5682834
89388,538380,-110.9233,42.6302,WYOMING,SMOOT,5683110
1093015,5138230,-105.2,41.01667,WYOMING,CHEYENNE,5682059
